<?xml version="1.0" encoding="UTF-8"?>
<gpx xmlns:gpxdata="http://www.cluetrust.com/XML/GPXDATA/1/0" xmlns:xsi="http://www.w3.org/2001/XMLSchema-instance" xmlns="http://www.topografix.com/GPX/1/1" version="1.1" creator="http://ridewithgps.com/" xsi:schemaLocation="http://www.topografix.com/GPX/1/1 http://www.topografix.com/GPX/1/1/gpx.xsd http://www.cluetrust.com/XML/GPXDATA/1/0 http://www.cluetrust.com/Schemas/gpxdata10.xsd">
  <metadata>
    <name>Riol - Bernkastel-Kues 45km ENG 2026</name>
    <link href="https://ridewithgps.com/routes/56384611">
      <text>Riol - Bernkastel-Kues 45km ENG 2026</text>
    </link>
    <time>2026-07-29T08:25:49Z</time>
  </metadata>
  <trk>
    <name>Riol - Bernkastel-Kues 45km ENG 2026</name>
    <trkseg>
      <trkpt lat="49.79401" lon="6.80683">
        <ele>123.3</ele>
      </trkpt>
      <trkpt lat="49.79369" lon="6.80783">
        <ele>121.1</ele>
      </trkpt>
      <trkpt lat="49.79338" lon="6.80883">
        <ele>121.2</ele>
      </trkpt>
      <trkpt lat="49.79306" lon="6.80982">
        <ele>119.7</ele>
      </trkpt>
      <trkpt lat="49.79275" lon="6.81105">
        <ele>121.0</ele>
      </trkpt>
      <trkpt lat="49.79247" lon="6.81224">
        <ele>120.3</ele>
      </trkpt>
      <trkpt lat="49.7922" lon="6.81344">
        <ele>118.7</ele>
      </trkpt>
      <trkpt lat="49.79216" lon="6.81349">
        <ele>118.8</ele>
      </trkpt>
      <trkpt lat="49.79213" lon="6.81349">
        <ele>118.9</ele>
      </trkpt>
      <trkpt lat="49.79194" lon="6.8134">
        <ele>119.3</ele>
      </trkpt>
      <trkpt lat="49.79191" lon="6.81362">
        <ele>119.4</ele>
      </trkpt>
      <trkpt lat="49.7921" lon="6.81375">
        <ele>119.0</ele>
      </trkpt>
      <trkpt lat="49.7921" lon="6.81385">
        <ele>119.0</ele>
      </trkpt>
      <trkpt lat="49.79189" lon="6.81477">
        <ele>122.1</ele>
      </trkpt>
      <trkpt lat="49.79167" lon="6.81568">
        <ele>124.2</ele>
      </trkpt>
      <trkpt lat="49.79148" lon="6.81661">
        <ele>120.3</ele>
      </trkpt>
      <trkpt lat="49.79129" lon="6.81754">
        <ele>127.2</ele>
      </trkpt>
      <trkpt lat="49.79123" lon="6.818">
        <ele>131.0</ele>
      </trkpt>
      <trkpt lat="49.7912" lon="6.81803">
        <ele>132.0</ele>
      </trkpt>
      <trkpt lat="49.79101" lon="6.81795">
        <ele>137.2</ele>
      </trkpt>
      <trkpt lat="49.79097" lon="6.81824">
        <ele>140.7</ele>
      </trkpt>
      <trkpt lat="49.79097" lon="6.81848">
        <ele>143.0</ele>
      </trkpt>
      <trkpt lat="49.79107" lon="6.81948">
        <ele>147.8</ele>
      </trkpt>
      <trkpt lat="49.7913" lon="6.82054">
        <ele>143.1</ele>
      </trkpt>
      <trkpt lat="49.79154" lon="6.8216">
        <ele>145.5</ele>
      </trkpt>
      <trkpt lat="49.79175" lon="6.82249">
        <ele>151.1</ele>
      </trkpt>
      <trkpt lat="49.79197" lon="6.82338">
        <ele>154.4</ele>
      </trkpt>
      <trkpt lat="49.79223" lon="6.82414">
        <ele>152.7</ele>
      </trkpt>
      <trkpt lat="49.7925" lon="6.82489">
        <ele>141.6</ele>
      </trkpt>
      <trkpt lat="49.79283" lon="6.82554">
        <ele>144.5</ele>
      </trkpt>
      <trkpt lat="49.79316" lon="6.82619">
        <ele>145.4</ele>
      </trkpt>
      <trkpt lat="49.79372" lon="6.82693">
        <ele>140.0</ele>
      </trkpt>
      <trkpt lat="49.79427" lon="6.82767">
        <ele>144.3</ele>
      </trkpt>
      <trkpt lat="49.79463" lon="6.8282">
        <ele>134.2</ele>
      </trkpt>
      <trkpt lat="49.79498" lon="6.82872">
        <ele>129.4</ele>
      </trkpt>
      <trkpt lat="49.79513" lon="6.82899">
        <ele>133.3</ele>
      </trkpt>
      <trkpt lat="49.79529" lon="6.82935">
        <ele>134.5</ele>
      </trkpt>
      <trkpt lat="49.79552" lon="6.82997">
        <ele>132.8</ele>
      </trkpt>
      <trkpt lat="49.79599" lon="6.83107">
        <ele>134.5</ele>
      </trkpt>
      <trkpt lat="49.7961" lon="6.83129">
        <ele>133.3</ele>
      </trkpt>
      <trkpt lat="49.79628" lon="6.83179">
        <ele>130.0</ele>
      </trkpt>
      <trkpt lat="49.79653" lon="6.83264">
        <ele>122.8</ele>
      </trkpt>
      <trkpt lat="49.79677" lon="6.83349">
        <ele>125.2</ele>
      </trkpt>
      <trkpt lat="49.79707" lon="6.8347">
        <ele>122.0</ele>
      </trkpt>
      <trkpt lat="49.79712" lon="6.83503">
        <ele>121.1</ele>
      </trkpt>
      <trkpt lat="49.79714" lon="6.83529">
        <ele>120.9</ele>
      </trkpt>
      <trkpt lat="49.79715" lon="6.83564">
        <ele>120.8</ele>
      </trkpt>
      <trkpt lat="49.79711" lon="6.83599">
        <ele>121.0</ele>
      </trkpt>
      <trkpt lat="49.79704" lon="6.83625">
        <ele>121.4</ele>
      </trkpt>
      <trkpt lat="49.79693" lon="6.83659">
        <ele>121.9</ele>
      </trkpt>
      <trkpt lat="49.79678" lon="6.83693">
        <ele>123.3</ele>
      </trkpt>
      <trkpt lat="49.79658" lon="6.83726">
        <ele>124.7</ele>
      </trkpt>
      <trkpt lat="49.79637" lon="6.83756">
        <ele>124.3</ele>
      </trkpt>
      <trkpt lat="49.79604" lon="6.83801">
        <ele>123.5</ele>
      </trkpt>
      <trkpt lat="49.79566" lon="6.83841">
        <ele>124.2</ele>
      </trkpt>
      <trkpt lat="49.79497" lon="6.83893">
        <ele>121.9</ele>
      </trkpt>
      <trkpt lat="49.79426" lon="6.83925">
        <ele>121.4</ele>
      </trkpt>
      <trkpt lat="49.79356" lon="6.83957">
        <ele>122.4</ele>
      </trkpt>
      <trkpt lat="49.79285" lon="6.83989">
        <ele>123.3</ele>
      </trkpt>
      <trkpt lat="49.79234" lon="6.84019">
        <ele>122.3</ele>
      </trkpt>
      <trkpt lat="49.79156" lon="6.84074">
        <ele>125.9</ele>
      </trkpt>
      <trkpt lat="49.79117" lon="6.84105">
        <ele>123.7</ele>
      </trkpt>
      <trkpt lat="49.7908" lon="6.8414">
        <ele>120.1</ele>
      </trkpt>
      <trkpt lat="49.79031" lon="6.84192">
        <ele>121.2</ele>
      </trkpt>
      <trkpt lat="49.79013" lon="6.84214">
        <ele>122.4</ele>
      </trkpt>
      <trkpt lat="49.78978" lon="6.8426">
        <ele>123.3</ele>
      </trkpt>
      <trkpt lat="49.78947" lon="6.84309">
        <ele>123.4</ele>
      </trkpt>
      <trkpt lat="49.78921" lon="6.84354">
        <ele>124.8</ele>
      </trkpt>
      <trkpt lat="49.78896" lon="6.84403">
        <ele>125.4</ele>
      </trkpt>
      <trkpt lat="49.78869" lon="6.84468">
        <ele>124.6</ele>
      </trkpt>
      <trkpt lat="49.78857" lon="6.84504">
        <ele>124.2</ele>
      </trkpt>
      <trkpt lat="49.7884" lon="6.84575">
        <ele>127.9</ele>
      </trkpt>
      <trkpt lat="49.78827" lon="6.84646">
        <ele>131.2</ele>
      </trkpt>
      <trkpt lat="49.78827" lon="6.84774">
        <ele>137.0</ele>
      </trkpt>
      <trkpt lat="49.78832" lon="6.84859">
        <ele>138.0</ele>
      </trkpt>
      <trkpt lat="49.78849" lon="6.84927">
        <ele>138.9</ele>
      </trkpt>
      <trkpt lat="49.78881" lon="6.84989">
        <ele>131.1</ele>
      </trkpt>
      <trkpt lat="49.78931" lon="6.85066">
        <ele>137.3</ele>
      </trkpt>
      <trkpt lat="49.78976" lon="6.8512">
        <ele>138.2</ele>
      </trkpt>
      <trkpt lat="49.7902" lon="6.85175">
        <ele>142.8</ele>
      </trkpt>
      <trkpt lat="49.7908" lon="6.85225">
        <ele>133.9</ele>
      </trkpt>
      <trkpt lat="49.7914" lon="6.85275">
        <ele>131.8</ele>
      </trkpt>
      <trkpt lat="49.79193" lon="6.85314">
        <ele>131.0</ele>
      </trkpt>
      <trkpt lat="49.79246" lon="6.85353">
        <ele>132.4</ele>
      </trkpt>
      <trkpt lat="49.79261" lon="6.85359">
        <ele>131.8</ele>
      </trkpt>
      <trkpt lat="49.793" lon="6.85361">
        <ele>127.6</ele>
      </trkpt>
      <trkpt lat="49.79347" lon="6.85367">
        <ele>123.8</ele>
      </trkpt>
      <trkpt lat="49.79375" lon="6.85379">
        <ele>122.5</ele>
      </trkpt>
      <trkpt lat="49.79406" lon="6.85401">
        <ele>119.1</ele>
      </trkpt>
      <trkpt lat="49.79434" lon="6.85425">
        <ele>119.5</ele>
      </trkpt>
      <trkpt lat="49.79492" lon="6.85471">
        <ele>128.1</ele>
      </trkpt>
      <trkpt lat="49.79536" lon="6.85492">
        <ele>125.2</ele>
      </trkpt>
      <trkpt lat="49.79581" lon="6.85513">
        <ele>121.7</ele>
      </trkpt>
      <trkpt lat="49.79658" lon="6.85538">
        <ele>126.9</ele>
      </trkpt>
      <trkpt lat="49.79735" lon="6.85564">
        <ele>133.1</ele>
      </trkpt>
      <trkpt lat="49.79784" lon="6.85573">
        <ele>127.9</ele>
      </trkpt>
      <trkpt lat="49.79833" lon="6.85583">
        <ele>117.1</ele>
      </trkpt>
      <trkpt lat="49.79888" lon="6.85588">
        <ele>119.5</ele>
      </trkpt>
      <trkpt lat="49.79942" lon="6.85593">
        <ele>124.4</ele>
      </trkpt>
      <trkpt lat="49.79987" lon="6.85586">
        <ele>126.5</ele>
      </trkpt>
      <trkpt lat="49.80032" lon="6.8558">
        <ele>127.3</ele>
      </trkpt>
      <trkpt lat="49.80069" lon="6.85571">
        <ele>126.9</ele>
      </trkpt>
      <trkpt lat="49.80105" lon="6.85561">
        <ele>126.7</ele>
      </trkpt>
      <trkpt lat="49.80185" lon="6.85525">
        <ele>124.3</ele>
      </trkpt>
      <trkpt lat="49.80193" lon="6.85526">
        <ele>125.5</ele>
      </trkpt>
      <trkpt lat="49.80206" lon="6.85531">
        <ele>128.0</ele>
      </trkpt>
      <trkpt lat="49.8022" lon="6.85525">
        <ele>128.5</ele>
      </trkpt>
      <trkpt lat="49.80289" lon="6.85476">
        <ele>129.8</ele>
      </trkpt>
      <trkpt lat="49.80352" lon="6.85427">
        <ele>131.5</ele>
      </trkpt>
      <trkpt lat="49.80383" lon="6.85401">
        <ele>132.4</ele>
      </trkpt>
      <trkpt lat="49.80437" lon="6.85361">
        <ele>133.7</ele>
      </trkpt>
      <trkpt lat="49.80493" lon="6.85334">
        <ele>128.4</ele>
      </trkpt>
      <trkpt lat="49.80549" lon="6.85308">
        <ele>125.9</ele>
      </trkpt>
      <trkpt lat="49.80628" lon="6.85271">
        <ele>124.3</ele>
      </trkpt>
      <trkpt lat="49.80707" lon="6.85234">
        <ele>123.9</ele>
      </trkpt>
      <trkpt lat="49.80786" lon="6.85197">
        <ele>124.0</ele>
      </trkpt>
      <trkpt lat="49.80865" lon="6.8516">
        <ele>126.0</ele>
      </trkpt>
      <trkpt lat="49.80944" lon="6.85124">
        <ele>127.1</ele>
      </trkpt>
      <trkpt lat="49.80994" lon="6.85105">
        <ele>131.8</ele>
      </trkpt>
      <trkpt lat="49.81003" lon="6.85098">
        <ele>131.5</ele>
      </trkpt>
      <trkpt lat="49.81012" lon="6.85088">
        <ele>130.3</ele>
      </trkpt>
      <trkpt lat="49.81021" lon="6.8508">
        <ele>130.1</ele>
      </trkpt>
      <trkpt lat="49.8107" lon="6.85058">
        <ele>132.7</ele>
      </trkpt>
      <trkpt lat="49.81093" lon="6.85044">
        <ele>132.8</ele>
      </trkpt>
      <trkpt lat="49.81112" lon="6.85029">
        <ele>132.2</ele>
      </trkpt>
      <trkpt lat="49.81167" lon="6.85001">
        <ele>130.3</ele>
      </trkpt>
      <trkpt lat="49.81219" lon="6.84972">
        <ele>132.7</ele>
      </trkpt>
      <trkpt lat="49.81219" lon="6.84972">
        <ele>132.7</ele>
      </trkpt>
      <trkpt lat="49.81252" lon="6.84954">
        <ele>133.1</ele>
      </trkpt>
      <trkpt lat="49.81323" lon="6.84911">
        <ele>129.4</ele>
      </trkpt>
      <trkpt lat="49.81373" lon="6.84879">
        <ele>129.1</ele>
      </trkpt>
      <trkpt lat="49.81455" lon="6.84825">
        <ele>125.1</ele>
      </trkpt>
      <trkpt lat="49.81537" lon="6.8477">
        <ele>125.2</ele>
      </trkpt>
      <trkpt lat="49.81619" lon="6.84715">
        <ele>124.3</ele>
      </trkpt>
      <trkpt lat="49.81675" lon="6.84679">
        <ele>124.2</ele>
      </trkpt>
      <trkpt lat="49.8173" lon="6.84643">
        <ele>124.7</ele>
      </trkpt>
      <trkpt lat="49.81766" lon="6.84621">
        <ele>124.5</ele>
      </trkpt>
      <trkpt lat="49.81834" lon="6.84589">
        <ele>124.6</ele>
      </trkpt>
      <trkpt lat="49.81878" lon="6.84578">
        <ele>125.2</ele>
      </trkpt>
      <trkpt lat="49.81887" lon="6.84563">
        <ele>124.1</ele>
      </trkpt>
      <trkpt lat="49.81944" lon="6.84512">
        <ele>120.6</ele>
      </trkpt>
      <trkpt lat="49.81987" lon="6.84483">
        <ele>120.3</ele>
      </trkpt>
      <trkpt lat="49.82062" lon="6.84433">
        <ele>119.7</ele>
      </trkpt>
      <trkpt lat="49.82138" lon="6.84383">
        <ele>119.3</ele>
      </trkpt>
      <trkpt lat="49.82148" lon="6.84378">
        <ele>119.2</ele>
      </trkpt>
      <trkpt lat="49.82155" lon="6.84381">
        <ele>119.7</ele>
      </trkpt>
      <trkpt lat="49.82158" lon="6.84389">
        <ele>120.7</ele>
      </trkpt>
      <trkpt lat="49.82208" lon="6.84345">
        <ele>119.2</ele>
      </trkpt>
      <trkpt lat="49.82259" lon="6.84301">
        <ele>119.8</ele>
      </trkpt>
      <trkpt lat="49.82314" lon="6.84253">
        <ele>121.2</ele>
      </trkpt>
      <trkpt lat="49.82368" lon="6.84204">
        <ele>120.2</ele>
      </trkpt>
      <trkpt lat="49.82423" lon="6.84156">
        <ele>121.1</ele>
      </trkpt>
      <trkpt lat="49.82434" lon="6.84151">
        <ele>120.8</ele>
      </trkpt>
      <trkpt lat="49.82443" lon="6.84152">
        <ele>121.0</ele>
      </trkpt>
      <trkpt lat="49.82451" lon="6.8415">
        <ele>120.9</ele>
      </trkpt>
      <trkpt lat="49.82472" lon="6.84141">
        <ele>120.7</ele>
      </trkpt>
      <trkpt lat="49.82502" lon="6.84118">
        <ele>120.3</ele>
      </trkpt>
      <trkpt lat="49.82561" lon="6.84066">
        <ele>121.2</ele>
      </trkpt>
      <trkpt lat="49.82622" lon="6.84012">
        <ele>121.3</ele>
      </trkpt>
      <trkpt lat="49.82682" lon="6.83958">
        <ele>120.9</ele>
      </trkpt>
      <trkpt lat="49.82743" lon="6.83903">
        <ele>121.2</ele>
      </trkpt>
      <trkpt lat="49.82769" lon="6.83876">
        <ele>120.6</ele>
      </trkpt>
      <trkpt lat="49.82788" lon="6.83858">
        <ele>120.2</ele>
      </trkpt>
      <trkpt lat="49.8283" lon="6.83824">
        <ele>119.4</ele>
      </trkpt>
      <trkpt lat="49.82872" lon="6.83789">
        <ele>118.1</ele>
      </trkpt>
      <trkpt lat="49.82943" lon="6.83729">
        <ele>118.0</ele>
      </trkpt>
      <trkpt lat="49.83015" lon="6.83668">
        <ele>118.4</ele>
      </trkpt>
      <trkpt lat="49.83086" lon="6.83608">
        <ele>118.6</ele>
      </trkpt>
      <trkpt lat="49.83107" lon="6.83593">
        <ele>118.2</ele>
      </trkpt>
      <trkpt lat="49.8312" lon="6.83586">
        <ele>118.1</ele>
      </trkpt>
      <trkpt lat="49.83136" lon="6.83581">
        <ele>118.0</ele>
      </trkpt>
      <trkpt lat="49.83207" lon="6.83569">
        <ele>117.7</ele>
      </trkpt>
      <trkpt lat="49.83207" lon="6.83569">
        <ele>117.7</ele>
      </trkpt>
      <trkpt lat="49.83255" lon="6.83561">
        <ele>117.6</ele>
      </trkpt>
      <trkpt lat="49.83312" lon="6.83568">
        <ele>119.7</ele>
      </trkpt>
      <trkpt lat="49.83337" lon="6.83574">
        <ele>120.6</ele>
      </trkpt>
      <trkpt lat="49.83359" lon="6.83583">
        <ele>120.7</ele>
      </trkpt>
      <trkpt lat="49.83403" lon="6.83607">
        <ele>120.6</ele>
      </trkpt>
      <trkpt lat="49.83422" lon="6.83622">
        <ele>120.9</ele>
      </trkpt>
      <trkpt lat="49.83443" lon="6.83642">
        <ele>121.0</ele>
      </trkpt>
      <trkpt lat="49.83462" lon="6.83657">
        <ele>120.8</ele>
      </trkpt>
      <trkpt lat="49.83472" lon="6.83669">
        <ele>120.7</ele>
      </trkpt>
      <trkpt lat="49.83495" lon="6.83714">
        <ele>120.7</ele>
      </trkpt>
      <trkpt lat="49.83491" lon="6.83718">
        <ele>120.8</ele>
      </trkpt>
      <trkpt lat="49.83494" lon="6.83725">
        <ele>120.8</ele>
      </trkpt>
      <trkpt lat="49.8352" lon="6.83784">
        <ele>121.5</ele>
      </trkpt>
      <trkpt lat="49.83522" lon="6.83796">
        <ele>121.9</ele>
      </trkpt>
      <trkpt lat="49.83523" lon="6.83806">
        <ele>122.2</ele>
      </trkpt>
      <trkpt lat="49.83522" lon="6.83815">
        <ele>122.4</ele>
      </trkpt>
      <trkpt lat="49.83487" lon="6.83863">
        <ele>123.0</ele>
      </trkpt>
      <trkpt lat="49.83452" lon="6.8391">
        <ele>123.0</ele>
      </trkpt>
      <trkpt lat="49.8342" lon="6.83954">
        <ele>122.6</ele>
      </trkpt>
      <trkpt lat="49.83407" lon="6.83987">
        <ele>122.3</ele>
      </trkpt>
      <trkpt lat="49.83376" lon="6.84094">
        <ele>123.6</ele>
      </trkpt>
      <trkpt lat="49.8335" lon="6.84194">
        <ele>124.1</ele>
      </trkpt>
      <trkpt lat="49.83327" lon="6.84279">
        <ele>123.0</ele>
      </trkpt>
      <trkpt lat="49.83397" lon="6.84352">
        <ele>124.4</ele>
      </trkpt>
      <trkpt lat="49.83408" lon="6.84367">
        <ele>124.4</ele>
      </trkpt>
      <trkpt lat="49.83417" lon="6.84384">
        <ele>124.4</ele>
      </trkpt>
      <trkpt lat="49.83455" lon="6.84475">
        <ele>122.5</ele>
      </trkpt>
      <trkpt lat="49.83479" lon="6.84536">
        <ele>122.4</ele>
      </trkpt>
      <trkpt lat="49.83504" lon="6.84652">
        <ele>124.6</ele>
      </trkpt>
      <trkpt lat="49.83526" lon="6.84758">
        <ele>126.8</ele>
      </trkpt>
      <trkpt lat="49.83526" lon="6.84758">
        <ele>126.8</ele>
      </trkpt>
      <trkpt lat="49.83553" lon="6.84887">
        <ele>128.6</ele>
      </trkpt>
      <trkpt lat="49.83581" lon="6.85016">
        <ele>131.1</ele>
      </trkpt>
      <trkpt lat="49.83608" lon="6.85144">
        <ele>131.1</ele>
      </trkpt>
      <trkpt lat="49.83636" lon="6.85273">
        <ele>132.2</ele>
      </trkpt>
      <trkpt lat="49.83664" lon="6.85392">
        <ele>133.3</ele>
      </trkpt>
      <trkpt lat="49.83693" lon="6.85511">
        <ele>134.7</ele>
      </trkpt>
      <trkpt lat="49.83722" lon="6.8563">
        <ele>135.7</ele>
      </trkpt>
      <trkpt lat="49.8375" lon="6.85749">
        <ele>135.0</ele>
      </trkpt>
      <trkpt lat="49.83776" lon="6.85842">
        <ele>136.1</ele>
      </trkpt>
      <trkpt lat="49.83801" lon="6.85934">
        <ele>136.7</ele>
      </trkpt>
      <trkpt lat="49.8382" lon="6.86021">
        <ele>138.2</ele>
      </trkpt>
      <trkpt lat="49.8384" lon="6.86107">
        <ele>140.0</ele>
      </trkpt>
      <trkpt lat="49.83857" lon="6.862">
        <ele>139.0</ele>
      </trkpt>
      <trkpt lat="49.83864" lon="6.86303">
        <ele>137.6</ele>
      </trkpt>
      <trkpt lat="49.83864" lon="6.86323">
        <ele>137.6</ele>
      </trkpt>
      <trkpt lat="49.8394" lon="6.86323">
        <ele>133.2</ele>
      </trkpt>
      <trkpt lat="49.84016" lon="6.86323">
        <ele>128.6</ele>
      </trkpt>
      <trkpt lat="49.84092" lon="6.86323">
        <ele>126.6</ele>
      </trkpt>
      <trkpt lat="49.84158" lon="6.86322">
        <ele>125.2</ele>
      </trkpt>
      <trkpt lat="49.84225" lon="6.86322">
        <ele>120.9</ele>
      </trkpt>
      <trkpt lat="49.84224" lon="6.86346">
        <ele>120.9</ele>
      </trkpt>
      <trkpt lat="49.84221" lon="6.86391">
        <ele>121.3</ele>
      </trkpt>
      <trkpt lat="49.84225" lon="6.86404">
        <ele>121.1</ele>
      </trkpt>
      <trkpt lat="49.84245" lon="6.86422">
        <ele>120.2</ele>
      </trkpt>
      <trkpt lat="49.84251" lon="6.86438">
        <ele>119.7</ele>
      </trkpt>
      <trkpt lat="49.84252" lon="6.86451">
        <ele>119.5</ele>
      </trkpt>
      <trkpt lat="49.84249" lon="6.86502">
        <ele>119.0</ele>
      </trkpt>
      <trkpt lat="49.84245" lon="6.86541">
        <ele>118.8</ele>
      </trkpt>
      <trkpt lat="49.84234" lon="6.86617">
        <ele>119.6</ele>
      </trkpt>
      <trkpt lat="49.84219" lon="6.86676">
        <ele>121.3</ele>
      </trkpt>
      <trkpt lat="49.84197" lon="6.86745">
        <ele>122.6</ele>
      </trkpt>
      <trkpt lat="49.84174" lon="6.86813">
        <ele>122.0</ele>
      </trkpt>
      <trkpt lat="49.84156" lon="6.86919">
        <ele>121.1</ele>
      </trkpt>
      <trkpt lat="49.84145" lon="6.86973">
        <ele>120.3</ele>
      </trkpt>
      <trkpt lat="49.84131" lon="6.87033">
        <ele>120.7</ele>
      </trkpt>
      <trkpt lat="49.84118" lon="6.87067">
        <ele>121.6</ele>
      </trkpt>
      <trkpt lat="49.84095" lon="6.87107">
        <ele>122.6</ele>
      </trkpt>
      <trkpt lat="49.84053" lon="6.8717">
        <ele>123.3</ele>
      </trkpt>
      <trkpt lat="49.84021" lon="6.87232">
        <ele>122.4</ele>
      </trkpt>
      <trkpt lat="49.84063" lon="6.87278">
        <ele>121.7</ele>
      </trkpt>
      <trkpt lat="49.84067" lon="6.87294">
        <ele>121.5</ele>
      </trkpt>
      <trkpt lat="49.84073" lon="6.873">
        <ele>121.4</ele>
      </trkpt>
      <trkpt lat="49.8409" lon="6.87322">
        <ele>121.0</ele>
      </trkpt>
      <trkpt lat="49.84101" lon="6.87338">
        <ele>120.8</ele>
      </trkpt>
      <trkpt lat="49.84101" lon="6.87339">
        <ele>120.8</ele>
      </trkpt>
      <trkpt lat="49.8411" lon="6.87353">
        <ele>120.6</ele>
      </trkpt>
      <trkpt lat="49.84116" lon="6.87361">
        <ele>120.5</ele>
      </trkpt>
      <trkpt lat="49.84106" lon="6.8738">
        <ele>120.3</ele>
      </trkpt>
      <trkpt lat="49.84071" lon="6.87434">
        <ele>121.1</ele>
      </trkpt>
      <trkpt lat="49.84043" lon="6.87471">
        <ele>119.0</ele>
      </trkpt>
      <trkpt lat="49.84043" lon="6.87471">
        <ele>119.0</ele>
      </trkpt>
      <trkpt lat="49.84029" lon="6.87489">
        <ele>119.0</ele>
      </trkpt>
      <trkpt lat="49.83987" lon="6.87537">
        <ele>119.6</ele>
      </trkpt>
      <trkpt lat="49.83945" lon="6.87585">
        <ele>118.0</ele>
      </trkpt>
      <trkpt lat="49.83894" lon="6.87634">
        <ele>118.7</ele>
      </trkpt>
      <trkpt lat="49.83823" lon="6.87689">
        <ele>117.7</ele>
      </trkpt>
      <trkpt lat="49.83742" lon="6.87745">
        <ele>119.1</ele>
      </trkpt>
      <trkpt lat="49.83661" lon="6.878">
        <ele>119.5</ele>
      </trkpt>
      <trkpt lat="49.83581" lon="6.87855">
        <ele>120.3</ele>
      </trkpt>
      <trkpt lat="49.835" lon="6.87911">
        <ele>121.1</ele>
      </trkpt>
      <trkpt lat="49.83469" lon="6.87927">
        <ele>121.2</ele>
      </trkpt>
      <trkpt lat="49.83407" lon="6.87957">
        <ele>120.4</ele>
      </trkpt>
      <trkpt lat="49.83321" lon="6.87986">
        <ele>118.4</ele>
      </trkpt>
      <trkpt lat="49.83234" lon="6.88015">
        <ele>118.8</ele>
      </trkpt>
      <trkpt lat="49.83176" lon="6.88037">
        <ele>118.6</ele>
      </trkpt>
      <trkpt lat="49.8309" lon="6.88071">
        <ele>119.1</ele>
      </trkpt>
      <trkpt lat="49.83004" lon="6.88106">
        <ele>117.5</ele>
      </trkpt>
      <trkpt lat="49.82919" lon="6.8814">
        <ele>119.3</ele>
      </trkpt>
      <trkpt lat="49.82864" lon="6.88158">
        <ele>119.3</ele>
      </trkpt>
      <trkpt lat="49.82809" lon="6.88176">
        <ele>118.1</ele>
      </trkpt>
      <trkpt lat="49.82752" lon="6.88188">
        <ele>116.7</ele>
      </trkpt>
      <trkpt lat="49.82689" lon="6.88199">
        <ele>116.1</ele>
      </trkpt>
      <trkpt lat="49.82626" lon="6.8821">
        <ele>117.1</ele>
      </trkpt>
      <trkpt lat="49.82599" lon="6.88217">
        <ele>118.1</ele>
      </trkpt>
      <trkpt lat="49.82542" lon="6.88235">
        <ele>118.9</ele>
      </trkpt>
      <trkpt lat="49.82485" lon="6.88253">
        <ele>119.0</ele>
      </trkpt>
      <trkpt lat="49.82441" lon="6.88271">
        <ele>118.0</ele>
      </trkpt>
      <trkpt lat="49.82398" lon="6.88291">
        <ele>117.4</ele>
      </trkpt>
      <trkpt lat="49.82337" lon="6.88329">
        <ele>119.8</ele>
      </trkpt>
      <trkpt lat="49.82267" lon="6.88365">
        <ele>119.3</ele>
      </trkpt>
      <trkpt lat="49.82198" lon="6.88401">
        <ele>119.8</ele>
      </trkpt>
      <trkpt lat="49.8218" lon="6.88418">
        <ele>119.6</ele>
      </trkpt>
      <trkpt lat="49.8214" lon="6.88439">
        <ele>118.4</ele>
      </trkpt>
      <trkpt lat="49.82089" lon="6.88471">
        <ele>115.8</ele>
      </trkpt>
      <trkpt lat="49.82039" lon="6.88505">
        <ele>116.9</ele>
      </trkpt>
      <trkpt lat="49.81986" lon="6.88552">
        <ele>116.1</ele>
      </trkpt>
      <trkpt lat="49.81965" lon="6.88567">
        <ele>116.1</ele>
      </trkpt>
      <trkpt lat="49.81949" lon="6.88582">
        <ele>116.4</ele>
      </trkpt>
      <trkpt lat="49.81925" lon="6.88611">
        <ele>117.4</ele>
      </trkpt>
      <trkpt lat="49.81904" lon="6.88618">
        <ele>118.0</ele>
      </trkpt>
      <trkpt lat="49.81861" lon="6.88668">
        <ele>117.3</ele>
      </trkpt>
      <trkpt lat="49.81858" lon="6.88669">
        <ele>117.4</ele>
      </trkpt>
      <trkpt lat="49.81851" lon="6.88668">
        <ele>117.5</ele>
      </trkpt>
      <trkpt lat="49.81851" lon="6.8866">
        <ele>117.8</ele>
      </trkpt>
      <trkpt lat="49.81841" lon="6.8866">
        <ele>118.0</ele>
      </trkpt>
      <trkpt lat="49.81836" lon="6.88657">
        <ele>118.2</ele>
      </trkpt>
      <trkpt lat="49.81829" lon="6.88651">
        <ele>118.5</ele>
      </trkpt>
      <trkpt lat="49.81823" lon="6.88651">
        <ele>118.6</ele>
      </trkpt>
      <trkpt lat="49.81798" lon="6.88662">
        <ele>119.0</ele>
      </trkpt>
      <trkpt lat="49.81793" lon="6.88661">
        <ele>119.1</ele>
      </trkpt>
      <trkpt lat="49.81772" lon="6.88642">
        <ele>120.3</ele>
      </trkpt>
      <trkpt lat="49.81765" lon="6.88639">
        <ele>120.6</ele>
      </trkpt>
      <trkpt lat="49.81757" lon="6.88639">
        <ele>120.8</ele>
      </trkpt>
      <trkpt lat="49.81717" lon="6.88691">
        <ele>121.7</ele>
      </trkpt>
      <trkpt lat="49.81676" lon="6.88744">
        <ele>121.9</ele>
      </trkpt>
      <trkpt lat="49.81621" lon="6.88829">
        <ele>123.3</ele>
      </trkpt>
      <trkpt lat="49.81596" lon="6.88872">
        <ele>122.6</ele>
      </trkpt>
      <trkpt lat="49.81573" lon="6.88916">
        <ele>121.8</ele>
      </trkpt>
      <trkpt lat="49.81561" lon="6.88944">
        <ele>120.8</ele>
      </trkpt>
      <trkpt lat="49.8155" lon="6.88975">
        <ele>119.8</ele>
      </trkpt>
      <trkpt lat="49.81526" lon="6.89047">
        <ele>119.9</ele>
      </trkpt>
      <trkpt lat="49.81501" lon="6.89119">
        <ele>120.9</ele>
      </trkpt>
      <trkpt lat="49.8148" lon="6.89201">
        <ele>123.5</ele>
      </trkpt>
      <trkpt lat="49.81473" lon="6.89243">
        <ele>124.0</ele>
      </trkpt>
      <trkpt lat="49.81463" lon="6.89313">
        <ele>125.4</ele>
      </trkpt>
      <trkpt lat="49.81453" lon="6.89383">
        <ele>125.5</ele>
      </trkpt>
      <trkpt lat="49.81437" lon="6.89511">
        <ele>123.1</ele>
      </trkpt>
      <trkpt lat="49.81432" lon="6.89622">
        <ele>122.6</ele>
      </trkpt>
      <trkpt lat="49.81431" lon="6.8968">
        <ele>122.9</ele>
      </trkpt>
      <trkpt lat="49.81433" lon="6.89707">
        <ele>122.8</ele>
      </trkpt>
      <trkpt lat="49.81441" lon="6.89776">
        <ele>123.7</ele>
      </trkpt>
      <trkpt lat="49.81462" lon="6.89877">
        <ele>123.9</ele>
      </trkpt>
      <trkpt lat="49.81497" lon="6.89984">
        <ele>125.0</ele>
      </trkpt>
      <trkpt lat="49.81531" lon="6.90091">
        <ele>124.3</ele>
      </trkpt>
      <trkpt lat="49.81554" lon="6.90146">
        <ele>120.5</ele>
      </trkpt>
      <trkpt lat="49.81581" lon="6.90204">
        <ele>118.1</ele>
      </trkpt>
      <trkpt lat="49.81608" lon="6.90262">
        <ele>122.3</ele>
      </trkpt>
      <trkpt lat="49.8163" lon="6.90306">
        <ele>124.3</ele>
      </trkpt>
      <trkpt lat="49.81651" lon="6.90342">
        <ele>124.2</ele>
      </trkpt>
      <trkpt lat="49.81681" lon="6.9039">
        <ele>125.1</ele>
      </trkpt>
      <trkpt lat="49.817" lon="6.90417">
        <ele>124.1</ele>
      </trkpt>
      <trkpt lat="49.81722" lon="6.90444">
        <ele>123.6</ele>
      </trkpt>
      <trkpt lat="49.81752" lon="6.90471">
        <ele>121.7</ele>
      </trkpt>
      <trkpt lat="49.81776" lon="6.9049">
        <ele>123.0</ele>
      </trkpt>
      <trkpt lat="49.81803" lon="6.90506">
        <ele>123.4</ele>
      </trkpt>
      <trkpt lat="49.81855" lon="6.9053">
        <ele>123.8</ele>
      </trkpt>
      <trkpt lat="49.81907" lon="6.90553">
        <ele>123.8</ele>
      </trkpt>
      <trkpt lat="49.81939" lon="6.90567">
        <ele>124.4</ele>
      </trkpt>
      <trkpt lat="49.8196" lon="6.90573">
        <ele>124.2</ele>
      </trkpt>
      <trkpt lat="49.81989" lon="6.90577">
        <ele>122.9</ele>
      </trkpt>
      <trkpt lat="49.82054" lon="6.90576">
        <ele>123.2</ele>
      </trkpt>
      <trkpt lat="49.82119" lon="6.90575">
        <ele>123.7</ele>
      </trkpt>
      <trkpt lat="49.82185" lon="6.90574">
        <ele>123.0</ele>
      </trkpt>
      <trkpt lat="49.82203" lon="6.90577">
        <ele>122.8</ele>
      </trkpt>
      <trkpt lat="49.82217" lon="6.90581">
        <ele>122.9</ele>
      </trkpt>
      <trkpt lat="49.82238" lon="6.90584">
        <ele>122.7</ele>
      </trkpt>
      <trkpt lat="49.8229" lon="6.90586">
        <ele>123.5</ele>
      </trkpt>
      <trkpt lat="49.8229" lon="6.90595">
        <ele>127.0</ele>
      </trkpt>
      <trkpt lat="49.82304" lon="6.90595">
        <ele>127.3</ele>
      </trkpt>
      <trkpt lat="49.82307" lon="6.90592">
        <ele>126.2</ele>
      </trkpt>
      <trkpt lat="49.8231" lon="6.90587">
        <ele>124.2</ele>
      </trkpt>
      <trkpt lat="49.8232" lon="6.90588">
        <ele>124.8</ele>
      </trkpt>
      <trkpt lat="49.82343" lon="6.90586">
        <ele>124.7</ele>
      </trkpt>
      <trkpt lat="49.82357" lon="6.90584">
        <ele>124.7</ele>
      </trkpt>
      <trkpt lat="49.82365" lon="6.90581">
        <ele>124.5</ele>
      </trkpt>
      <trkpt lat="49.82431" lon="6.90574">
        <ele>126.5</ele>
      </trkpt>
      <trkpt lat="49.82494" lon="6.90564">
        <ele>125.7</ele>
      </trkpt>
      <trkpt lat="49.82524" lon="6.90556">
        <ele>126.1</ele>
      </trkpt>
      <trkpt lat="49.82583" lon="6.90531">
        <ele>125.7</ele>
      </trkpt>
      <trkpt lat="49.82666" lon="6.90486">
        <ele>122.8</ele>
      </trkpt>
      <trkpt lat="49.82699" lon="6.90471">
        <ele>121.5</ele>
      </trkpt>
      <trkpt lat="49.82711" lon="6.90468">
        <ele>121.3</ele>
      </trkpt>
      <trkpt lat="49.82722" lon="6.90468">
        <ele>121.6</ele>
      </trkpt>
      <trkpt lat="49.82764" lon="6.90457">
        <ele>121.2</ele>
      </trkpt>
      <trkpt lat="49.82764" lon="6.90457">
        <ele>121.2</ele>
      </trkpt>
      <trkpt lat="49.82811" lon="6.90444">
        <ele>121.7</ele>
      </trkpt>
      <trkpt lat="49.82858" lon="6.90431">
        <ele>122.2</ele>
      </trkpt>
      <trkpt lat="49.82889" lon="6.90421">
        <ele>121.2</ele>
      </trkpt>
      <trkpt lat="49.82938" lon="6.90397">
        <ele>121.7</ele>
      </trkpt>
      <trkpt lat="49.82965" lon="6.90386">
        <ele>122.9</ele>
      </trkpt>
      <trkpt lat="49.83046" lon="6.90347">
        <ele>122.5</ele>
      </trkpt>
      <trkpt lat="49.83128" lon="6.90304">
        <ele>121.7</ele>
      </trkpt>
      <trkpt lat="49.8316" lon="6.90286">
        <ele>122.0</ele>
      </trkpt>
      <trkpt lat="49.83172" lon="6.90275">
        <ele>121.7</ele>
      </trkpt>
      <trkpt lat="49.83181" lon="6.90265">
        <ele>121.4</ele>
      </trkpt>
      <trkpt lat="49.83225" lon="6.90235">
        <ele>121.8</ele>
      </trkpt>
      <trkpt lat="49.8327" lon="6.90204">
        <ele>124.4</ele>
      </trkpt>
      <trkpt lat="49.83341" lon="6.90154">
        <ele>125.4</ele>
      </trkpt>
      <trkpt lat="49.83398" lon="6.90097">
        <ele>126.3</ele>
      </trkpt>
      <trkpt lat="49.83454" lon="6.90041">
        <ele>124.2</ele>
      </trkpt>
      <trkpt lat="49.83508" lon="6.89996">
        <ele>122.3</ele>
      </trkpt>
      <trkpt lat="49.8356" lon="6.89962">
        <ele>122.9</ele>
      </trkpt>
      <trkpt lat="49.83617" lon="6.89931">
        <ele>123.0</ele>
      </trkpt>
      <trkpt lat="49.83673" lon="6.89899">
        <ele>121.8</ele>
      </trkpt>
      <trkpt lat="49.83672" lon="6.89892">
        <ele>121.4</ele>
      </trkpt>
      <trkpt lat="49.83727" lon="6.89861">
        <ele>118.5</ele>
      </trkpt>
      <trkpt lat="49.83782" lon="6.8983">
        <ele>117.1</ele>
      </trkpt>
      <trkpt lat="49.83821" lon="6.89805">
        <ele>118.9</ele>
      </trkpt>
      <trkpt lat="49.8384" lon="6.89791">
        <ele>120.0</ele>
      </trkpt>
      <trkpt lat="49.83907" lon="6.89736">
        <ele>116.4</ele>
      </trkpt>
      <trkpt lat="49.83929" lon="6.8972">
        <ele>115.6</ele>
      </trkpt>
      <trkpt lat="49.83969" lon="6.89694">
        <ele>117.2</ele>
      </trkpt>
      <trkpt lat="49.84027" lon="6.89663">
        <ele>118.4</ele>
      </trkpt>
      <trkpt lat="49.84086" lon="6.89632">
        <ele>116.8</ele>
      </trkpt>
      <trkpt lat="49.84144" lon="6.89601">
        <ele>116.7</ele>
      </trkpt>
      <trkpt lat="49.84218" lon="6.89565">
        <ele>115.6</ele>
      </trkpt>
      <trkpt lat="49.84294" lon="6.8953">
        <ele>114.5</ele>
      </trkpt>
      <trkpt lat="49.84371" lon="6.89494">
        <ele>114.9</ele>
      </trkpt>
      <trkpt lat="49.84372" lon="6.89503">
        <ele>115.7</ele>
      </trkpt>
      <trkpt lat="49.8442" lon="6.89481">
        <ele>116.3</ele>
      </trkpt>
      <trkpt lat="49.84444" lon="6.89472">
        <ele>116.7</ele>
      </trkpt>
      <trkpt lat="49.84477" lon="6.89466">
        <ele>118.1</ele>
      </trkpt>
      <trkpt lat="49.84515" lon="6.89466">
        <ele>119.9</ele>
      </trkpt>
      <trkpt lat="49.84541" lon="6.89464">
        <ele>120.7</ele>
      </trkpt>
      <trkpt lat="49.84581" lon="6.89458">
        <ele>121.4</ele>
      </trkpt>
      <trkpt lat="49.84595" lon="6.89458">
        <ele>121.7</ele>
      </trkpt>
      <trkpt lat="49.84602" lon="6.8946">
        <ele>122.0</ele>
      </trkpt>
      <trkpt lat="49.84612" lon="6.89461">
        <ele>122.3</ele>
      </trkpt>
      <trkpt lat="49.84613" lon="6.89456">
        <ele>121.8</ele>
      </trkpt>
      <trkpt lat="49.84619" lon="6.89455">
        <ele>121.8</ele>
      </trkpt>
      <trkpt lat="49.84638" lon="6.89447">
        <ele>121.4</ele>
      </trkpt>
      <trkpt lat="49.84654" lon="6.89446">
        <ele>121.6</ele>
      </trkpt>
      <trkpt lat="49.84687" lon="6.8944">
        <ele>121.5</ele>
      </trkpt>
      <trkpt lat="49.84761" lon="6.89421">
        <ele>120.8</ele>
      </trkpt>
      <trkpt lat="49.84839" lon="6.89406">
        <ele>122.4</ele>
      </trkpt>
      <trkpt lat="49.84876" lon="6.89399">
        <ele>122.2</ele>
      </trkpt>
      <trkpt lat="49.84899" lon="6.89396">
        <ele>122.2</ele>
      </trkpt>
      <trkpt lat="49.8493" lon="6.89395">
        <ele>122.2</ele>
      </trkpt>
      <trkpt lat="49.84943" lon="6.89396">
        <ele>122.3</ele>
      </trkpt>
      <trkpt lat="49.84967" lon="6.89401">
        <ele>122.8</ele>
      </trkpt>
      <trkpt lat="49.84988" lon="6.8941">
        <ele>123.5</ele>
      </trkpt>
      <trkpt lat="49.85009" lon="6.89411">
        <ele>123.5</ele>
      </trkpt>
      <trkpt lat="49.85051" lon="6.89422">
        <ele>123.7</ele>
      </trkpt>
      <trkpt lat="49.85061" lon="6.89422">
        <ele>123.5</ele>
      </trkpt>
      <trkpt lat="49.85086" lon="6.89419">
        <ele>123.2</ele>
      </trkpt>
      <trkpt lat="49.85104" lon="6.89422">
        <ele>124.0</ele>
      </trkpt>
      <trkpt lat="49.85125" lon="6.89423">
        <ele>124.8</ele>
      </trkpt>
      <trkpt lat="49.85145" lon="6.89426">
        <ele>125.6</ele>
      </trkpt>
      <trkpt lat="49.85153" lon="6.89428">
        <ele>125.9</ele>
      </trkpt>
      <trkpt lat="49.85174" lon="6.89438">
        <ele>126.7</ele>
      </trkpt>
      <trkpt lat="49.85198" lon="6.8945">
        <ele>127.1</ele>
      </trkpt>
      <trkpt lat="49.85203" lon="6.89451">
        <ele>127.2</ele>
      </trkpt>
      <trkpt lat="49.85223" lon="6.89451">
        <ele>127.1</ele>
      </trkpt>
      <trkpt lat="49.85236" lon="6.89454">
        <ele>127.3</ele>
      </trkpt>
      <trkpt lat="49.85298" lon="6.89477">
        <ele>127.1</ele>
      </trkpt>
      <trkpt lat="49.85359" lon="6.895">
        <ele>126.7</ele>
      </trkpt>
      <trkpt lat="49.85401" lon="6.89522">
        <ele>127.2</ele>
      </trkpt>
      <trkpt lat="49.85412" lon="6.89524">
        <ele>127.2</ele>
      </trkpt>
      <trkpt lat="49.85434" lon="6.89527">
        <ele>127.2</ele>
      </trkpt>
      <trkpt lat="49.85466" lon="6.89536">
        <ele>127.5</ele>
      </trkpt>
      <trkpt lat="49.85493" lon="6.89549">
        <ele>127.8</ele>
      </trkpt>
      <trkpt lat="49.8551" lon="6.89551">
        <ele>127.6</ele>
      </trkpt>
      <trkpt lat="49.85569" lon="6.8957">
        <ele>127.3</ele>
      </trkpt>
      <trkpt lat="49.85651" lon="6.89604">
        <ele>125.9</ele>
      </trkpt>
      <trkpt lat="49.857" lon="6.89626">
        <ele>125.6</ele>
      </trkpt>
      <trkpt lat="49.85748" lon="6.89648">
        <ele>125.2</ele>
      </trkpt>
      <trkpt lat="49.85783" lon="6.89663">
        <ele>124.2</ele>
      </trkpt>
      <trkpt lat="49.85857" lon="6.89702">
        <ele>123.9</ele>
      </trkpt>
      <trkpt lat="49.85878" lon="6.89614">
        <ele>118.1</ele>
      </trkpt>
      <trkpt lat="49.85896" lon="6.89623">
        <ele>118.0</ele>
      </trkpt>
      <trkpt lat="49.85966" lon="6.89672">
        <ele>118.5</ele>
      </trkpt>
      <trkpt lat="49.86035" lon="6.89721">
        <ele>119.3</ele>
      </trkpt>
      <trkpt lat="49.86101" lon="6.89766">
        <ele>119.0</ele>
      </trkpt>
      <trkpt lat="49.86151" lon="6.89799">
        <ele>118.6</ele>
      </trkpt>
      <trkpt lat="49.86182" lon="6.89815">
        <ele>118.4</ele>
      </trkpt>
      <trkpt lat="49.86239" lon="6.89837">
        <ele>117.7</ele>
      </trkpt>
      <trkpt lat="49.86296" lon="6.89858">
        <ele>118.2</ele>
      </trkpt>
      <trkpt lat="49.86318" lon="6.89865">
        <ele>118.0</ele>
      </trkpt>
      <trkpt lat="49.86341" lon="6.89869">
        <ele>117.5</ele>
      </trkpt>
      <trkpt lat="49.86395" lon="6.89871">
        <ele>116.4</ele>
      </trkpt>
      <trkpt lat="49.86459" lon="6.89871">
        <ele>115.7</ele>
      </trkpt>
      <trkpt lat="49.86524" lon="6.8987">
        <ele>115.6</ele>
      </trkpt>
      <trkpt lat="49.8654" lon="6.89878">
        <ele>115.8</ele>
      </trkpt>
      <trkpt lat="49.86535" lon="6.89908">
        <ele>115.9</ele>
      </trkpt>
      <trkpt lat="49.86527" lon="6.89928">
        <ele>116.0</ele>
      </trkpt>
      <trkpt lat="49.86527" lon="6.89939">
        <ele>115.9</ele>
      </trkpt>
      <trkpt lat="49.86519" lon="6.90031">
        <ele>115.9</ele>
      </trkpt>
      <trkpt lat="49.8652" lon="6.90097">
        <ele>115.9</ele>
      </trkpt>
      <trkpt lat="49.86518" lon="6.90117">
        <ele>115.7</ele>
      </trkpt>
      <trkpt lat="49.86508" lon="6.9018">
        <ele>115.2</ele>
      </trkpt>
      <trkpt lat="49.86503" lon="6.90207">
        <ele>115.3</ele>
      </trkpt>
      <trkpt lat="49.86505" lon="6.9022">
        <ele>115.4</ele>
      </trkpt>
      <trkpt lat="49.86509" lon="6.9022">
        <ele>115.4</ele>
      </trkpt>
      <trkpt lat="49.86523" lon="6.9022">
        <ele>115.5</ele>
      </trkpt>
      <trkpt lat="49.86538" lon="6.90218">
        <ele>115.7</ele>
      </trkpt>
      <trkpt lat="49.86547" lon="6.90208">
        <ele>115.8</ele>
      </trkpt>
      <trkpt lat="49.86566" lon="6.90097">
        <ele>116.0</ele>
      </trkpt>
      <trkpt lat="49.86575" lon="6.9007">
        <ele>115.9</ele>
      </trkpt>
      <trkpt lat="49.86588" lon="6.90036">
        <ele>115.8</ele>
      </trkpt>
      <trkpt lat="49.86597" lon="6.90021">
        <ele>116.4</ele>
      </trkpt>
      <trkpt lat="49.86606" lon="6.90011">
        <ele>116.9</ele>
      </trkpt>
      <trkpt lat="49.86621" lon="6.89998">
        <ele>117.7</ele>
      </trkpt>
      <trkpt lat="49.86635" lon="6.89989">
        <ele>118.4</ele>
      </trkpt>
      <trkpt lat="49.86657" lon="6.89972">
        <ele>118.9</ele>
      </trkpt>
      <trkpt lat="49.8666" lon="6.89967">
        <ele>118.7</ele>
      </trkpt>
      <trkpt lat="49.86657" lon="6.89959">
        <ele>118.2</ele>
      </trkpt>
      <trkpt lat="49.86631" lon="6.89934">
        <ele>116.5</ele>
      </trkpt>
      <trkpt lat="49.86625" lon="6.89922">
        <ele>116.1</ele>
      </trkpt>
      <trkpt lat="49.86621" lon="6.8991">
        <ele>115.9</ele>
      </trkpt>
      <trkpt lat="49.86621" lon="6.89886">
        <ele>115.7</ele>
      </trkpt>
      <trkpt lat="49.86624" lon="6.89879">
        <ele>115.6</ele>
      </trkpt>
      <trkpt lat="49.8663" lon="6.89875">
        <ele>115.4</ele>
      </trkpt>
      <trkpt lat="49.86711" lon="6.89881">
        <ele>115.8</ele>
      </trkpt>
      <trkpt lat="49.86793" lon="6.89887">
        <ele>117.1</ele>
      </trkpt>
      <trkpt lat="49.86822" lon="6.8989">
        <ele>117.6</ele>
      </trkpt>
      <trkpt lat="49.86854" lon="6.89895">
        <ele>118.1</ele>
      </trkpt>
      <trkpt lat="49.86898" lon="6.89906">
        <ele>118.7</ele>
      </trkpt>
      <trkpt lat="49.86943" lon="6.89918">
        <ele>119.1</ele>
      </trkpt>
      <trkpt lat="49.86951" lon="6.89829">
        <ele>116.5</ele>
      </trkpt>
      <trkpt lat="49.86953" lon="6.89824">
        <ele>116.5</ele>
      </trkpt>
      <trkpt lat="49.86958" lon="6.89822">
        <ele>116.4</ele>
      </trkpt>
      <trkpt lat="49.87021" lon="6.89811">
        <ele>116.1</ele>
      </trkpt>
      <trkpt lat="49.87097" lon="6.89807">
        <ele>117.1</ele>
      </trkpt>
      <trkpt lat="49.87174" lon="6.89802">
        <ele>117.2</ele>
      </trkpt>
      <trkpt lat="49.87251" lon="6.89798">
        <ele>117.0</ele>
      </trkpt>
      <trkpt lat="49.87327" lon="6.89794">
        <ele>117.0</ele>
      </trkpt>
      <trkpt lat="49.87411" lon="6.89802">
        <ele>116.6</ele>
      </trkpt>
      <trkpt lat="49.87495" lon="6.8981">
        <ele>117.4</ele>
      </trkpt>
      <trkpt lat="49.87553" lon="6.89814">
        <ele>116.6</ele>
      </trkpt>
      <trkpt lat="49.87611" lon="6.89818">
        <ele>115.9</ele>
      </trkpt>
      <trkpt lat="49.87668" lon="6.89843">
        <ele>116.0</ele>
      </trkpt>
      <trkpt lat="49.87725" lon="6.89867">
        <ele>116.0</ele>
      </trkpt>
      <trkpt lat="49.87772" lon="6.89889">
        <ele>116.3</ele>
      </trkpt>
      <trkpt lat="49.87831" lon="6.89926">
        <ele>116.6</ele>
      </trkpt>
      <trkpt lat="49.8789" lon="6.89963">
        <ele>114.7</ele>
      </trkpt>
      <trkpt lat="49.87897" lon="6.89973">
        <ele>114.5</ele>
      </trkpt>
      <trkpt lat="49.87906" lon="6.89991">
        <ele>114.1</ele>
      </trkpt>
      <trkpt lat="49.87922" lon="6.90021">
        <ele>114.2</ele>
      </trkpt>
      <trkpt lat="49.8793" lon="6.90033">
        <ele>114.4</ele>
      </trkpt>
      <trkpt lat="49.87985" lon="6.90121">
        <ele>115.6</ele>
      </trkpt>
      <trkpt lat="49.88018" lon="6.90175">
        <ele>114.8</ele>
      </trkpt>
      <trkpt lat="49.8805" lon="6.90229">
        <ele>114.4</ele>
      </trkpt>
      <trkpt lat="49.88085" lon="6.90299">
        <ele>114.6</ele>
      </trkpt>
      <trkpt lat="49.88133" lon="6.90401">
        <ele>115.9</ele>
      </trkpt>
      <trkpt lat="49.88182" lon="6.90502">
        <ele>114.9</ele>
      </trkpt>
      <trkpt lat="49.88217" lon="6.90614">
        <ele>116.3</ele>
      </trkpt>
      <trkpt lat="49.88235" lon="6.90674">
        <ele>116.8</ele>
      </trkpt>
      <trkpt lat="49.8825" lon="6.90744">
        <ele>118.8</ele>
      </trkpt>
      <trkpt lat="49.88265" lon="6.90813">
        <ele>119.7</ele>
      </trkpt>
      <trkpt lat="49.88286" lon="6.90927">
        <ele>118.5</ele>
      </trkpt>
      <trkpt lat="49.88299" lon="6.91001">
        <ele>119.6</ele>
      </trkpt>
      <trkpt lat="49.88313" lon="6.91074">
        <ele>118.3</ele>
      </trkpt>
      <trkpt lat="49.88322" lon="6.91162">
        <ele>118.4</ele>
      </trkpt>
      <trkpt lat="49.88332" lon="6.91251">
        <ele>120.2</ele>
      </trkpt>
      <trkpt lat="49.88344" lon="6.91324">
        <ele>121.6</ele>
      </trkpt>
      <trkpt lat="49.88357" lon="6.91403">
        <ele>122.4</ele>
      </trkpt>
      <trkpt lat="49.88358" lon="6.91412">
        <ele>122.5</ele>
      </trkpt>
      <trkpt lat="49.88355" lon="6.91469">
        <ele>123.1</ele>
      </trkpt>
      <trkpt lat="49.88356" lon="6.91488">
        <ele>123.1</ele>
      </trkpt>
      <trkpt lat="49.88403" lon="6.91477">
        <ele>118.9</ele>
      </trkpt>
      <trkpt lat="49.88431" lon="6.91472">
        <ele>116.0</ele>
      </trkpt>
      <trkpt lat="49.8844" lon="6.91598">
        <ele>115.5</ele>
      </trkpt>
      <trkpt lat="49.88455" lon="6.91649">
        <ele>114.2</ele>
      </trkpt>
      <trkpt lat="49.88457" lon="6.91664">
        <ele>114.2</ele>
      </trkpt>
      <trkpt lat="49.88453" lon="6.91746">
        <ele>115.8</ele>
      </trkpt>
      <trkpt lat="49.88455" lon="6.91874">
        <ele>116.1</ele>
      </trkpt>
      <trkpt lat="49.88459" lon="6.91964">
        <ele>115.2</ele>
      </trkpt>
      <trkpt lat="49.88463" lon="6.92053">
        <ele>114.7</ele>
      </trkpt>
      <trkpt lat="49.8847" lon="6.92179">
        <ele>113.6</ele>
      </trkpt>
      <trkpt lat="49.88477" lon="6.92304">
        <ele>115.0</ele>
      </trkpt>
      <trkpt lat="49.88484" lon="6.9243">
        <ele>110.7</ele>
      </trkpt>
      <trkpt lat="49.88472" lon="6.92548">
        <ele>112.2</ele>
      </trkpt>
      <trkpt lat="49.88456" lon="6.92633">
        <ele>113.4</ele>
      </trkpt>
      <trkpt lat="49.88439" lon="6.92688">
        <ele>114.0</ele>
      </trkpt>
      <trkpt lat="49.88419" lon="6.92745">
        <ele>114.0</ele>
      </trkpt>
      <trkpt lat="49.88412" lon="6.92762">
        <ele>113.5</ele>
      </trkpt>
      <trkpt lat="49.88404" lon="6.92777">
        <ele>113.2</ele>
      </trkpt>
      <trkpt lat="49.88356" lon="6.92858">
        <ele>115.5</ele>
      </trkpt>
      <trkpt lat="49.88309" lon="6.92938">
        <ele>116.9</ele>
      </trkpt>
      <trkpt lat="49.8825" lon="6.93027">
        <ele>114.8</ele>
      </trkpt>
      <trkpt lat="49.8822" lon="6.93062">
        <ele>113.7</ele>
      </trkpt>
      <trkpt lat="49.88163" lon="6.93118">
        <ele>114.6</ele>
      </trkpt>
      <trkpt lat="49.88116" lon="6.93144">
        <ele>116.0</ele>
      </trkpt>
      <trkpt lat="49.8807" lon="6.93171">
        <ele>118.8</ele>
      </trkpt>
      <trkpt lat="49.88024" lon="6.93186">
        <ele>115.0</ele>
      </trkpt>
      <trkpt lat="49.87976" lon="6.93191">
        <ele>113.7</ele>
      </trkpt>
      <trkpt lat="49.87905" lon="6.93185">
        <ele>114.1</ele>
      </trkpt>
      <trkpt lat="49.87837" lon="6.93175">
        <ele>114.3</ele>
      </trkpt>
      <trkpt lat="49.87791" lon="6.93161">
        <ele>116.0</ele>
      </trkpt>
      <trkpt lat="49.87746" lon="6.93147">
        <ele>116.4</ele>
      </trkpt>
      <trkpt lat="49.87701" lon="6.93127">
        <ele>113.5</ele>
      </trkpt>
      <trkpt lat="49.8765" lon="6.93093">
        <ele>113.0</ele>
      </trkpt>
      <trkpt lat="49.87594" lon="6.9304">
        <ele>112.2</ele>
      </trkpt>
      <trkpt lat="49.87585" lon="6.93025">
        <ele>113.0</ele>
      </trkpt>
      <trkpt lat="49.87545" lon="6.92985">
        <ele>112.6</ele>
      </trkpt>
      <trkpt lat="49.87517" lon="6.92951">
        <ele>113.8</ele>
      </trkpt>
      <trkpt lat="49.87444" lon="6.92888">
        <ele>112.9</ele>
      </trkpt>
      <trkpt lat="49.87371" lon="6.92825">
        <ele>112.2</ele>
      </trkpt>
      <trkpt lat="49.87293" lon="6.92773">
        <ele>113.1</ele>
      </trkpt>
      <trkpt lat="49.87216" lon="6.92721">
        <ele>114.4</ele>
      </trkpt>
      <trkpt lat="49.87167" lon="6.92692">
        <ele>115.0</ele>
      </trkpt>
      <trkpt lat="49.87118" lon="6.92663">
        <ele>117.5</ele>
      </trkpt>
      <trkpt lat="49.8712" lon="6.92649">
        <ele>118.0</ele>
      </trkpt>
      <trkpt lat="49.87119" lon="6.92639">
        <ele>118.2</ele>
      </trkpt>
      <trkpt lat="49.87116" lon="6.92627">
        <ele>118.5</ele>
      </trkpt>
      <trkpt lat="49.87067" lon="6.92546">
        <ele>121.2</ele>
      </trkpt>
      <trkpt lat="49.87064" lon="6.92536">
        <ele>121.7</ele>
      </trkpt>
      <trkpt lat="49.87063" lon="6.92522">
        <ele>122.5</ele>
      </trkpt>
      <trkpt lat="49.87003" lon="6.92503">
        <ele>122.9</ele>
      </trkpt>
      <trkpt lat="49.86991" lon="6.92501">
        <ele>122.9</ele>
      </trkpt>
      <trkpt lat="49.86956" lon="6.92503">
        <ele>122.8</ele>
      </trkpt>
      <trkpt lat="49.86915" lon="6.92507">
        <ele>122.5</ele>
      </trkpt>
      <trkpt lat="49.86862" lon="6.92512">
        <ele>125.2</ele>
      </trkpt>
      <trkpt lat="49.86809" lon="6.92517">
        <ele>126.3</ele>
      </trkpt>
      <trkpt lat="49.86763" lon="6.92526">
        <ele>125.2</ele>
      </trkpt>
      <trkpt lat="49.86716" lon="6.92535">
        <ele>125.7</ele>
      </trkpt>
      <trkpt lat="49.86658" lon="6.9255">
        <ele>126.4</ele>
      </trkpt>
      <trkpt lat="49.86618" lon="6.92565">
        <ele>125.6</ele>
      </trkpt>
      <trkpt lat="49.86579" lon="6.92583">
        <ele>123.5</ele>
      </trkpt>
      <trkpt lat="49.8653" lon="6.92609">
        <ele>123.7</ele>
      </trkpt>
      <trkpt lat="49.86473" lon="6.92644">
        <ele>126.7</ele>
      </trkpt>
      <trkpt lat="49.86431" lon="6.92676">
        <ele>127.8</ele>
      </trkpt>
      <trkpt lat="49.86394" lon="6.92715">
        <ele>129.6</ele>
      </trkpt>
      <trkpt lat="49.86369" lon="6.92744">
        <ele>132.8</ele>
      </trkpt>
      <trkpt lat="49.86348" lon="6.92776">
        <ele>135.8</ele>
      </trkpt>
      <trkpt lat="49.86325" lon="6.92816">
        <ele>137.1</ele>
      </trkpt>
      <trkpt lat="49.86307" lon="6.92851">
        <ele>139.8</ele>
      </trkpt>
      <trkpt lat="49.86285" lon="6.92908">
        <ele>138.1</ele>
      </trkpt>
      <trkpt lat="49.86269" lon="6.92966">
        <ele>134.7</ele>
      </trkpt>
      <trkpt lat="49.86248" lon="6.93061">
        <ele>128.4</ele>
      </trkpt>
      <trkpt lat="49.86226" lon="6.93156">
        <ele>127.3</ele>
      </trkpt>
      <trkpt lat="49.86205" lon="6.93251">
        <ele>130.0</ele>
      </trkpt>
      <trkpt lat="49.86183" lon="6.93354">
        <ele>127.3</ele>
      </trkpt>
      <trkpt lat="49.86159" lon="6.93468">
        <ele>128.5</ele>
      </trkpt>
      <trkpt lat="49.86153" lon="6.93506">
        <ele>130.6</ele>
      </trkpt>
      <trkpt lat="49.86145" lon="6.93602">
        <ele>139.1</ele>
      </trkpt>
      <trkpt lat="49.86144" lon="6.93648">
        <ele>139.4</ele>
      </trkpt>
      <trkpt lat="49.86147" lon="6.93719">
        <ele>135.7</ele>
      </trkpt>
      <trkpt lat="49.86158" lon="6.93805">
        <ele>129.3</ele>
      </trkpt>
      <trkpt lat="49.86172" lon="6.93893">
        <ele>128.6</ele>
      </trkpt>
      <trkpt lat="49.86198" lon="6.94003">
        <ele>125.9</ele>
      </trkpt>
      <trkpt lat="49.86224" lon="6.94083">
        <ele>125.6</ele>
      </trkpt>
      <trkpt lat="49.86244" lon="6.94137">
        <ele>129.0</ele>
      </trkpt>
      <trkpt lat="49.86275" lon="6.94207">
        <ele>132.6</ele>
      </trkpt>
      <trkpt lat="49.86309" lon="6.94276">
        <ele>128.1</ele>
      </trkpt>
      <trkpt lat="49.8634" lon="6.9433">
        <ele>126.5</ele>
      </trkpt>
      <trkpt lat="49.86372" lon="6.94383">
        <ele>126.0</ele>
      </trkpt>
      <trkpt lat="49.86415" lon="6.94445">
        <ele>115.7</ele>
      </trkpt>
      <trkpt lat="49.86452" lon="6.94492">
        <ele>118.4</ele>
      </trkpt>
      <trkpt lat="49.86494" lon="6.94538">
        <ele>117.5</ele>
      </trkpt>
      <trkpt lat="49.86534" lon="6.94572">
        <ele>118.5</ele>
      </trkpt>
      <trkpt lat="49.86575" lon="6.94607">
        <ele>117.3</ele>
      </trkpt>
      <trkpt lat="49.86638" lon="6.94656">
        <ele>115.3</ele>
      </trkpt>
      <trkpt lat="49.86685" lon="6.94696">
        <ele>117.5</ele>
      </trkpt>
      <trkpt lat="49.86718" lon="6.9473">
        <ele>119.4</ele>
      </trkpt>
      <trkpt lat="49.86758" lon="6.94766">
        <ele>119.9</ele>
      </trkpt>
      <trkpt lat="49.86792" lon="6.94793">
        <ele>121.2</ele>
      </trkpt>
      <trkpt lat="49.8683" lon="6.94814">
        <ele>119.3</ele>
      </trkpt>
      <trkpt lat="49.86884" lon="6.9483">
        <ele>118.5</ele>
      </trkpt>
      <trkpt lat="49.86911" lon="6.94836">
        <ele>117.9</ele>
      </trkpt>
      <trkpt lat="49.86962" lon="6.94839">
        <ele>119.7</ele>
      </trkpt>
      <trkpt lat="49.87013" lon="6.94843">
        <ele>120.5</ele>
      </trkpt>
      <trkpt lat="49.87066" lon="6.94852">
        <ele>115.8</ele>
      </trkpt>
      <trkpt lat="49.87123" lon="6.9487">
        <ele>116.9</ele>
      </trkpt>
      <trkpt lat="49.87179" lon="6.94889">
        <ele>118.5</ele>
      </trkpt>
      <trkpt lat="49.87215" lon="6.94898">
        <ele>119.5</ele>
      </trkpt>
      <trkpt lat="49.87281" lon="6.94907">
        <ele>119.1</ele>
      </trkpt>
      <trkpt lat="49.87347" lon="6.94916">
        <ele>117.8</ele>
      </trkpt>
      <trkpt lat="49.87396" lon="6.94927">
        <ele>119.4</ele>
      </trkpt>
      <trkpt lat="49.87467" lon="6.94948">
        <ele>116.0</ele>
      </trkpt>
      <trkpt lat="49.87539" lon="6.94968">
        <ele>114.2</ele>
      </trkpt>
      <trkpt lat="49.8761" lon="6.94988">
        <ele>114.6</ele>
      </trkpt>
      <trkpt lat="49.87681" lon="6.95009">
        <ele>114.0</ele>
      </trkpt>
      <trkpt lat="49.8771" lon="6.95016">
        <ele>115.1</ele>
      </trkpt>
      <trkpt lat="49.87798" lon="6.95027">
        <ele>116.6</ele>
      </trkpt>
      <trkpt lat="49.87801" lon="6.95023">
        <ele>116.3</ele>
      </trkpt>
      <trkpt lat="49.87844" lon="6.95026">
        <ele>118.0</ele>
      </trkpt>
      <trkpt lat="49.87843" lon="6.9506">
        <ele>118.8</ele>
      </trkpt>
      <trkpt lat="49.87842" lon="6.95067">
        <ele>119.0</ele>
      </trkpt>
      <trkpt lat="49.87916" lon="6.95083">
        <ele>122.0</ele>
      </trkpt>
      <trkpt lat="49.8799" lon="6.951">
        <ele>121.8</ele>
      </trkpt>
      <trkpt lat="49.88029" lon="6.95107">
        <ele>122.3</ele>
      </trkpt>
      <trkpt lat="49.88105" lon="6.95113">
        <ele>122.4</ele>
      </trkpt>
      <trkpt lat="49.88117" lon="6.9512">
        <ele>122.6</ele>
      </trkpt>
      <trkpt lat="49.88127" lon="6.95122">
        <ele>122.5</ele>
      </trkpt>
      <trkpt lat="49.8814" lon="6.95122">
        <ele>122.3</ele>
      </trkpt>
      <trkpt lat="49.88153" lon="6.95118">
        <ele>121.8</ele>
      </trkpt>
      <trkpt lat="49.88156" lon="6.95119">
        <ele>121.8</ele>
      </trkpt>
      <trkpt lat="49.88182" lon="6.95134">
        <ele>122.7</ele>
      </trkpt>
      <trkpt lat="49.88212" lon="6.95153">
        <ele>123.7</ele>
      </trkpt>
      <trkpt lat="49.88225" lon="6.95162">
        <ele>124.1</ele>
      </trkpt>
      <trkpt lat="49.88267" lon="6.95194">
        <ele>124.9</ele>
      </trkpt>
      <trkpt lat="49.88269" lon="6.95187">
        <ele>124.5</ele>
      </trkpt>
      <trkpt lat="49.88271" lon="6.95149">
        <ele>122.9</ele>
      </trkpt>
      <trkpt lat="49.88281" lon="6.95092">
        <ele>120.6</ele>
      </trkpt>
      <trkpt lat="49.88298" lon="6.95022">
        <ele>118.8</ele>
      </trkpt>
      <trkpt lat="49.88303" lon="6.94998">
        <ele>118.1</ele>
      </trkpt>
      <trkpt lat="49.88323" lon="6.9489">
        <ele>115.5</ele>
      </trkpt>
      <trkpt lat="49.8833" lon="6.94876">
        <ele>115.4</ele>
      </trkpt>
      <trkpt lat="49.8834" lon="6.94864">
        <ele>115.3</ele>
      </trkpt>
      <trkpt lat="49.88365" lon="6.94835">
        <ele>114.6</ele>
      </trkpt>
      <trkpt lat="49.88376" lon="6.94829">
        <ele>114.2</ele>
      </trkpt>
      <trkpt lat="49.88388" lon="6.94829">
        <ele>114.1</ele>
      </trkpt>
      <trkpt lat="49.88474" lon="6.94845">
        <ele>113.4</ele>
      </trkpt>
      <trkpt lat="49.8856" lon="6.94861">
        <ele>113.6</ele>
      </trkpt>
      <trkpt lat="49.88646" lon="6.94878">
        <ele>112.9</ele>
      </trkpt>
      <trkpt lat="49.88731" lon="6.94889">
        <ele>112.1</ele>
      </trkpt>
      <trkpt lat="49.88815" lon="6.949">
        <ele>111.8</ele>
      </trkpt>
      <trkpt lat="49.889" lon="6.94911">
        <ele>110.5</ele>
      </trkpt>
      <trkpt lat="49.88955" lon="6.94925">
        <ele>110.6</ele>
      </trkpt>
      <trkpt lat="49.88998" lon="6.94939">
        <ele>111.3</ele>
      </trkpt>
      <trkpt lat="49.89071" lon="6.9497">
        <ele>110.8</ele>
      </trkpt>
      <trkpt lat="49.89145" lon="6.95016">
        <ele>111.8</ele>
      </trkpt>
      <trkpt lat="49.89219" lon="6.95063">
        <ele>112.3</ele>
      </trkpt>
      <trkpt lat="49.89271" lon="6.95102">
        <ele>112.5</ele>
      </trkpt>
      <trkpt lat="49.89337" lon="6.95154">
        <ele>111.6</ele>
      </trkpt>
      <trkpt lat="49.89394" lon="6.95204">
        <ele>110.0</ele>
      </trkpt>
      <trkpt lat="49.89451" lon="6.95254">
        <ele>110.5</ele>
      </trkpt>
      <trkpt lat="49.89507" lon="6.95305">
        <ele>111.4</ele>
      </trkpt>
      <trkpt lat="49.89561" lon="6.95377">
        <ele>110.7</ele>
      </trkpt>
      <trkpt lat="49.89615" lon="6.95449">
        <ele>111.4</ele>
      </trkpt>
      <trkpt lat="49.89615" lon="6.95449">
        <ele>111.4</ele>
      </trkpt>
      <trkpt lat="49.89666" lon="6.95518">
        <ele>112.2</ele>
      </trkpt>
      <trkpt lat="49.89718" lon="6.95586">
        <ele>111.8</ele>
      </trkpt>
      <trkpt lat="49.89769" lon="6.95655">
        <ele>111.2</ele>
      </trkpt>
      <trkpt lat="49.89774" lon="6.95648">
        <ele>110.9</ele>
      </trkpt>
      <trkpt lat="49.8978" lon="6.95647">
        <ele>110.7</ele>
      </trkpt>
      <trkpt lat="49.89789" lon="6.95655">
        <ele>110.5</ele>
      </trkpt>
      <trkpt lat="49.89841" lon="6.95728">
        <ele>109.6</ele>
      </trkpt>
      <trkpt lat="49.89894" lon="6.95801">
        <ele>109.6</ele>
      </trkpt>
      <trkpt lat="49.89946" lon="6.95874">
        <ele>110.1</ele>
      </trkpt>
      <trkpt lat="49.89998" lon="6.95946">
        <ele>111.7</ele>
      </trkpt>
      <trkpt lat="49.90017" lon="6.95986">
        <ele>111.7</ele>
      </trkpt>
      <trkpt lat="49.9003" lon="6.96015">
        <ele>111.3</ele>
      </trkpt>
      <trkpt lat="49.90068" lon="6.96122">
        <ele>110.2</ele>
      </trkpt>
      <trkpt lat="49.90106" lon="6.96228">
        <ele>110.7</ele>
      </trkpt>
      <trkpt lat="49.90135" lon="6.96332">
        <ele>110.7</ele>
      </trkpt>
      <trkpt lat="49.90165" lon="6.96435">
        <ele>113.0</ele>
      </trkpt>
      <trkpt lat="49.90195" lon="6.96538">
        <ele>111.0</ele>
      </trkpt>
      <trkpt lat="49.90225" lon="6.96642">
        <ele>110.4</ele>
      </trkpt>
      <trkpt lat="49.90232" lon="6.96668">
        <ele>110.7</ele>
      </trkpt>
      <trkpt lat="49.90248" lon="6.96735">
        <ele>112.6</ele>
      </trkpt>
      <trkpt lat="49.90264" lon="6.96802">
        <ele>114.2</ele>
      </trkpt>
      <trkpt lat="49.90265" lon="6.96816">
        <ele>114.7</ele>
      </trkpt>
      <trkpt lat="49.90262" lon="6.96824">
        <ele>115.3</ele>
      </trkpt>
      <trkpt lat="49.90248" lon="6.96843">
        <ele>117.2</ele>
      </trkpt>
      <trkpt lat="49.90289" lon="6.96915">
        <ele>115.1</ele>
      </trkpt>
      <trkpt lat="49.9034" lon="6.96997">
        <ele>113.5</ele>
      </trkpt>
      <trkpt lat="49.90391" lon="6.97079">
        <ele>114.3</ele>
      </trkpt>
      <trkpt lat="49.90424" lon="6.97146">
        <ele>114.6</ele>
      </trkpt>
      <trkpt lat="49.90458" lon="6.97212">
        <ele>114.5</ele>
      </trkpt>
      <trkpt lat="49.90476" lon="6.97253">
        <ele>115.1</ele>
      </trkpt>
      <trkpt lat="49.90478" lon="6.97268">
        <ele>115.6</ele>
      </trkpt>
      <trkpt lat="49.90453" lon="6.97312">
        <ele>119.6</ele>
      </trkpt>
      <trkpt lat="49.9049" lon="6.97344">
        <ele>117.3</ele>
      </trkpt>
      <trkpt lat="49.90521" lon="6.97378">
        <ele>115.9</ele>
      </trkpt>
      <trkpt lat="49.90582" lon="6.97464">
        <ele>114.2</ele>
      </trkpt>
      <trkpt lat="49.90619" lon="6.97539">
        <ele>113.4</ele>
      </trkpt>
      <trkpt lat="49.90656" lon="6.97615">
        <ele>112.8</ele>
      </trkpt>
      <trkpt lat="49.90693" lon="6.9769">
        <ele>111.9</ele>
      </trkpt>
      <trkpt lat="49.90733" lon="6.97783">
        <ele>110.9</ele>
      </trkpt>
      <trkpt lat="49.90746" lon="6.97817">
        <ele>110.2</ele>
      </trkpt>
      <trkpt lat="49.90779" lon="6.97925">
        <ele>111.8</ele>
      </trkpt>
      <trkpt lat="49.90804" lon="6.98015">
        <ele>112.4</ele>
      </trkpt>
      <trkpt lat="49.90829" lon="6.98141">
        <ele>113.3</ele>
      </trkpt>
      <trkpt lat="49.90854" lon="6.98267">
        <ele>114.1</ele>
      </trkpt>
      <trkpt lat="49.90874" lon="6.9834">
        <ele>115.2</ele>
      </trkpt>
      <trkpt lat="49.90894" lon="6.98414">
        <ele>114.9</ele>
      </trkpt>
      <trkpt lat="49.90918" lon="6.98497">
        <ele>112.9</ele>
      </trkpt>
      <trkpt lat="49.90942" lon="6.98581">
        <ele>111.8</ele>
      </trkpt>
      <trkpt lat="49.90967" lon="6.98673">
        <ele>112.5</ele>
      </trkpt>
      <trkpt lat="49.90981" lon="6.98737">
        <ele>112.7</ele>
      </trkpt>
      <trkpt lat="49.91004" lon="6.98862">
        <ele>113.4</ele>
      </trkpt>
      <trkpt lat="49.9101" lon="6.98908">
        <ele>113.9</ele>
      </trkpt>
      <trkpt lat="49.91019" lon="6.98964">
        <ele>114.0</ele>
      </trkpt>
      <trkpt lat="49.91047" lon="6.99091">
        <ele>113.8</ele>
      </trkpt>
      <trkpt lat="49.91075" lon="6.99218">
        <ele>113.5</ele>
      </trkpt>
      <trkpt lat="49.91094" lon="6.99275">
        <ele>113.4</ele>
      </trkpt>
      <trkpt lat="49.91106" lon="6.99319">
        <ele>113.7</ele>
      </trkpt>
      <trkpt lat="49.91128" lon="6.99427">
        <ele>113.9</ele>
      </trkpt>
      <trkpt lat="49.91154" lon="6.9955">
        <ele>111.1</ele>
      </trkpt>
      <trkpt lat="49.91178" lon="6.99673">
        <ele>110.9</ele>
      </trkpt>
      <trkpt lat="49.91196" lon="6.99785">
        <ele>111.8</ele>
      </trkpt>
      <trkpt lat="49.91213" lon="6.99896">
        <ele>109.9</ele>
      </trkpt>
      <trkpt lat="49.9123" lon="6.99996">
        <ele>109.7</ele>
      </trkpt>
      <trkpt lat="49.91246" lon="7.00095">
        <ele>111.2</ele>
      </trkpt>
      <trkpt lat="49.91243" lon="7.00103">
        <ele>111.3</ele>
      </trkpt>
      <trkpt lat="49.91223" lon="7.00113">
        <ele>112.2</ele>
      </trkpt>
      <trkpt lat="49.91219" lon="7.00121">
        <ele>112.3</ele>
      </trkpt>
      <trkpt lat="49.91219" lon="7.00162">
        <ele>112.1</ele>
      </trkpt>
      <trkpt lat="49.91214" lon="7.00198">
        <ele>112.1</ele>
      </trkpt>
      <trkpt lat="49.9121" lon="7.00203">
        <ele>112.2</ele>
      </trkpt>
      <trkpt lat="49.91202" lon="7.00202">
        <ele>112.5</ele>
      </trkpt>
      <trkpt lat="49.912" lon="7.00203">
        <ele>112.5</ele>
      </trkpt>
      <trkpt lat="49.91199" lon="7.00205">
        <ele>112.6</ele>
      </trkpt>
      <trkpt lat="49.91197" lon="7.0022">
        <ele>112.5</ele>
      </trkpt>
      <trkpt lat="49.91195" lon="7.00256">
        <ele>112.3</ele>
      </trkpt>
      <trkpt lat="49.91195" lon="7.00281">
        <ele>112.5</ele>
      </trkpt>
      <trkpt lat="49.91198" lon="7.003">
        <ele>112.6</ele>
      </trkpt>
      <trkpt lat="49.91201" lon="7.00324">
        <ele>112.8</ele>
      </trkpt>
      <trkpt lat="49.91208" lon="7.0035">
        <ele>112.9</ele>
      </trkpt>
      <trkpt lat="49.91222" lon="7.00395">
        <ele>112.6</ele>
      </trkpt>
      <trkpt lat="49.91226" lon="7.00407">
        <ele>112.5</ele>
      </trkpt>
      <trkpt lat="49.91253" lon="7.00488">
        <ele>112.0</ele>
      </trkpt>
      <trkpt lat="49.9128" lon="7.00568">
        <ele>111.7</ele>
      </trkpt>
      <trkpt lat="49.91311" lon="7.0067">
        <ele>111.9</ele>
      </trkpt>
      <trkpt lat="49.91328" lon="7.00732">
        <ele>112.0</ele>
      </trkpt>
      <trkpt lat="49.91338" lon="7.00775">
        <ele>112.8</ele>
      </trkpt>
      <trkpt lat="49.91341" lon="7.00791">
        <ele>113.1</ele>
      </trkpt>
      <trkpt lat="49.91361" lon="7.009">
        <ele>115.2</ele>
      </trkpt>
      <trkpt lat="49.91368" lon="7.00949">
        <ele>115.3</ele>
      </trkpt>
      <trkpt lat="49.91371" lon="7.00971">
        <ele>115.1</ele>
      </trkpt>
      <trkpt lat="49.91381" lon="7.01095">
        <ele>114.8</ele>
      </trkpt>
      <trkpt lat="49.91391" lon="7.01219">
        <ele>113.3</ele>
      </trkpt>
      <trkpt lat="49.91452" lon="7.01216">
        <ele>110.1</ele>
      </trkpt>
      <trkpt lat="49.91454" lon="7.01217">
        <ele>110.0</ele>
      </trkpt>
      <trkpt lat="49.91456" lon="7.0122">
        <ele>109.8</ele>
      </trkpt>
      <trkpt lat="49.91458" lon="7.01232">
        <ele>109.6</ele>
      </trkpt>
      <trkpt lat="49.91464" lon="7.01302">
        <ele>108.9</ele>
      </trkpt>
      <trkpt lat="49.91467" lon="7.01355">
        <ele>108.7</ele>
      </trkpt>
      <trkpt lat="49.91471" lon="7.0146">
        <ele>109.1</ele>
      </trkpt>
      <trkpt lat="49.91471" lon="7.01497">
        <ele>109.4</ele>
      </trkpt>
      <trkpt lat="49.91465" lon="7.01548">
        <ele>112.0</ele>
      </trkpt>
      <trkpt lat="49.91463" lon="7.01593">
        <ele>113.7</ele>
      </trkpt>
      <trkpt lat="49.9146" lon="7.01596">
        <ele>114.0</ele>
      </trkpt>
      <trkpt lat="49.91436" lon="7.016">
        <ele>115.7</ele>
      </trkpt>
      <trkpt lat="49.9142" lon="7.01601">
        <ele>116.8</ele>
      </trkpt>
      <trkpt lat="49.91414" lon="7.01695">
        <ele>116.4</ele>
      </trkpt>
      <trkpt lat="49.91407" lon="7.01788">
        <ele>114.9</ele>
      </trkpt>
      <trkpt lat="49.91399" lon="7.01849">
        <ele>114.6</ele>
      </trkpt>
      <trkpt lat="49.91386" lon="7.01952">
        <ele>115.6</ele>
      </trkpt>
      <trkpt lat="49.91416" lon="7.01955">
        <ele>114.0</ele>
      </trkpt>
      <trkpt lat="49.91422" lon="7.01957">
        <ele>113.7</ele>
      </trkpt>
      <trkpt lat="49.91423" lon="7.0196">
        <ele>113.7</ele>
      </trkpt>
      <trkpt lat="49.91424" lon="7.01964">
        <ele>113.6</ele>
      </trkpt>
      <trkpt lat="49.91431" lon="7.02073">
        <ele>113.5</ele>
      </trkpt>
      <trkpt lat="49.91437" lon="7.02183">
        <ele>111.5</ele>
      </trkpt>
      <trkpt lat="49.91444" lon="7.02292">
        <ele>112.7</ele>
      </trkpt>
      <trkpt lat="49.91453" lon="7.02424">
        <ele>110.0</ele>
      </trkpt>
      <trkpt lat="49.91453" lon="7.02424">
        <ele>110.0</ele>
      </trkpt>
      <trkpt lat="49.9146" lon="7.02536">
        <ele>110.3</ele>
      </trkpt>
      <trkpt lat="49.91461" lon="7.02622">
        <ele>112.5</ele>
      </trkpt>
      <trkpt lat="49.91462" lon="7.02708">
        <ele>111.3</ele>
      </trkpt>
      <trkpt lat="49.91457" lon="7.02827">
        <ele>110.9</ele>
      </trkpt>
      <trkpt lat="49.91452" lon="7.02947">
        <ele>111.0</ele>
      </trkpt>
      <trkpt lat="49.91447" lon="7.03066">
        <ele>109.6</ele>
      </trkpt>
      <trkpt lat="49.91432" lon="7.03201">
        <ele>109.6</ele>
      </trkpt>
      <trkpt lat="49.91412" lon="7.03308">
        <ele>109.4</ele>
      </trkpt>
      <trkpt lat="49.91391" lon="7.03395">
        <ele>109.4</ele>
      </trkpt>
      <trkpt lat="49.9137" lon="7.03481">
        <ele>109.3</ele>
      </trkpt>
      <trkpt lat="49.91339" lon="7.03581">
        <ele>111.9</ele>
      </trkpt>
      <trkpt lat="49.91303" lon="7.03678">
        <ele>111.7</ele>
      </trkpt>
      <trkpt lat="49.91283" lon="7.03728">
        <ele>111.7</ele>
      </trkpt>
      <trkpt lat="49.91235" lon="7.03818">
        <ele>112.6</ele>
      </trkpt>
      <trkpt lat="49.91188" lon="7.03908">
        <ele>111.8</ele>
      </trkpt>
      <trkpt lat="49.9114" lon="7.03999">
        <ele>111.6</ele>
      </trkpt>
      <trkpt lat="49.91175" lon="7.04039">
        <ele>110.3</ele>
      </trkpt>
      <trkpt lat="49.91131" lon="7.04125">
        <ele>109.1</ele>
      </trkpt>
      <trkpt lat="49.91087" lon="7.04211">
        <ele>108.9</ele>
      </trkpt>
      <trkpt lat="49.91043" lon="7.04297">
        <ele>109.4</ele>
      </trkpt>
      <trkpt lat="49.91006" lon="7.04373">
        <ele>110.3</ele>
      </trkpt>
      <trkpt lat="49.90964" lon="7.04466">
        <ele>111.5</ele>
      </trkpt>
      <trkpt lat="49.90952" lon="7.04497">
        <ele>111.7</ele>
      </trkpt>
      <trkpt lat="49.90943" lon="7.04524">
        <ele>111.7</ele>
      </trkpt>
      <trkpt lat="49.90939" lon="7.04545">
        <ele>111.3</ele>
      </trkpt>
      <trkpt lat="49.9093" lon="7.04571">
        <ele>110.9</ele>
      </trkpt>
      <trkpt lat="49.90921" lon="7.04594">
        <ele>110.3</ele>
      </trkpt>
      <trkpt lat="49.90891" lon="7.04652">
        <ele>110.4</ele>
      </trkpt>
      <trkpt lat="49.90867" lon="7.04687">
        <ele>111.1</ele>
      </trkpt>
      <trkpt lat="49.9083" lon="7.0475">
        <ele>107.5</ele>
      </trkpt>
      <trkpt lat="49.90793" lon="7.04813">
        <ele>111.7</ele>
      </trkpt>
      <trkpt lat="49.9079" lon="7.04814">
        <ele>112.0</ele>
      </trkpt>
      <trkpt lat="49.90784" lon="7.04814">
        <ele>112.7</ele>
      </trkpt>
      <trkpt lat="49.90777" lon="7.04809">
        <ele>113.7</ele>
      </trkpt>
      <trkpt lat="49.9075" lon="7.04785">
        <ele>117.7</ele>
      </trkpt>
      <trkpt lat="49.90739" lon="7.04811">
        <ele>118.1</ele>
      </trkpt>
      <trkpt lat="49.90718" lon="7.04873">
        <ele>118.2</ele>
      </trkpt>
      <trkpt lat="49.90696" lon="7.04934">
        <ele>119.0</ele>
      </trkpt>
      <trkpt lat="49.90676" lon="7.05019">
        <ele>120.2</ele>
      </trkpt>
      <trkpt lat="49.9067" lon="7.05056">
        <ele>119.1</ele>
      </trkpt>
      <trkpt lat="49.90662" lon="7.05097">
        <ele>118.3</ele>
      </trkpt>
      <trkpt lat="49.9065" lon="7.0514">
        <ele>119.3</ele>
      </trkpt>
      <trkpt lat="49.9064" lon="7.05185">
        <ele>120.0</ele>
      </trkpt>
      <trkpt lat="49.90634" lon="7.05241">
        <ele>118.9</ele>
      </trkpt>
      <trkpt lat="49.90617" lon="7.05338">
        <ele>121.2</ele>
      </trkpt>
      <trkpt lat="49.90608" lon="7.05435">
        <ele>121.9</ele>
      </trkpt>
      <trkpt lat="49.90609" lon="7.05497">
        <ele>122.2</ele>
      </trkpt>
      <trkpt lat="49.90613" lon="7.05546">
        <ele>122.6</ele>
      </trkpt>
      <trkpt lat="49.9062" lon="7.05599">
        <ele>121.7</ele>
      </trkpt>
      <trkpt lat="49.90632" lon="7.0565">
        <ele>118.6</ele>
      </trkpt>
      <trkpt lat="49.9065" lon="7.0574">
        <ele>116.0</ele>
      </trkpt>
      <trkpt lat="49.90667" lon="7.0583">
        <ele>116.8</ele>
      </trkpt>
      <trkpt lat="49.90685" lon="7.05921">
        <ele>121.6</ele>
      </trkpt>
      <trkpt lat="49.90707" lon="7.05997">
        <ele>120.3</ele>
      </trkpt>
      <trkpt lat="49.90728" lon="7.06074">
        <ele>121.1</ele>
      </trkpt>
      <trkpt lat="49.90752" lon="7.06148">
        <ele>119.7</ele>
      </trkpt>
      <trkpt lat="49.90775" lon="7.06222">
        <ele>121.0</ele>
      </trkpt>
      <trkpt lat="49.90785" lon="7.06258">
        <ele>120.9</ele>
      </trkpt>
      <trkpt lat="49.90793" lon="7.06296">
        <ele>119.7</ele>
      </trkpt>
      <trkpt lat="49.908" lon="7.06347">
        <ele>117.9</ele>
      </trkpt>
      <trkpt lat="49.90811" lon="7.06403">
        <ele>114.5</ele>
      </trkpt>
      <trkpt lat="49.90811" lon="7.06418">
        <ele>114.6</ele>
      </trkpt>
      <trkpt lat="49.90835" lon="7.06529">
        <ele>120.5</ele>
      </trkpt>
      <trkpt lat="49.90844" lon="7.06557">
        <ele>122.3</ele>
      </trkpt>
      <trkpt lat="49.90881" lon="7.06656">
        <ele>129.3</ele>
      </trkpt>
      <trkpt lat="49.90919" lon="7.06767">
        <ele>123.8</ele>
      </trkpt>
      <trkpt lat="49.90943" lon="7.06814">
        <ele>125.5</ele>
      </trkpt>
      <trkpt lat="49.90966" lon="7.06847">
        <ele>124.8</ele>
      </trkpt>
      <trkpt lat="49.91004" lon="7.06899">
        <ele>118.8</ele>
      </trkpt>
      <trkpt lat="49.9103" lon="7.0693">
        <ele>117.3</ele>
      </trkpt>
      <trkpt lat="49.91083" lon="7.07001">
        <ele>114.2</ele>
      </trkpt>
      <trkpt lat="49.91136" lon="7.07071">
        <ele>116.3</ele>
      </trkpt>
      <trkpt lat="49.91174" lon="7.07132">
        <ele>114.8</ele>
      </trkpt>
      <trkpt lat="49.91213" lon="7.07194">
        <ele>114.0</ele>
      </trkpt>
      <trkpt lat="49.91223" lon="7.07191">
        <ele>112.3</ele>
      </trkpt>
      <trkpt lat="49.9126" lon="7.07234">
        <ele>111.1</ele>
      </trkpt>
      <trkpt lat="49.91298" lon="7.07273">
        <ele>113.2</ele>
      </trkpt>
      <trkpt lat="49.91337" lon="7.07308">
        <ele>112.1</ele>
      </trkpt>
      <trkpt lat="49.914" lon="7.07359">
        <ele>108.9</ele>
      </trkpt>
      <trkpt lat="49.91428" lon="7.07379">
        <ele>108.6</ele>
      </trkpt>
      <trkpt lat="49.91459" lon="7.07394">
        <ele>108.8</ele>
      </trkpt>
      <trkpt lat="49.91507" lon="7.07408">
        <ele>108.6</ele>
      </trkpt>
      <trkpt lat="49.91554" lon="7.07421">
        <ele>108.1</ele>
      </trkpt>
      <trkpt lat="49.91582" lon="7.07431">
        <ele>108.4</ele>
      </trkpt>
      <trkpt lat="49.91584" lon="7.07449">
        <ele>110.1</ele>
      </trkpt>
    </trkseg>
  </trk>
</gpx>
