<?xml version="1.0" encoding="UTF-8"?>
<gpx xmlns:gpxdata="http://www.cluetrust.com/XML/GPXDATA/1/0" xmlns:xsi="http://www.w3.org/2001/XMLSchema-instance" xmlns="http://www.topografix.com/GPX/1/1" version="1.1" creator="http://ridewithgps.com/" xsi:schemaLocation="http://www.topografix.com/GPX/1/1 http://www.topografix.com/GPX/1/1/gpx.xsd http://www.cluetrust.com/XML/GPXDATA/1/0 http://www.cluetrust.com/Schemas/gpxdata10.xsd">
  <metadata>
    <name>Treis-Karden - Zell 48km ENG 2026</name>
    <link href="https://ridewithgps.com/routes/56385259">
      <text>Treis-Karden - Zell 48km ENG 2026</text>
    </link>
    <time>2026-07-29T09:31:31Z</time>
  </metadata>
  <trk>
    <name>Treis-Karden - Zell 48km ENG 2026</name>
    <trkseg>
      <trkpt lat="50.18189" lon="7.30143">
        <ele>81.6</ele>
      </trkpt>
      <trkpt lat="50.18189" lon="7.30143">
        <ele>81.6</ele>
      </trkpt>
      <trkpt lat="50.18152" lon="7.3012">
        <ele>81.9</ele>
      </trkpt>
      <trkpt lat="50.1812" lon="7.30102">
        <ele>83.0</ele>
      </trkpt>
      <trkpt lat="50.18116" lon="7.30107">
        <ele>82.8</ele>
      </trkpt>
      <trkpt lat="50.18107" lon="7.30105">
        <ele>82.9</ele>
      </trkpt>
      <trkpt lat="50.18057" lon="7.30081">
        <ele>83.7</ele>
      </trkpt>
      <trkpt lat="50.18005" lon="7.30054">
        <ele>83.1</ele>
      </trkpt>
      <trkpt lat="50.17929" lon="7.30007">
        <ele>80.5</ele>
      </trkpt>
      <trkpt lat="50.17853" lon="7.2996">
        <ele>83.8</ele>
      </trkpt>
      <trkpt lat="50.17794" lon="7.2992">
        <ele>84.9</ele>
      </trkpt>
      <trkpt lat="50.17783" lon="7.2991">
        <ele>85.0</ele>
      </trkpt>
      <trkpt lat="50.17763" lon="7.29889">
        <ele>85.0</ele>
      </trkpt>
      <trkpt lat="50.17748" lon="7.29875">
        <ele>84.9</ele>
      </trkpt>
      <trkpt lat="50.17726" lon="7.29858">
        <ele>84.4</ele>
      </trkpt>
      <trkpt lat="50.17706" lon="7.29839">
        <ele>83.8</ele>
      </trkpt>
      <trkpt lat="50.17686" lon="7.29825">
        <ele>84.4</ele>
      </trkpt>
      <trkpt lat="50.17682" lon="7.29816">
        <ele>85.9</ele>
      </trkpt>
      <trkpt lat="50.17658" lon="7.29801">
        <ele>87.7</ele>
      </trkpt>
      <trkpt lat="50.17642" lon="7.29788">
        <ele>89.7</ele>
      </trkpt>
      <trkpt lat="50.1762" lon="7.29768">
        <ele>92.4</ele>
      </trkpt>
      <trkpt lat="50.1759" lon="7.29738">
        <ele>95.9</ele>
      </trkpt>
      <trkpt lat="50.17528" lon="7.29672">
        <ele>89.4</ele>
      </trkpt>
      <trkpt lat="50.17484" lon="7.29618">
        <ele>97.3</ele>
      </trkpt>
      <trkpt lat="50.17445" lon="7.29558">
        <ele>99.9</ele>
      </trkpt>
      <trkpt lat="50.17404" lon="7.2949">
        <ele>94.1</ele>
      </trkpt>
      <trkpt lat="50.17364" lon="7.29422">
        <ele>102.4</ele>
      </trkpt>
      <trkpt lat="50.17317" lon="7.29327">
        <ele>96.0</ele>
      </trkpt>
      <trkpt lat="50.17284" lon="7.29242">
        <ele>95.8</ele>
      </trkpt>
      <trkpt lat="50.17254" lon="7.29152">
        <ele>86.7</ele>
      </trkpt>
      <trkpt lat="50.17226" lon="7.29047">
        <ele>90.2</ele>
      </trkpt>
      <trkpt lat="50.17202" lon="7.28934">
        <ele>91.6</ele>
      </trkpt>
      <trkpt lat="50.17178" lon="7.28821">
        <ele>89.5</ele>
      </trkpt>
      <trkpt lat="50.17163" lon="7.28731">
        <ele>86.2</ele>
      </trkpt>
      <trkpt lat="50.17148" lon="7.28641">
        <ele>87.8</ele>
      </trkpt>
      <trkpt lat="50.17138" lon="7.28596">
        <ele>88.6</ele>
      </trkpt>
      <trkpt lat="50.17114" lon="7.2851">
        <ele>87.4</ele>
      </trkpt>
      <trkpt lat="50.17099" lon="7.28469">
        <ele>85.2</ele>
      </trkpt>
      <trkpt lat="50.17065" lon="7.28385">
        <ele>80.6</ele>
      </trkpt>
      <trkpt lat="50.17041" lon="7.28329">
        <ele>79.1</ele>
      </trkpt>
      <trkpt lat="50.17006" lon="7.28239">
        <ele>80.6</ele>
      </trkpt>
      <trkpt lat="50.16989" lon="7.28183">
        <ele>81.1</ele>
      </trkpt>
      <trkpt lat="50.16973" lon="7.28126">
        <ele>80.9</ele>
      </trkpt>
      <trkpt lat="50.16953" lon="7.28025">
        <ele>80.2</ele>
      </trkpt>
      <trkpt lat="50.16933" lon="7.27923">
        <ele>80.6</ele>
      </trkpt>
      <trkpt lat="50.16923" lon="7.27867">
        <ele>81.5</ele>
      </trkpt>
      <trkpt lat="50.16917" lon="7.2781">
        <ele>81.7</ele>
      </trkpt>
      <trkpt lat="50.16911" lon="7.27727">
        <ele>81.3</ele>
      </trkpt>
      <trkpt lat="50.16904" lon="7.27598">
        <ele>81.9</ele>
      </trkpt>
      <trkpt lat="50.16897" lon="7.2747">
        <ele>81.9</ele>
      </trkpt>
      <trkpt lat="50.16896" lon="7.27335">
        <ele>83.2</ele>
      </trkpt>
      <trkpt lat="50.16896" lon="7.27325">
        <ele>83.4</ele>
      </trkpt>
      <trkpt lat="50.16897" lon="7.27277">
        <ele>83.9</ele>
      </trkpt>
      <trkpt lat="50.16896" lon="7.27222">
        <ele>84.0</ele>
      </trkpt>
      <trkpt lat="50.16898" lon="7.27106">
        <ele>83.9</ele>
      </trkpt>
      <trkpt lat="50.169" lon="7.27054">
        <ele>84.0</ele>
      </trkpt>
      <trkpt lat="50.169" lon="7.27038">
        <ele>84.0</ele>
      </trkpt>
      <trkpt lat="50.16894" lon="7.27012">
        <ele>83.6</ele>
      </trkpt>
      <trkpt lat="50.16892" lon="7.26996">
        <ele>83.6</ele>
      </trkpt>
      <trkpt lat="50.16893" lon="7.26982">
        <ele>83.8</ele>
      </trkpt>
      <trkpt lat="50.16895" lon="7.2697">
        <ele>84.1</ele>
      </trkpt>
      <trkpt lat="50.16904" lon="7.26938">
        <ele>85.0</ele>
      </trkpt>
      <trkpt lat="50.16907" lon="7.26915">
        <ele>85.4</ele>
      </trkpt>
      <trkpt lat="50.16909" lon="7.26875">
        <ele>85.6</ele>
      </trkpt>
      <trkpt lat="50.16904" lon="7.26838">
        <ele>85.4</ele>
      </trkpt>
      <trkpt lat="50.16905" lon="7.26811">
        <ele>85.4</ele>
      </trkpt>
      <trkpt lat="50.16904" lon="7.26787">
        <ele>85.3</ele>
      </trkpt>
      <trkpt lat="50.16902" lon="7.26751">
        <ele>85.1</ele>
      </trkpt>
      <trkpt lat="50.16894" lon="7.26668">
        <ele>84.6</ele>
      </trkpt>
      <trkpt lat="50.16887" lon="7.26592">
        <ele>84.8</ele>
      </trkpt>
      <trkpt lat="50.16881" lon="7.26516">
        <ele>84.4</ele>
      </trkpt>
      <trkpt lat="50.16872" lon="7.26431">
        <ele>84.6</ele>
      </trkpt>
      <trkpt lat="50.16859" lon="7.26323">
        <ele>84.2</ele>
      </trkpt>
      <trkpt lat="50.16846" lon="7.26216">
        <ele>84.3</ele>
      </trkpt>
      <trkpt lat="50.16842" lon="7.26168">
        <ele>84.5</ele>
      </trkpt>
      <trkpt lat="50.16837" lon="7.26064">
        <ele>83.1</ele>
      </trkpt>
      <trkpt lat="50.16835" lon="7.25929">
        <ele>83.0</ele>
      </trkpt>
      <trkpt lat="50.16833" lon="7.25794">
        <ele>82.5</ele>
      </trkpt>
      <trkpt lat="50.16833" lon="7.25657">
        <ele>81.0</ele>
      </trkpt>
      <trkpt lat="50.16836" lon="7.25531">
        <ele>81.2</ele>
      </trkpt>
      <trkpt lat="50.16839" lon="7.25405">
        <ele>81.5</ele>
      </trkpt>
      <trkpt lat="50.16842" lon="7.25279">
        <ele>81.9</ele>
      </trkpt>
      <trkpt lat="50.16842" lon="7.25226">
        <ele>81.9</ele>
      </trkpt>
      <trkpt lat="50.16839" lon="7.25102">
        <ele>80.8</ele>
      </trkpt>
      <trkpt lat="50.16836" lon="7.24978">
        <ele>80.8</ele>
      </trkpt>
      <trkpt lat="50.16838" lon="7.24913">
        <ele>82.4</ele>
      </trkpt>
      <trkpt lat="50.16844" lon="7.24846">
        <ele>83.4</ele>
      </trkpt>
      <trkpt lat="50.16854" lon="7.24775">
        <ele>83.8</ele>
      </trkpt>
      <trkpt lat="50.1687" lon="7.24692">
        <ele>84.3</ele>
      </trkpt>
      <trkpt lat="50.16887" lon="7.2461">
        <ele>85.9</ele>
      </trkpt>
      <trkpt lat="50.16895" lon="7.24544">
        <ele>86.6</ele>
      </trkpt>
      <trkpt lat="50.16898" lon="7.24503">
        <ele>86.8</ele>
      </trkpt>
      <trkpt lat="50.169" lon="7.24458">
        <ele>86.4</ele>
      </trkpt>
      <trkpt lat="50.16901" lon="7.24342">
        <ele>85.3</ele>
      </trkpt>
      <trkpt lat="50.16903" lon="7.24226">
        <ele>84.1</ele>
      </trkpt>
      <trkpt lat="50.16903" lon="7.24168">
        <ele>84.0</ele>
      </trkpt>
      <trkpt lat="50.169" lon="7.2405">
        <ele>83.1</ele>
      </trkpt>
      <trkpt lat="50.16897" lon="7.23932">
        <ele>82.3</ele>
      </trkpt>
      <trkpt lat="50.16899" lon="7.2383">
        <ele>82.0</ele>
      </trkpt>
      <trkpt lat="50.16901" lon="7.23727">
        <ele>81.6</ele>
      </trkpt>
      <trkpt lat="50.16903" lon="7.23625">
        <ele>81.7</ele>
      </trkpt>
      <trkpt lat="50.16903" lon="7.23581">
        <ele>82.2</ele>
      </trkpt>
      <trkpt lat="50.16901" lon="7.23517">
        <ele>82.2</ele>
      </trkpt>
      <trkpt lat="50.16896" lon="7.234">
        <ele>83.6</ele>
      </trkpt>
      <trkpt lat="50.16892" lon="7.23283">
        <ele>83.9</ele>
      </trkpt>
      <trkpt lat="50.16887" lon="7.23178">
        <ele>84.7</ele>
      </trkpt>
      <trkpt lat="50.16885" lon="7.23106">
        <ele>84.2</ele>
      </trkpt>
      <trkpt lat="50.16886" lon="7.2303">
        <ele>83.6</ele>
      </trkpt>
      <trkpt lat="50.1689" lon="7.22969">
        <ele>83.4</ele>
      </trkpt>
      <trkpt lat="50.16895" lon="7.22906">
        <ele>83.5</ele>
      </trkpt>
      <trkpt lat="50.16899" lon="7.22875">
        <ele>83.3</ele>
      </trkpt>
      <trkpt lat="50.16914" lon="7.22772">
        <ele>83.8</ele>
      </trkpt>
      <trkpt lat="50.16929" lon="7.2267">
        <ele>85.7</ele>
      </trkpt>
      <trkpt lat="50.16934" lon="7.22634">
        <ele>86.4</ele>
      </trkpt>
      <trkpt lat="50.16937" lon="7.22602">
        <ele>87.2</ele>
      </trkpt>
      <trkpt lat="50.1694" lon="7.22563">
        <ele>88.1</ele>
      </trkpt>
      <trkpt lat="50.16941" lon="7.22537">
        <ele>88.6</ele>
      </trkpt>
      <trkpt lat="50.16942" lon="7.22505">
        <ele>89.2</ele>
      </trkpt>
      <trkpt lat="50.1694" lon="7.22461">
        <ele>89.7</ele>
      </trkpt>
      <trkpt lat="50.16932" lon="7.22343">
        <ele>89.5</ele>
      </trkpt>
      <trkpt lat="50.16923" lon="7.22224">
        <ele>89.6</ele>
      </trkpt>
      <trkpt lat="50.16915" lon="7.22106">
        <ele>90.1</ele>
      </trkpt>
      <trkpt lat="50.16907" lon="7.21988">
        <ele>92.5</ele>
      </trkpt>
      <trkpt lat="50.16899" lon="7.21903">
        <ele>95.7</ele>
      </trkpt>
      <trkpt lat="50.16886" lon="7.21776">
        <ele>100.9</ele>
      </trkpt>
      <trkpt lat="50.16873" lon="7.21649">
        <ele>104.3</ele>
      </trkpt>
      <trkpt lat="50.16861" lon="7.21521">
        <ele>100.0</ele>
      </trkpt>
      <trkpt lat="50.16848" lon="7.21394">
        <ele>93.1</ele>
      </trkpt>
      <trkpt lat="50.16835" lon="7.21266">
        <ele>93.5</ele>
      </trkpt>
      <trkpt lat="50.16829" lon="7.21224">
        <ele>95.5</ele>
      </trkpt>
      <trkpt lat="50.16818" lon="7.21152">
        <ele>99.3</ele>
      </trkpt>
      <trkpt lat="50.16799" lon="7.21066">
        <ele>101.6</ele>
      </trkpt>
      <trkpt lat="50.16791" lon="7.21035">
        <ele>101.1</ele>
      </trkpt>
      <trkpt lat="50.16768" lon="7.20954">
        <ele>96.3</ele>
      </trkpt>
      <trkpt lat="50.16753" lon="7.2091">
        <ele>90.3</ele>
      </trkpt>
      <trkpt lat="50.16722" lon="7.20833">
        <ele>87.3</ele>
      </trkpt>
      <trkpt lat="50.16691" lon="7.20756">
        <ele>87.7</ele>
      </trkpt>
      <trkpt lat="50.1665" lon="7.20654">
        <ele>84.0</ele>
      </trkpt>
      <trkpt lat="50.16608" lon="7.20552">
        <ele>85.6</ele>
      </trkpt>
      <trkpt lat="50.16586" lon="7.20505">
        <ele>84.2</ele>
      </trkpt>
      <trkpt lat="50.16581" lon="7.20482">
        <ele>84.6</ele>
      </trkpt>
      <trkpt lat="50.16568" lon="7.20463">
        <ele>85.1</ele>
      </trkpt>
      <trkpt lat="50.16552" lon="7.2045">
        <ele>85.2</ele>
      </trkpt>
      <trkpt lat="50.16534" lon="7.20436">
        <ele>85.3</ele>
      </trkpt>
      <trkpt lat="50.16521" lon="7.20418">
        <ele>85.5</ele>
      </trkpt>
      <trkpt lat="50.16498" lon="7.20379">
        <ele>85.5</ele>
      </trkpt>
      <trkpt lat="50.16494" lon="7.20383">
        <ele>85.4</ele>
      </trkpt>
      <trkpt lat="50.16484" lon="7.20355">
        <ele>85.6</ele>
      </trkpt>
      <trkpt lat="50.16477" lon="7.20341">
        <ele>85.7</ele>
      </trkpt>
      <trkpt lat="50.16468" lon="7.20329">
        <ele>85.8</ele>
      </trkpt>
      <trkpt lat="50.16422" lon="7.20261">
        <ele>87.0</ele>
      </trkpt>
      <trkpt lat="50.16375" lon="7.20192">
        <ele>88.2</ele>
      </trkpt>
      <trkpt lat="50.16361" lon="7.20181">
        <ele>88.2</ele>
      </trkpt>
      <trkpt lat="50.16341" lon="7.20153">
        <ele>88.5</ele>
      </trkpt>
      <trkpt lat="50.16335" lon="7.20134">
        <ele>88.8</ele>
      </trkpt>
      <trkpt lat="50.1633" lon="7.20121">
        <ele>89.1</ele>
      </trkpt>
      <trkpt lat="50.1632" lon="7.20104">
        <ele>89.4</ele>
      </trkpt>
      <trkpt lat="50.16295" lon="7.20071">
        <ele>89.7</ele>
      </trkpt>
      <trkpt lat="50.1629" lon="7.20066">
        <ele>89.7</ele>
      </trkpt>
      <trkpt lat="50.16285" lon="7.20064">
        <ele>89.6</ele>
      </trkpt>
      <trkpt lat="50.1628" lon="7.20058">
        <ele>89.6</ele>
      </trkpt>
      <trkpt lat="50.16268" lon="7.20038">
        <ele>89.5</ele>
      </trkpt>
      <trkpt lat="50.16252" lon="7.20008">
        <ele>89.1</ele>
      </trkpt>
      <trkpt lat="50.16199" lon="7.19897">
        <ele>89.5</ele>
      </trkpt>
      <trkpt lat="50.16182" lon="7.19852">
        <ele>89.3</ele>
      </trkpt>
      <trkpt lat="50.16148" lon="7.19723">
        <ele>88.5</ele>
      </trkpt>
      <trkpt lat="50.16147" lon="7.19708">
        <ele>88.4</ele>
      </trkpt>
      <trkpt lat="50.16139" lon="7.1966">
        <ele>88.0</ele>
      </trkpt>
      <trkpt lat="50.16132" lon="7.19616">
        <ele>87.6</ele>
      </trkpt>
      <trkpt lat="50.16126" lon="7.19566">
        <ele>87.1</ele>
      </trkpt>
      <trkpt lat="50.16122" lon="7.19517">
        <ele>86.7</ele>
      </trkpt>
      <trkpt lat="50.1612" lon="7.19444">
        <ele>87.5</ele>
      </trkpt>
      <trkpt lat="50.16117" lon="7.1937">
        <ele>88.2</ele>
      </trkpt>
      <trkpt lat="50.16114" lon="7.19321">
        <ele>88.5</ele>
      </trkpt>
      <trkpt lat="50.16113" lon="7.19286">
        <ele>88.7</ele>
      </trkpt>
      <trkpt lat="50.16114" lon="7.19244">
        <ele>89.3</ele>
      </trkpt>
      <trkpt lat="50.16115" lon="7.19215">
        <ele>89.7</ele>
      </trkpt>
      <trkpt lat="50.16116" lon="7.19175">
        <ele>90.3</ele>
      </trkpt>
      <trkpt lat="50.16117" lon="7.1913">
        <ele>90.6</ele>
      </trkpt>
      <trkpt lat="50.16119" lon="7.19073">
        <ele>91.0</ele>
      </trkpt>
      <trkpt lat="50.16121" lon="7.19045">
        <ele>91.5</ele>
      </trkpt>
      <trkpt lat="50.16126" lon="7.19009">
        <ele>92.7</ele>
      </trkpt>
      <trkpt lat="50.16144" lon="7.18889">
        <ele>93.1</ele>
      </trkpt>
      <trkpt lat="50.16162" lon="7.18768">
        <ele>93.4</ele>
      </trkpt>
      <trkpt lat="50.16181" lon="7.18648">
        <ele>100.9</ele>
      </trkpt>
      <trkpt lat="50.16201" lon="7.18517">
        <ele>100.8</ele>
      </trkpt>
      <trkpt lat="50.16221" lon="7.18387">
        <ele>99.3</ele>
      </trkpt>
      <trkpt lat="50.16229" lon="7.18325">
        <ele>97.7</ele>
      </trkpt>
      <trkpt lat="50.16236" lon="7.18239">
        <ele>95.7</ele>
      </trkpt>
      <trkpt lat="50.16238" lon="7.18185">
        <ele>94.5</ele>
      </trkpt>
      <trkpt lat="50.16238" lon="7.18127">
        <ele>94.0</ele>
      </trkpt>
      <trkpt lat="50.16237" lon="7.18068">
        <ele>93.9</ele>
      </trkpt>
      <trkpt lat="50.16232" lon="7.18003">
        <ele>93.5</ele>
      </trkpt>
      <trkpt lat="50.16225" lon="7.17945">
        <ele>95.8</ele>
      </trkpt>
      <trkpt lat="50.16217" lon="7.17893">
        <ele>97.5</ele>
      </trkpt>
      <trkpt lat="50.16206" lon="7.17838">
        <ele>98.5</ele>
      </trkpt>
      <trkpt lat="50.16193" lon="7.17779">
        <ele>100.2</ele>
      </trkpt>
      <trkpt lat="50.16178" lon="7.17726">
        <ele>98.7</ele>
      </trkpt>
      <trkpt lat="50.16153" lon="7.1765">
        <ele>97.8</ele>
      </trkpt>
      <trkpt lat="50.16128" lon="7.17575">
        <ele>101.6</ele>
      </trkpt>
      <trkpt lat="50.161" lon="7.17505">
        <ele>97.3</ele>
      </trkpt>
      <trkpt lat="50.16075" lon="7.17451">
        <ele>99.2</ele>
      </trkpt>
      <trkpt lat="50.16039" lon="7.17381">
        <ele>100.5</ele>
      </trkpt>
      <trkpt lat="50.16013" lon="7.17337">
        <ele>95.4</ele>
      </trkpt>
      <trkpt lat="50.15977" lon="7.17282">
        <ele>99.5</ele>
      </trkpt>
      <trkpt lat="50.15909" lon="7.17197">
        <ele>92.9</ele>
      </trkpt>
      <trkpt lat="50.15858" lon="7.17137">
        <ele>96.8</ele>
      </trkpt>
      <trkpt lat="50.15804" lon="7.17075">
        <ele>95.7</ele>
      </trkpt>
      <trkpt lat="50.15772" lon="7.17043">
        <ele>93.4</ele>
      </trkpt>
      <trkpt lat="50.15737" lon="7.17011">
        <ele>90.5</ele>
      </trkpt>
      <trkpt lat="50.15709" lon="7.16989">
        <ele>91.8</ele>
      </trkpt>
      <trkpt lat="50.15683" lon="7.1697">
        <ele>92.6</ele>
      </trkpt>
      <trkpt lat="50.15642" lon="7.16944">
        <ele>90.3</ele>
      </trkpt>
      <trkpt lat="50.15623" lon="7.16939">
        <ele>88.4</ele>
      </trkpt>
      <trkpt lat="50.15575" lon="7.16918">
        <ele>85.1</ele>
      </trkpt>
      <trkpt lat="50.15526" lon="7.16896">
        <ele>87.0</ele>
      </trkpt>
      <trkpt lat="50.15523" lon="7.1689">
        <ele>87.3</ele>
      </trkpt>
      <trkpt lat="50.15519" lon="7.16886">
        <ele>87.4</ele>
      </trkpt>
      <trkpt lat="50.15514" lon="7.16882">
        <ele>87.6</ele>
      </trkpt>
      <trkpt lat="50.15509" lon="7.16881">
        <ele>87.7</ele>
      </trkpt>
      <trkpt lat="50.15507" lon="7.16882">
        <ele>87.7</ele>
      </trkpt>
      <trkpt lat="50.15502" lon="7.16887">
        <ele>87.7</ele>
      </trkpt>
      <trkpt lat="50.15499" lon="7.16888">
        <ele>87.7</ele>
      </trkpt>
      <trkpt lat="50.15436" lon="7.16868">
        <ele>87.3</ele>
      </trkpt>
      <trkpt lat="50.15385" lon="7.16854">
        <ele>87.3</ele>
      </trkpt>
      <trkpt lat="50.1534" lon="7.16843">
        <ele>87.8</ele>
      </trkpt>
      <trkpt lat="50.15288" lon="7.16832">
        <ele>87.5</ele>
      </trkpt>
      <trkpt lat="50.15279" lon="7.16824">
        <ele>87.6</ele>
      </trkpt>
      <trkpt lat="50.15272" lon="7.16817">
        <ele>87.7</ele>
      </trkpt>
      <trkpt lat="50.15224" lon="7.16806">
        <ele>87.0</ele>
      </trkpt>
      <trkpt lat="50.15176" lon="7.16795">
        <ele>86.1</ele>
      </trkpt>
      <trkpt lat="50.15113" lon="7.16777">
        <ele>87.0</ele>
      </trkpt>
      <trkpt lat="50.15051" lon="7.16759">
        <ele>86.6</ele>
      </trkpt>
      <trkpt lat="50.14989" lon="7.16744">
        <ele>85.1</ele>
      </trkpt>
      <trkpt lat="50.14928" lon="7.16733">
        <ele>85.4</ele>
      </trkpt>
      <trkpt lat="50.14854" lon="7.16722">
        <ele>86.2</ele>
      </trkpt>
      <trkpt lat="50.14799" lon="7.16718">
        <ele>85.7</ele>
      </trkpt>
      <trkpt lat="50.14772" lon="7.16718">
        <ele>85.2</ele>
      </trkpt>
      <trkpt lat="50.14772" lon="7.16698">
        <ele>85.6</ele>
      </trkpt>
      <trkpt lat="50.14721" lon="7.16695">
        <ele>86.5</ele>
      </trkpt>
      <trkpt lat="50.14676" lon="7.16695">
        <ele>88.3</ele>
      </trkpt>
      <trkpt lat="50.14639" lon="7.16697">
        <ele>90.7</ele>
      </trkpt>
      <trkpt lat="50.14626" lon="7.16699">
        <ele>91.6</ele>
      </trkpt>
      <trkpt lat="50.14626" lon="7.16699">
        <ele>91.6</ele>
      </trkpt>
      <trkpt lat="50.14576" lon="7.16707">
        <ele>94.0</ele>
      </trkpt>
      <trkpt lat="50.14542" lon="7.16714">
        <ele>93.2</ele>
      </trkpt>
      <trkpt lat="50.14499" lon="7.16725">
        <ele>92.3</ele>
      </trkpt>
      <trkpt lat="50.14454" lon="7.1674">
        <ele>95.5</ele>
      </trkpt>
      <trkpt lat="50.14409" lon="7.16763">
        <ele>97.8</ele>
      </trkpt>
      <trkpt lat="50.14361" lon="7.16798">
        <ele>99.0</ele>
      </trkpt>
      <trkpt lat="50.14322" lon="7.16825">
        <ele>99.1</ele>
      </trkpt>
      <trkpt lat="50.143" lon="7.16836">
        <ele>102.0</ele>
      </trkpt>
      <trkpt lat="50.14266" lon="7.1685">
        <ele>107.8</ele>
      </trkpt>
      <trkpt lat="50.1418" lon="7.16881">
        <ele>110.8</ele>
      </trkpt>
      <trkpt lat="50.14151" lon="7.16897">
        <ele>108.7</ele>
      </trkpt>
      <trkpt lat="50.14131" lon="7.16913">
        <ele>106.4</ele>
      </trkpt>
      <trkpt lat="50.14105" lon="7.16937">
        <ele>103.4</ele>
      </trkpt>
      <trkpt lat="50.14081" lon="7.16966">
        <ele>100.4</ele>
      </trkpt>
      <trkpt lat="50.14045" lon="7.17015">
        <ele>100.4</ele>
      </trkpt>
      <trkpt lat="50.14016" lon="7.17057">
        <ele>99.8</ele>
      </trkpt>
      <trkpt lat="50.13998" lon="7.17087">
        <ele>98.0</ele>
      </trkpt>
      <trkpt lat="50.13983" lon="7.17116">
        <ele>96.7</ele>
      </trkpt>
      <trkpt lat="50.13963" lon="7.17157">
        <ele>91.7</ele>
      </trkpt>
      <trkpt lat="50.13927" lon="7.17246">
        <ele>90.4</ele>
      </trkpt>
      <trkpt lat="50.13892" lon="7.17334">
        <ele>92.0</ele>
      </trkpt>
      <trkpt lat="50.13877" lon="7.1737">
        <ele>92.9</ele>
      </trkpt>
      <trkpt lat="50.13878" lon="7.17383">
        <ele>92.0</ele>
      </trkpt>
      <trkpt lat="50.1387" lon="7.17398">
        <ele>92.5</ele>
      </trkpt>
      <trkpt lat="50.13854" lon="7.17473">
        <ele>89.7</ele>
      </trkpt>
      <trkpt lat="50.13849" lon="7.17506">
        <ele>88.2</ele>
      </trkpt>
      <trkpt lat="50.13847" lon="7.17528">
        <ele>87.9</ele>
      </trkpt>
      <trkpt lat="50.13847" lon="7.17609">
        <ele>86.1</ele>
      </trkpt>
      <trkpt lat="50.13847" lon="7.1769">
        <ele>84.9</ele>
      </trkpt>
      <trkpt lat="50.1385" lon="7.17737">
        <ele>84.9</ele>
      </trkpt>
      <trkpt lat="50.13854" lon="7.17777">
        <ele>84.9</ele>
      </trkpt>
      <trkpt lat="50.1386" lon="7.17813">
        <ele>84.9</ele>
      </trkpt>
      <trkpt lat="50.13862" lon="7.17881">
        <ele>84.4</ele>
      </trkpt>
      <trkpt lat="50.13866" lon="7.17892">
        <ele>84.0</ele>
      </trkpt>
      <trkpt lat="50.13869" lon="7.17982">
        <ele>82.1</ele>
      </trkpt>
      <trkpt lat="50.13869" lon="7.18005">
        <ele>81.9</ele>
      </trkpt>
      <trkpt lat="50.13873" lon="7.1807">
        <ele>83.3</ele>
      </trkpt>
      <trkpt lat="50.13879" lon="7.18132">
        <ele>85.3</ele>
      </trkpt>
      <trkpt lat="50.13884" lon="7.18172">
        <ele>86.6</ele>
      </trkpt>
      <trkpt lat="50.13896" lon="7.18242">
        <ele>86.0</ele>
      </trkpt>
      <trkpt lat="50.13916" lon="7.18357">
        <ele>85.0</ele>
      </trkpt>
      <trkpt lat="50.13935" lon="7.18449">
        <ele>85.0</ele>
      </trkpt>
      <trkpt lat="50.13954" lon="7.18533">
        <ele>84.6</ele>
      </trkpt>
      <trkpt lat="50.1397" lon="7.18614">
        <ele>84.8</ele>
      </trkpt>
      <trkpt lat="50.13978" lon="7.18674">
        <ele>85.1</ele>
      </trkpt>
      <trkpt lat="50.13987" lon="7.18744">
        <ele>85.6</ele>
      </trkpt>
      <trkpt lat="50.13997" lon="7.18815">
        <ele>86.7</ele>
      </trkpt>
      <trkpt lat="50.13998" lon="7.18847">
        <ele>86.9</ele>
      </trkpt>
      <trkpt lat="50.14005" lon="7.18903">
        <ele>86.4</ele>
      </trkpt>
      <trkpt lat="50.14008" lon="7.18957">
        <ele>85.5</ele>
      </trkpt>
      <trkpt lat="50.14012" lon="7.19092">
        <ele>84.7</ele>
      </trkpt>
      <trkpt lat="50.14015" lon="7.19226">
        <ele>84.9</ele>
      </trkpt>
      <trkpt lat="50.14019" lon="7.19352">
        <ele>86.1</ele>
      </trkpt>
      <trkpt lat="50.14022" lon="7.19477">
        <ele>84.9</ele>
      </trkpt>
      <trkpt lat="50.14026" lon="7.19603">
        <ele>84.4</ele>
      </trkpt>
      <trkpt lat="50.14032" lon="7.19713">
        <ele>83.7</ele>
      </trkpt>
      <trkpt lat="50.1404" lon="7.19811">
        <ele>82.7</ele>
      </trkpt>
      <trkpt lat="50.14047" lon="7.19909">
        <ele>83.1</ele>
      </trkpt>
      <trkpt lat="50.14055" lon="7.20007">
        <ele>84.4</ele>
      </trkpt>
      <trkpt lat="50.14058" lon="7.20059">
        <ele>84.6</ele>
      </trkpt>
      <trkpt lat="50.14059" lon="7.2012">
        <ele>85.4</ele>
      </trkpt>
      <trkpt lat="50.14057" lon="7.20217">
        <ele>86.7</ele>
      </trkpt>
      <trkpt lat="50.14052" lon="7.20315">
        <ele>88.0</ele>
      </trkpt>
      <trkpt lat="50.14048" lon="7.20413">
        <ele>89.5</ele>
      </trkpt>
      <trkpt lat="50.14043" lon="7.20511">
        <ele>91.8</ele>
      </trkpt>
      <trkpt lat="50.14039" lon="7.2056">
        <ele>92.8</ele>
      </trkpt>
      <trkpt lat="50.14031" lon="7.20614">
        <ele>94.6</ele>
      </trkpt>
      <trkpt lat="50.14015" lon="7.20719">
        <ele>97.3</ele>
      </trkpt>
      <trkpt lat="50.1401" lon="7.20758">
        <ele>98.0</ele>
      </trkpt>
      <trkpt lat="50.14007" lon="7.20807">
        <ele>97.9</ele>
      </trkpt>
      <trkpt lat="50.14006" lon="7.20827">
        <ele>97.8</ele>
      </trkpt>
      <trkpt lat="50.14007" lon="7.20848">
        <ele>97.7</ele>
      </trkpt>
      <trkpt lat="50.1401" lon="7.20896">
        <ele>97.6</ele>
      </trkpt>
      <trkpt lat="50.14024" lon="7.21002">
        <ele>96.5</ele>
      </trkpt>
      <trkpt lat="50.14038" lon="7.21109">
        <ele>92.6</ele>
      </trkpt>
      <trkpt lat="50.14049" lon="7.21179">
        <ele>90.6</ele>
      </trkpt>
      <trkpt lat="50.14055" lon="7.2121">
        <ele>90.5</ele>
      </trkpt>
      <trkpt lat="50.14072" lon="7.21276">
        <ele>89.1</ele>
      </trkpt>
      <trkpt lat="50.14087" lon="7.21325">
        <ele>87.4</ele>
      </trkpt>
      <trkpt lat="50.14103" lon="7.21367">
        <ele>86.8</ele>
      </trkpt>
      <trkpt lat="50.14122" lon="7.21415">
        <ele>86.2</ele>
      </trkpt>
      <trkpt lat="50.14157" lon="7.21494">
        <ele>85.7</ele>
      </trkpt>
      <trkpt lat="50.14164" lon="7.21508">
        <ele>85.5</ele>
      </trkpt>
      <trkpt lat="50.14176" lon="7.21528">
        <ele>85.3</ele>
      </trkpt>
      <trkpt lat="50.14186" lon="7.21546">
        <ele>85.2</ele>
      </trkpt>
      <trkpt lat="50.14214" lon="7.21612">
        <ele>85.8</ele>
      </trkpt>
      <trkpt lat="50.14225" lon="7.21635">
        <ele>86.1</ele>
      </trkpt>
      <trkpt lat="50.14273" lon="7.21749">
        <ele>88.0</ele>
      </trkpt>
      <trkpt lat="50.1432" lon="7.21862">
        <ele>87.3</ele>
      </trkpt>
      <trkpt lat="50.14368" lon="7.21975">
        <ele>88.4</ele>
      </trkpt>
      <trkpt lat="50.14384" lon="7.22008">
        <ele>88.1</ele>
      </trkpt>
      <trkpt lat="50.14398" lon="7.2204">
        <ele>88.0</ele>
      </trkpt>
      <trkpt lat="50.14408" lon="7.22071">
        <ele>88.1</ele>
      </trkpt>
      <trkpt lat="50.14439" lon="7.22141">
        <ele>87.9</ele>
      </trkpt>
      <trkpt lat="50.14443" lon="7.22158">
        <ele>87.7</ele>
      </trkpt>
      <trkpt lat="50.14445" lon="7.22184">
        <ele>87.7</ele>
      </trkpt>
      <trkpt lat="50.14449" lon="7.22202">
        <ele>87.4</ele>
      </trkpt>
      <trkpt lat="50.14467" lon="7.22247">
        <ele>86.4</ele>
      </trkpt>
      <trkpt lat="50.14483" lon="7.22295">
        <ele>85.7</ele>
      </trkpt>
      <trkpt lat="50.14496" lon="7.22324">
        <ele>85.1</ele>
      </trkpt>
      <trkpt lat="50.14498" lon="7.22331">
        <ele>85.1</ele>
      </trkpt>
      <trkpt lat="50.14503" lon="7.22353">
        <ele>85.4</ele>
      </trkpt>
      <trkpt lat="50.14516" lon="7.22396">
        <ele>85.7</ele>
      </trkpt>
      <trkpt lat="50.14523" lon="7.22425">
        <ele>85.7</ele>
      </trkpt>
      <trkpt lat="50.1453" lon="7.22464">
        <ele>85.3</ele>
      </trkpt>
      <trkpt lat="50.14533" lon="7.22489">
        <ele>85.0</ele>
      </trkpt>
      <trkpt lat="50.14544" lon="7.22561">
        <ele>84.1</ele>
      </trkpt>
      <trkpt lat="50.14552" lon="7.22596">
        <ele>83.3</ele>
      </trkpt>
      <trkpt lat="50.14554" lon="7.22616">
        <ele>83.4</ele>
      </trkpt>
      <trkpt lat="50.14555" lon="7.22673">
        <ele>84.2</ele>
      </trkpt>
      <trkpt lat="50.14555" lon="7.22727">
        <ele>85.5</ele>
      </trkpt>
      <trkpt lat="50.14552" lon="7.2282">
        <ele>88.5</ele>
      </trkpt>
      <trkpt lat="50.1455" lon="7.22837">
        <ele>89.0</ele>
      </trkpt>
      <trkpt lat="50.14545" lon="7.22869">
        <ele>89.1</ele>
      </trkpt>
      <trkpt lat="50.14535" lon="7.22936">
        <ele>89.0</ele>
      </trkpt>
      <trkpt lat="50.14527" lon="7.22972">
        <ele>88.7</ele>
      </trkpt>
      <trkpt lat="50.14514" lon="7.23018">
        <ele>88.0</ele>
      </trkpt>
      <trkpt lat="50.14492" lon="7.23087">
        <ele>87.4</ele>
      </trkpt>
      <trkpt lat="50.14467" lon="7.23152">
        <ele>87.0</ele>
      </trkpt>
      <trkpt lat="50.14452" lon="7.23181">
        <ele>87.1</ele>
      </trkpt>
      <trkpt lat="50.14439" lon="7.23221">
        <ele>87.0</ele>
      </trkpt>
      <trkpt lat="50.14434" lon="7.23236">
        <ele>86.8</ele>
      </trkpt>
      <trkpt lat="50.14415" lon="7.23272">
        <ele>86.5</ele>
      </trkpt>
      <trkpt lat="50.14394" lon="7.2331">
        <ele>86.4</ele>
      </trkpt>
      <trkpt lat="50.14386" lon="7.23322">
        <ele>86.4</ele>
      </trkpt>
      <trkpt lat="50.14372" lon="7.23339">
        <ele>86.5</ele>
      </trkpt>
      <trkpt lat="50.14323" lon="7.23383">
        <ele>86.5</ele>
      </trkpt>
      <trkpt lat="50.14295" lon="7.23411">
        <ele>86.6</ele>
      </trkpt>
      <trkpt lat="50.14281" lon="7.23419">
        <ele>86.8</ele>
      </trkpt>
      <trkpt lat="50.14261" lon="7.23426">
        <ele>87.3</ele>
      </trkpt>
      <trkpt lat="50.14236" lon="7.23441">
        <ele>87.2</ele>
      </trkpt>
      <trkpt lat="50.14201" lon="7.2346">
        <ele>86.7</ele>
      </trkpt>
      <trkpt lat="50.14155" lon="7.23487">
        <ele>85.9</ele>
      </trkpt>
      <trkpt lat="50.14111" lon="7.23511">
        <ele>86.2</ele>
      </trkpt>
      <trkpt lat="50.14088" lon="7.23517">
        <ele>86.5</ele>
      </trkpt>
      <trkpt lat="50.14071" lon="7.23519">
        <ele>86.5</ele>
      </trkpt>
      <trkpt lat="50.14065" lon="7.23517">
        <ele>86.6</ele>
      </trkpt>
      <trkpt lat="50.14062" lon="7.23513">
        <ele>86.7</ele>
      </trkpt>
      <trkpt lat="50.14061" lon="7.23501">
        <ele>87.0</ele>
      </trkpt>
      <trkpt lat="50.14059" lon="7.23472">
        <ele>88.5</ele>
      </trkpt>
      <trkpt lat="50.14014" lon="7.23474">
        <ele>88.8</ele>
      </trkpt>
      <trkpt lat="50.13981" lon="7.2347">
        <ele>89.0</ele>
      </trkpt>
      <trkpt lat="50.13953" lon="7.23464">
        <ele>89.6</ele>
      </trkpt>
      <trkpt lat="50.13919" lon="7.23453">
        <ele>91.3</ele>
      </trkpt>
      <trkpt lat="50.13852" lon="7.23426">
        <ele>94.4</ele>
      </trkpt>
      <trkpt lat="50.13821" lon="7.2341">
        <ele>97.1</ele>
      </trkpt>
      <trkpt lat="50.13786" lon="7.23388">
        <ele>98.7</ele>
      </trkpt>
      <trkpt lat="50.13767" lon="7.23373">
        <ele>98.7</ele>
      </trkpt>
      <trkpt lat="50.13747" lon="7.23357">
        <ele>97.6</ele>
      </trkpt>
      <trkpt lat="50.1371" lon="7.23324">
        <ele>96.9</ele>
      </trkpt>
      <trkpt lat="50.13673" lon="7.23288">
        <ele>100.6</ele>
      </trkpt>
      <trkpt lat="50.13638" lon="7.23249">
        <ele>103.0</ele>
      </trkpt>
      <trkpt lat="50.13595" lon="7.23199">
        <ele>100.2</ele>
      </trkpt>
      <trkpt lat="50.13545" lon="7.23134">
        <ele>101.8</ele>
      </trkpt>
      <trkpt lat="50.13506" lon="7.23074">
        <ele>101.9</ele>
      </trkpt>
      <trkpt lat="50.13448" lon="7.22969">
        <ele>100.6</ele>
      </trkpt>
      <trkpt lat="50.13389" lon="7.22864">
        <ele>102.9</ele>
      </trkpt>
      <trkpt lat="50.13331" lon="7.22759">
        <ele>103.8</ele>
      </trkpt>
      <trkpt lat="50.13316" lon="7.22733">
        <ele>104.9</ele>
      </trkpt>
      <trkpt lat="50.13302" lon="7.2271">
        <ele>104.8</ele>
      </trkpt>
      <trkpt lat="50.13281" lon="7.22686">
        <ele>101.9</ele>
      </trkpt>
      <trkpt lat="50.13259" lon="7.22663">
        <ele>98.1</ele>
      </trkpt>
      <trkpt lat="50.13213" lon="7.22621">
        <ele>103.0</ele>
      </trkpt>
      <trkpt lat="50.13184" lon="7.22598">
        <ele>104.1</ele>
      </trkpt>
      <trkpt lat="50.13155" lon="7.22583">
        <ele>102.8</ele>
      </trkpt>
      <trkpt lat="50.13125" lon="7.22569">
        <ele>101.6</ele>
      </trkpt>
      <trkpt lat="50.1304" lon="7.22543">
        <ele>98.3</ele>
      </trkpt>
      <trkpt lat="50.12955" lon="7.22518">
        <ele>97.6</ele>
      </trkpt>
      <trkpt lat="50.12909" lon="7.22501">
        <ele>96.1</ele>
      </trkpt>
      <trkpt lat="50.12862" lon="7.22483">
        <ele>97.6</ele>
      </trkpt>
      <trkpt lat="50.12819" lon="7.22475">
        <ele>97.1</ele>
      </trkpt>
      <trkpt lat="50.1276" lon="7.22465">
        <ele>100.1</ele>
      </trkpt>
      <trkpt lat="50.12701" lon="7.22456">
        <ele>100.3</ele>
      </trkpt>
      <trkpt lat="50.12669" lon="7.22452">
        <ele>100.3</ele>
      </trkpt>
      <trkpt lat="50.12648" lon="7.22453">
        <ele>101.5</ele>
      </trkpt>
      <trkpt lat="50.12617" lon="7.22459">
        <ele>102.2</ele>
      </trkpt>
      <trkpt lat="50.12543" lon="7.22478">
        <ele>99.7</ele>
      </trkpt>
      <trkpt lat="50.12487" lon="7.22482">
        <ele>101.3</ele>
      </trkpt>
      <trkpt lat="50.12431" lon="7.22485">
        <ele>106.4</ele>
      </trkpt>
      <trkpt lat="50.12404" lon="7.22493">
        <ele>106.5</ele>
      </trkpt>
      <trkpt lat="50.12373" lon="7.22506">
        <ele>108.1</ele>
      </trkpt>
      <trkpt lat="50.12344" lon="7.22524">
        <ele>110.5</ele>
      </trkpt>
      <trkpt lat="50.12277" lon="7.2258">
        <ele>109.0</ele>
      </trkpt>
      <trkpt lat="50.1221" lon="7.22635">
        <ele>101.7</ele>
      </trkpt>
      <trkpt lat="50.12143" lon="7.22691">
        <ele>102.3</ele>
      </trkpt>
      <trkpt lat="50.12096" lon="7.22732">
        <ele>108.8</ele>
      </trkpt>
      <trkpt lat="50.1208" lon="7.22749">
        <ele>108.9</ele>
      </trkpt>
      <trkpt lat="50.1207" lon="7.22761">
        <ele>108.1</ele>
      </trkpt>
      <trkpt lat="50.12055" lon="7.22783">
        <ele>105.2</ele>
      </trkpt>
      <trkpt lat="50.12027" lon="7.22828">
        <ele>95.7</ele>
      </trkpt>
      <trkpt lat="50.11986" lon="7.22899">
        <ele>94.0</ele>
      </trkpt>
      <trkpt lat="50.11945" lon="7.2297">
        <ele>91.7</ele>
      </trkpt>
      <trkpt lat="50.11904" lon="7.23041">
        <ele>90.9</ele>
      </trkpt>
      <trkpt lat="50.11864" lon="7.23103">
        <ele>91.4</ele>
      </trkpt>
      <trkpt lat="50.11822" lon="7.2316">
        <ele>89.7</ele>
      </trkpt>
      <trkpt lat="50.11781" lon="7.23217">
        <ele>90.3</ele>
      </trkpt>
      <trkpt lat="50.1178" lon="7.23224">
        <ele>90.3</ele>
      </trkpt>
      <trkpt lat="50.11776" lon="7.23233">
        <ele>90.2</ele>
      </trkpt>
      <trkpt lat="50.11738" lon="7.23289">
        <ele>89.8</ele>
      </trkpt>
      <trkpt lat="50.117" lon="7.23344">
        <ele>91.2</ele>
      </trkpt>
      <trkpt lat="50.11694" lon="7.23352">
        <ele>91.6</ele>
      </trkpt>
      <trkpt lat="50.11658" lon="7.23391">
        <ele>93.1</ele>
      </trkpt>
      <trkpt lat="50.11604" lon="7.23448">
        <ele>93.6</ele>
      </trkpt>
      <trkpt lat="50.1155" lon="7.23505">
        <ele>92.8</ele>
      </trkpt>
      <trkpt lat="50.11497" lon="7.23562">
        <ele>91.9</ele>
      </trkpt>
      <trkpt lat="50.11417" lon="7.23624">
        <ele>88.6</ele>
      </trkpt>
      <trkpt lat="50.11412" lon="7.23626">
        <ele>88.5</ele>
      </trkpt>
      <trkpt lat="50.11399" lon="7.23629">
        <ele>88.4</ele>
      </trkpt>
      <trkpt lat="50.11389" lon="7.23628">
        <ele>88.4</ele>
      </trkpt>
      <trkpt lat="50.11348" lon="7.23655">
        <ele>87.4</ele>
      </trkpt>
      <trkpt lat="50.11328" lon="7.23663">
        <ele>87.1</ele>
      </trkpt>
      <trkpt lat="50.11312" lon="7.23667">
        <ele>87.0</ele>
      </trkpt>
      <trkpt lat="50.1129" lon="7.2367">
        <ele>87.0</ele>
      </trkpt>
      <trkpt lat="50.11256" lon="7.23671">
        <ele>87.0</ele>
      </trkpt>
      <trkpt lat="50.11242" lon="7.23668">
        <ele>86.9</ele>
      </trkpt>
      <trkpt lat="50.11219" lon="7.23669">
        <ele>86.6</ele>
      </trkpt>
      <trkpt lat="50.11186" lon="7.23668">
        <ele>86.2</ele>
      </trkpt>
      <trkpt lat="50.11153" lon="7.23663">
        <ele>86.2</ele>
      </trkpt>
      <trkpt lat="50.11131" lon="7.23658">
        <ele>86.6</ele>
      </trkpt>
      <trkpt lat="50.11107" lon="7.23649">
        <ele>87.0</ele>
      </trkpt>
      <trkpt lat="50.11077" lon="7.23632">
        <ele>87.4</ele>
      </trkpt>
      <trkpt lat="50.11058" lon="7.23619">
        <ele>87.5</ele>
      </trkpt>
      <trkpt lat="50.11041" lon="7.23604">
        <ele>87.5</ele>
      </trkpt>
      <trkpt lat="50.11016" lon="7.23578">
        <ele>87.2</ele>
      </trkpt>
      <trkpt lat="50.10997" lon="7.23554">
        <ele>87.0</ele>
      </trkpt>
      <trkpt lat="50.10974" lon="7.23518">
        <ele>87.1</ele>
      </trkpt>
      <trkpt lat="50.10949" lon="7.23472">
        <ele>87.5</ele>
      </trkpt>
      <trkpt lat="50.10921" lon="7.23411">
        <ele>88.1</ele>
      </trkpt>
      <trkpt lat="50.10892" lon="7.2335">
        <ele>87.4</ele>
      </trkpt>
      <trkpt lat="50.10862" lon="7.2328">
        <ele>87.3</ele>
      </trkpt>
      <trkpt lat="50.1083" lon="7.23193">
        <ele>87.8</ele>
      </trkpt>
      <trkpt lat="50.108" lon="7.23104">
        <ele>88.6</ele>
      </trkpt>
      <trkpt lat="50.10771" lon="7.23012">
        <ele>87.6</ele>
      </trkpt>
      <trkpt lat="50.10744" lon="7.22917">
        <ele>87.9</ele>
      </trkpt>
      <trkpt lat="50.10728" lon="7.22852">
        <ele>88.2</ele>
      </trkpt>
      <trkpt lat="50.10718" lon="7.22801">
        <ele>88.5</ele>
      </trkpt>
      <trkpt lat="50.10707" lon="7.22735">
        <ele>88.5</ele>
      </trkpt>
      <trkpt lat="50.10699" lon="7.22669">
        <ele>88.5</ele>
      </trkpt>
      <trkpt lat="50.10695" lon="7.22618">
        <ele>88.5</ele>
      </trkpt>
      <trkpt lat="50.10691" lon="7.22567">
        <ele>88.6</ele>
      </trkpt>
      <trkpt lat="50.10689" lon="7.22516">
        <ele>88.5</ele>
      </trkpt>
      <trkpt lat="50.10688" lon="7.22439">
        <ele>89.8</ele>
      </trkpt>
      <trkpt lat="50.10691" lon="7.22347">
        <ele>90.9</ele>
      </trkpt>
      <trkpt lat="50.10693" lon="7.22292">
        <ele>90.0</ele>
      </trkpt>
      <trkpt lat="50.10699" lon="7.22235">
        <ele>88.6</ele>
      </trkpt>
      <trkpt lat="50.10701" lon="7.22216">
        <ele>88.2</ele>
      </trkpt>
      <trkpt lat="50.10714" lon="7.22146">
        <ele>86.3</ele>
      </trkpt>
      <trkpt lat="50.10732" lon="7.22069">
        <ele>84.8</ele>
      </trkpt>
      <trkpt lat="50.10748" lon="7.22005">
        <ele>84.9</ele>
      </trkpt>
      <trkpt lat="50.10778" lon="7.21907">
        <ele>85.7</ele>
      </trkpt>
      <trkpt lat="50.10808" lon="7.21809">
        <ele>88.1</ele>
      </trkpt>
      <trkpt lat="50.10843" lon="7.21701">
        <ele>90.6</ele>
      </trkpt>
      <trkpt lat="50.10869" lon="7.21626">
        <ele>92.8</ele>
      </trkpt>
      <trkpt lat="50.10891" lon="7.21568">
        <ele>93.7</ele>
      </trkpt>
      <trkpt lat="50.10914" lon="7.21511">
        <ele>93.2</ele>
      </trkpt>
      <trkpt lat="50.10938" lon="7.21455">
        <ele>98.6</ele>
      </trkpt>
      <trkpt lat="50.10956" lon="7.21416">
        <ele>100.9</ele>
      </trkpt>
      <trkpt lat="50.10977" lon="7.21375">
        <ele>100.9</ele>
      </trkpt>
      <trkpt lat="50.11008" lon="7.21324">
        <ele>100.0</ele>
      </trkpt>
      <trkpt lat="50.11034" lon="7.21289">
        <ele>104.2</ele>
      </trkpt>
      <trkpt lat="50.11086" lon="7.2122">
        <ele>103.6</ele>
      </trkpt>
      <trkpt lat="50.11138" lon="7.21151">
        <ele>104.3</ele>
      </trkpt>
      <trkpt lat="50.11165" lon="7.21119">
        <ele>104.3</ele>
      </trkpt>
      <trkpt lat="50.11204" lon="7.2108">
        <ele>105.1</ele>
      </trkpt>
      <trkpt lat="50.11242" lon="7.21041">
        <ele>101.9</ele>
      </trkpt>
      <trkpt lat="50.11269" lon="7.21012">
        <ele>99.9</ele>
      </trkpt>
      <trkpt lat="50.11296" lon="7.20979">
        <ele>101.0</ele>
      </trkpt>
      <trkpt lat="50.1132" lon="7.20944">
        <ele>102.7</ele>
      </trkpt>
      <trkpt lat="50.11334" lon="7.20917">
        <ele>102.3</ele>
      </trkpt>
      <trkpt lat="50.1136" lon="7.2086">
        <ele>106.0</ele>
      </trkpt>
      <trkpt lat="50.1137" lon="7.2083">
        <ele>104.9</ele>
      </trkpt>
      <trkpt lat="50.1138" lon="7.20798">
        <ele>106.6</ele>
      </trkpt>
      <trkpt lat="50.11391" lon="7.20749">
        <ele>106.3</ele>
      </trkpt>
      <trkpt lat="50.11396" lon="7.20716">
        <ele>105.0</ele>
      </trkpt>
      <trkpt lat="50.11402" lon="7.20665">
        <ele>102.0</ele>
      </trkpt>
      <trkpt lat="50.11404" lon="7.20632">
        <ele>102.2</ele>
      </trkpt>
      <trkpt lat="50.11405" lon="7.20578">
        <ele>102.4</ele>
      </trkpt>
      <trkpt lat="50.11404" lon="7.20525">
        <ele>102.1</ele>
      </trkpt>
      <trkpt lat="50.11402" lon="7.20473">
        <ele>101.7</ele>
      </trkpt>
      <trkpt lat="50.11399" lon="7.2042">
        <ele>101.3</ele>
      </trkpt>
      <trkpt lat="50.11395" lon="7.20368">
        <ele>100.4</ele>
      </trkpt>
      <trkpt lat="50.11385" lon="7.20281">
        <ele>99.8</ele>
      </trkpt>
      <trkpt lat="50.11378" lon="7.2023">
        <ele>109.2</ele>
      </trkpt>
      <trkpt lat="50.1137" lon="7.20178">
        <ele>127.3</ele>
      </trkpt>
      <trkpt lat="50.11358" lon="7.2011">
        <ele>111.6</ele>
      </trkpt>
      <trkpt lat="50.11345" lon="7.20044">
        <ele>103.2</ele>
      </trkpt>
      <trkpt lat="50.11338" lon="7.20014">
        <ele>101.3</ele>
      </trkpt>
      <trkpt lat="50.11338" lon="7.20014">
        <ele>101.3</ele>
      </trkpt>
      <trkpt lat="50.1133" lon="7.19979">
        <ele>102.2</ele>
      </trkpt>
      <trkpt lat="50.11316" lon="7.1993">
        <ele>106.1</ele>
      </trkpt>
      <trkpt lat="50.11302" lon="7.19883">
        <ele>108.3</ele>
      </trkpt>
      <trkpt lat="50.11292" lon="7.19852">
        <ele>108.9</ele>
      </trkpt>
      <trkpt lat="50.11275" lon="7.19806">
        <ele>111.0</ele>
      </trkpt>
      <trkpt lat="50.11263" lon="7.19777">
        <ele>110.5</ele>
      </trkpt>
      <trkpt lat="50.11243" lon="7.19733">
        <ele>106.4</ele>
      </trkpt>
      <trkpt lat="50.11216" lon="7.19678">
        <ele>102.9</ele>
      </trkpt>
      <trkpt lat="50.11186" lon="7.19625">
        <ele>102.9</ele>
      </trkpt>
      <trkpt lat="50.11154" lon="7.19575">
        <ele>100.4</ele>
      </trkpt>
      <trkpt lat="50.11104" lon="7.19504">
        <ele>96.4</ele>
      </trkpt>
      <trkpt lat="50.1106" lon="7.19447">
        <ele>100.3</ele>
      </trkpt>
      <trkpt lat="50.11017" lon="7.19391">
        <ele>99.4</ele>
      </trkpt>
      <trkpt lat="50.10976" lon="7.19343">
        <ele>95.1</ele>
      </trkpt>
      <trkpt lat="50.10936" lon="7.19294">
        <ele>99.0</ele>
      </trkpt>
      <trkpt lat="50.10864" lon="7.19213">
        <ele>102.2</ele>
      </trkpt>
      <trkpt lat="50.10811" lon="7.19156">
        <ele>101.9</ele>
      </trkpt>
      <trkpt lat="50.10766" lon="7.1911">
        <ele>109.8</ele>
      </trkpt>
      <trkpt lat="50.10711" lon="7.19058">
        <ele>109.9</ele>
      </trkpt>
      <trkpt lat="50.10683" lon="7.19034">
        <ele>105.5</ele>
      </trkpt>
      <trkpt lat="50.10644" lon="7.19005">
        <ele>99.7</ele>
      </trkpt>
      <trkpt lat="50.10615" lon="7.18986">
        <ele>102.3</ele>
      </trkpt>
      <trkpt lat="50.10585" lon="7.1897">
        <ele>104.2</ele>
      </trkpt>
      <trkpt lat="50.10554" lon="7.18958">
        <ele>106.9</ele>
      </trkpt>
      <trkpt lat="50.10523" lon="7.18949">
        <ele>108.4</ele>
      </trkpt>
      <trkpt lat="50.10491" lon="7.18944">
        <ele>109.0</ele>
      </trkpt>
      <trkpt lat="50.1047" lon="7.18943">
        <ele>109.7</ele>
      </trkpt>
      <trkpt lat="50.10427" lon="7.18945">
        <ele>109.6</ele>
      </trkpt>
      <trkpt lat="50.10374" lon="7.18953">
        <ele>104.0</ele>
      </trkpt>
      <trkpt lat="50.10331" lon="7.18961">
        <ele>99.5</ele>
      </trkpt>
      <trkpt lat="50.10289" lon="7.18973">
        <ele>99.1</ele>
      </trkpt>
      <trkpt lat="50.10227" lon="7.18995">
        <ele>98.9</ele>
      </trkpt>
      <trkpt lat="50.10175" lon="7.19018">
        <ele>102.1</ele>
      </trkpt>
      <trkpt lat="50.10119" lon="7.19045">
        <ele>105.4</ele>
      </trkpt>
      <trkpt lat="50.10062" lon="7.19073">
        <ele>106.6</ele>
      </trkpt>
      <trkpt lat="50.1001" lon="7.19096">
        <ele>107.3</ele>
      </trkpt>
      <trkpt lat="50.09963" lon="7.19114">
        <ele>109.1</ele>
      </trkpt>
      <trkpt lat="50.09916" lon="7.19133">
        <ele>108.8</ele>
      </trkpt>
      <trkpt lat="50.09832" lon="7.19161">
        <ele>105.1</ele>
      </trkpt>
      <trkpt lat="50.09748" lon="7.19189">
        <ele>106.7</ele>
      </trkpt>
      <trkpt lat="50.09707" lon="7.19206">
        <ele>107.3</ele>
      </trkpt>
      <trkpt lat="50.09646" lon="7.19238">
        <ele>105.6</ele>
      </trkpt>
      <trkpt lat="50.09617" lon="7.19256">
        <ele>103.7</ele>
      </trkpt>
      <trkpt lat="50.09578" lon="7.19283">
        <ele>100.7</ele>
      </trkpt>
      <trkpt lat="50.0955" lon="7.19306">
        <ele>100.0</ele>
      </trkpt>
      <trkpt lat="50.09503" lon="7.19349">
        <ele>100.0</ele>
      </trkpt>
      <trkpt lat="50.09467" lon="7.19386">
        <ele>105.9</ele>
      </trkpt>
      <trkpt lat="50.09425" lon="7.19435">
        <ele>107.1</ele>
      </trkpt>
      <trkpt lat="50.09383" lon="7.19488">
        <ele>106.1</ele>
      </trkpt>
      <trkpt lat="50.09341" lon="7.19542">
        <ele>107.4</ele>
      </trkpt>
      <trkpt lat="50.09315" lon="7.19572">
        <ele>107.5</ele>
      </trkpt>
      <trkpt lat="50.09279" lon="7.19608">
        <ele>105.7</ele>
      </trkpt>
      <trkpt lat="50.0925" lon="7.19633">
        <ele>102.7</ele>
      </trkpt>
      <trkpt lat="50.09211" lon="7.19662">
        <ele>101.3</ele>
      </trkpt>
      <trkpt lat="50.09171" lon="7.19687">
        <ele>105.1</ele>
      </trkpt>
      <trkpt lat="50.09092" lon="7.19734">
        <ele>109.1</ele>
      </trkpt>
      <trkpt lat="50.09054" lon="7.1976">
        <ele>108.8</ele>
      </trkpt>
      <trkpt lat="50.09019" lon="7.19789">
        <ele>106.9</ele>
      </trkpt>
      <trkpt lat="50.08998" lon="7.1981">
        <ele>104.6</ele>
      </trkpt>
      <trkpt lat="50.08957" lon="7.19858">
        <ele>103.1</ele>
      </trkpt>
      <trkpt lat="50.08936" lon="7.19885">
        <ele>102.9</ele>
      </trkpt>
      <trkpt lat="50.08931" lon="7.19894">
        <ele>102.4</ele>
      </trkpt>
      <trkpt lat="50.08927" lon="7.19907">
        <ele>101.3</ele>
      </trkpt>
      <trkpt lat="50.08926" lon="7.19936">
        <ele>98.1</ele>
      </trkpt>
      <trkpt lat="50.08916" lon="7.19947">
        <ele>97.5</ele>
      </trkpt>
      <trkpt lat="50.08913" lon="7.19947">
        <ele>97.9</ele>
      </trkpt>
      <trkpt lat="50.08907" lon="7.19943">
        <ele>99.4</ele>
      </trkpt>
      <trkpt lat="50.08901" lon="7.19942">
        <ele>100.4</ele>
      </trkpt>
      <trkpt lat="50.08897" lon="7.19943">
        <ele>100.9</ele>
      </trkpt>
      <trkpt lat="50.0889" lon="7.1995">
        <ele>101.0</ele>
      </trkpt>
      <trkpt lat="50.08833" lon="7.20027">
        <ele>98.5</ele>
      </trkpt>
      <trkpt lat="50.088" lon="7.20071">
        <ele>101.4</ele>
      </trkpt>
      <trkpt lat="50.08774" lon="7.20101">
        <ele>102.0</ele>
      </trkpt>
      <trkpt lat="50.08755" lon="7.2012">
        <ele>101.7</ele>
      </trkpt>
      <trkpt lat="50.08718" lon="7.2015">
        <ele>100.8</ele>
      </trkpt>
      <trkpt lat="50.08704" lon="7.20161">
        <ele>100.7</ele>
      </trkpt>
      <trkpt lat="50.0867" lon="7.2018">
        <ele>103.0</ele>
      </trkpt>
      <trkpt lat="50.08636" lon="7.20195">
        <ele>104.2</ele>
      </trkpt>
      <trkpt lat="50.08606" lon="7.20205">
        <ele>105.1</ele>
      </trkpt>
      <trkpt lat="50.08569" lon="7.2021">
        <ele>105.5</ele>
      </trkpt>
      <trkpt lat="50.0851" lon="7.2021">
        <ele>104.1</ele>
      </trkpt>
      <trkpt lat="50.08498" lon="7.20209">
        <ele>103.8</ele>
      </trkpt>
      <trkpt lat="50.08473" lon="7.20203">
        <ele>102.6</ele>
      </trkpt>
      <trkpt lat="50.08431" lon="7.20187">
        <ele>100.8</ele>
      </trkpt>
      <trkpt lat="50.08392" lon="7.20166">
        <ele>99.0</ele>
      </trkpt>
      <trkpt lat="50.08374" lon="7.20154">
        <ele>98.2</ele>
      </trkpt>
      <trkpt lat="50.08344" lon="7.2013">
        <ele>97.1</ele>
      </trkpt>
      <trkpt lat="50.08326" lon="7.20114">
        <ele>96.7</ele>
      </trkpt>
      <trkpt lat="50.08304" lon="7.20091">
        <ele>96.5</ele>
      </trkpt>
      <trkpt lat="50.08288" lon="7.20073">
        <ele>96.1</ele>
      </trkpt>
      <trkpt lat="50.08266" lon="7.20043">
        <ele>95.3</ele>
      </trkpt>
      <trkpt lat="50.08239" lon="7.20002">
        <ele>94.2</ele>
      </trkpt>
      <trkpt lat="50.08222" lon="7.19969">
        <ele>93.7</ele>
      </trkpt>
      <trkpt lat="50.08204" lon="7.19931">
        <ele>93.3</ele>
      </trkpt>
      <trkpt lat="50.08184" lon="7.19881">
        <ele>92.8</ele>
      </trkpt>
      <trkpt lat="50.08178" lon="7.19861">
        <ele>92.6</ele>
      </trkpt>
      <trkpt lat="50.08166" lon="7.19822">
        <ele>92.1</ele>
      </trkpt>
      <trkpt lat="50.08157" lon="7.19786">
        <ele>92.2</ele>
      </trkpt>
      <trkpt lat="50.08151" lon="7.19757">
        <ele>92.4</ele>
      </trkpt>
      <trkpt lat="50.08142" lon="7.19696">
        <ele>92.6</ele>
      </trkpt>
      <trkpt lat="50.08136" lon="7.19645">
        <ele>92.6</ele>
      </trkpt>
      <trkpt lat="50.08133" lon="7.19593">
        <ele>92.7</ele>
      </trkpt>
      <trkpt lat="50.0813" lon="7.19517">
        <ele>93.0</ele>
      </trkpt>
      <trkpt lat="50.08131" lon="7.19458">
        <ele>92.6</ele>
      </trkpt>
      <trkpt lat="50.08135" lon="7.19383">
        <ele>92.1</ele>
      </trkpt>
      <trkpt lat="50.08134" lon="7.19368">
        <ele>92.0</ele>
      </trkpt>
      <trkpt lat="50.08136" lon="7.19333">
        <ele>91.9</ele>
      </trkpt>
      <trkpt lat="50.08135" lon="7.19315">
        <ele>91.8</ele>
      </trkpt>
      <trkpt lat="50.08136" lon="7.19292">
        <ele>91.8</ele>
      </trkpt>
      <trkpt lat="50.08142" lon="7.19245">
        <ele>91.7</ele>
      </trkpt>
      <trkpt lat="50.0815" lon="7.19192">
        <ele>91.8</ele>
      </trkpt>
      <trkpt lat="50.08169" lon="7.19103">
        <ele>91.4</ele>
      </trkpt>
      <trkpt lat="50.08169" lon="7.19099">
        <ele>91.3</ele>
      </trkpt>
      <trkpt lat="50.08168" lon="7.19091">
        <ele>91.2</ele>
      </trkpt>
      <trkpt lat="50.08165" lon="7.19086">
        <ele>91.0</ele>
      </trkpt>
      <trkpt lat="50.08158" lon="7.19077">
        <ele>90.7</ele>
      </trkpt>
      <trkpt lat="50.08153" lon="7.19055">
        <ele>90.3</ele>
      </trkpt>
      <trkpt lat="50.08151" lon="7.19052">
        <ele>90.2</ele>
      </trkpt>
      <trkpt lat="50.08145" lon="7.19047">
        <ele>89.9</ele>
      </trkpt>
      <trkpt lat="50.08133" lon="7.19039">
        <ele>89.4</ele>
      </trkpt>
      <trkpt lat="50.08169" lon="7.18965">
        <ele>89.7</ele>
      </trkpt>
      <trkpt lat="50.08185" lon="7.18921">
        <ele>89.5</ele>
      </trkpt>
      <trkpt lat="50.08224" lon="7.18805">
        <ele>88.3</ele>
      </trkpt>
      <trkpt lat="50.08263" lon="7.1869">
        <ele>88.2</ele>
      </trkpt>
      <trkpt lat="50.08303" lon="7.18575">
        <ele>89.6</ele>
      </trkpt>
      <trkpt lat="50.08342" lon="7.1846">
        <ele>88.3</ele>
      </trkpt>
      <trkpt lat="50.08382" lon="7.18345">
        <ele>88.5</ele>
      </trkpt>
      <trkpt lat="50.08402" lon="7.1828">
        <ele>88.3</ele>
      </trkpt>
      <trkpt lat="50.0842" lon="7.1822">
        <ele>88.3</ele>
      </trkpt>
      <trkpt lat="50.08453" lon="7.18102">
        <ele>89.8</ele>
      </trkpt>
      <trkpt lat="50.08485" lon="7.17984">
        <ele>90.8</ele>
      </trkpt>
      <trkpt lat="50.08518" lon="7.17865">
        <ele>91.9</ele>
      </trkpt>
      <trkpt lat="50.08551" lon="7.17747">
        <ele>89.7</ele>
      </trkpt>
      <trkpt lat="50.08555" lon="7.17737">
        <ele>89.5</ele>
      </trkpt>
      <trkpt lat="50.08569" lon="7.17722">
        <ele>89.0</ele>
      </trkpt>
      <trkpt lat="50.08575" lon="7.17711">
        <ele>88.7</ele>
      </trkpt>
      <trkpt lat="50.08597" lon="7.17638">
        <ele>89.5</ele>
      </trkpt>
      <trkpt lat="50.08618" lon="7.17565">
        <ele>91.7</ele>
      </trkpt>
      <trkpt lat="50.0862" lon="7.17551">
        <ele>91.9</ele>
      </trkpt>
      <trkpt lat="50.08617" lon="7.17526">
        <ele>91.8</ele>
      </trkpt>
      <trkpt lat="50.08618" lon="7.1752">
        <ele>91.8</ele>
      </trkpt>
      <trkpt lat="50.08621" lon="7.17507">
        <ele>91.8</ele>
      </trkpt>
      <trkpt lat="50.08626" lon="7.17489">
        <ele>91.8</ele>
      </trkpt>
      <trkpt lat="50.08641" lon="7.1744">
        <ele>91.8</ele>
      </trkpt>
      <trkpt lat="50.08668" lon="7.17338">
        <ele>90.1</ele>
      </trkpt>
      <trkpt lat="50.08684" lon="7.17279">
        <ele>89.8</ele>
      </trkpt>
      <trkpt lat="50.08706" lon="7.17203">
        <ele>89.4</ele>
      </trkpt>
      <trkpt lat="50.08729" lon="7.1713">
        <ele>90.1</ele>
      </trkpt>
      <trkpt lat="50.08752" lon="7.17061">
        <ele>90.0</ele>
      </trkpt>
      <trkpt lat="50.08775" lon="7.16991">
        <ele>90.5</ele>
      </trkpt>
      <trkpt lat="50.08811" lon="7.16894">
        <ele>90.8</ele>
      </trkpt>
      <trkpt lat="50.08839" lon="7.16821">
        <ele>89.1</ele>
      </trkpt>
      <trkpt lat="50.08865" lon="7.16755">
        <ele>89.2</ele>
      </trkpt>
      <trkpt lat="50.08891" lon="7.16689">
        <ele>89.6</ele>
      </trkpt>
      <trkpt lat="50.08911" lon="7.16644">
        <ele>89.5</ele>
      </trkpt>
      <trkpt lat="50.08943" lon="7.16584">
        <ele>88.0</ele>
      </trkpt>
      <trkpt lat="50.08965" lon="7.16543">
        <ele>87.2</ele>
      </trkpt>
      <trkpt lat="50.08982" lon="7.16517">
        <ele>86.6</ele>
      </trkpt>
      <trkpt lat="50.0901" lon="7.16483">
        <ele>86.1</ele>
      </trkpt>
      <trkpt lat="50.09066" lon="7.16421">
        <ele>87.3</ele>
      </trkpt>
      <trkpt lat="50.09085" lon="7.16398">
        <ele>87.6</ele>
      </trkpt>
      <trkpt lat="50.09149" lon="7.16318">
        <ele>89.3</ele>
      </trkpt>
      <trkpt lat="50.09176" lon="7.16277">
        <ele>90.4</ele>
      </trkpt>
      <trkpt lat="50.0919" lon="7.16251">
        <ele>90.9</ele>
      </trkpt>
      <trkpt lat="50.09202" lon="7.16225">
        <ele>90.9</ele>
      </trkpt>
      <trkpt lat="50.09236" lon="7.16148">
        <ele>89.9</ele>
      </trkpt>
      <trkpt lat="50.09259" lon="7.16091">
        <ele>89.8</ele>
      </trkpt>
      <trkpt lat="50.09302" lon="7.1599">
        <ele>91.3</ele>
      </trkpt>
      <trkpt lat="50.0932" lon="7.15946">
        <ele>91.2</ele>
      </trkpt>
      <trkpt lat="50.09325" lon="7.15941">
        <ele>91.3</ele>
      </trkpt>
      <trkpt lat="50.09336" lon="7.15914">
        <ele>91.2</ele>
      </trkpt>
      <trkpt lat="50.09335" lon="7.15909">
        <ele>91.0</ele>
      </trkpt>
      <trkpt lat="50.09333" lon="7.15904">
        <ele>90.8</ele>
      </trkpt>
      <trkpt lat="50.09335" lon="7.15898">
        <ele>90.9</ele>
      </trkpt>
      <trkpt lat="50.09353" lon="7.15868">
        <ele>91.7</ele>
      </trkpt>
      <trkpt lat="50.09361" lon="7.15851">
        <ele>91.9</ele>
      </trkpt>
      <trkpt lat="50.09376" lon="7.15811">
        <ele>92.0</ele>
      </trkpt>
      <trkpt lat="50.09381" lon="7.15797">
        <ele>91.9</ele>
      </trkpt>
      <trkpt lat="50.09385" lon="7.15775">
        <ele>91.5</ele>
      </trkpt>
      <trkpt lat="50.09426" lon="7.15691">
        <ele>91.1</ele>
      </trkpt>
      <trkpt lat="50.09467" lon="7.15606">
        <ele>91.9</ele>
      </trkpt>
      <trkpt lat="50.09494" lon="7.15564">
        <ele>92.5</ele>
      </trkpt>
      <trkpt lat="50.09551" lon="7.15486">
        <ele>92.9</ele>
      </trkpt>
      <trkpt lat="50.09564" lon="7.15462">
        <ele>92.4</ele>
      </trkpt>
      <trkpt lat="50.0959" lon="7.15396">
        <ele>90.8</ele>
      </trkpt>
      <trkpt lat="50.09628" lon="7.15301">
        <ele>90.9</ele>
      </trkpt>
      <trkpt lat="50.09653" lon="7.1521">
        <ele>90.4</ele>
      </trkpt>
      <trkpt lat="50.09679" lon="7.15118">
        <ele>89.7</ele>
      </trkpt>
      <trkpt lat="50.09705" lon="7.15027">
        <ele>89.6</ele>
      </trkpt>
      <trkpt lat="50.09729" lon="7.14936">
        <ele>90.5</ele>
      </trkpt>
      <trkpt lat="50.09752" lon="7.14845">
        <ele>91.0</ele>
      </trkpt>
      <trkpt lat="50.09781" lon="7.14749">
        <ele>92.0</ele>
      </trkpt>
      <trkpt lat="50.0981" lon="7.14652">
        <ele>92.2</ele>
      </trkpt>
      <trkpt lat="50.09838" lon="7.14552">
        <ele>91.1</ele>
      </trkpt>
      <trkpt lat="50.09848" lon="7.14518">
        <ele>91.4</ele>
      </trkpt>
      <trkpt lat="50.09874" lon="7.14446">
        <ele>91.3</ele>
      </trkpt>
      <trkpt lat="50.099" lon="7.14373">
        <ele>90.2</ele>
      </trkpt>
      <trkpt lat="50.09903" lon="7.14369">
        <ele>90.0</ele>
      </trkpt>
      <trkpt lat="50.09916" lon="7.14336">
        <ele>89.1</ele>
      </trkpt>
      <trkpt lat="50.09942" lon="7.14256">
        <ele>89.3</ele>
      </trkpt>
      <trkpt lat="50.09968" lon="7.14175">
        <ele>89.4</ele>
      </trkpt>
      <trkpt lat="50.09997" lon="7.14101">
        <ele>89.3</ele>
      </trkpt>
      <trkpt lat="50.10026" lon="7.14034">
        <ele>89.9</ele>
      </trkpt>
      <trkpt lat="50.10044" lon="7.13996">
        <ele>90.7</ele>
      </trkpt>
      <trkpt lat="50.10078" lon="7.13932">
        <ele>92.8</ele>
      </trkpt>
      <trkpt lat="50.1009" lon="7.13914">
        <ele>92.8</ele>
      </trkpt>
      <trkpt lat="50.10098" lon="7.13903">
        <ele>92.5</ele>
      </trkpt>
      <trkpt lat="50.10112" lon="7.1389">
        <ele>92.0</ele>
      </trkpt>
      <trkpt lat="50.10118" lon="7.13882">
        <ele>91.7</ele>
      </trkpt>
      <trkpt lat="50.10121" lon="7.13866">
        <ele>91.5</ele>
      </trkpt>
      <trkpt lat="50.10123" lon="7.13851">
        <ele>91.2</ele>
      </trkpt>
      <trkpt lat="50.10125" lon="7.13843">
        <ele>91.1</ele>
      </trkpt>
      <trkpt lat="50.10128" lon="7.13833">
        <ele>90.9</ele>
      </trkpt>
      <trkpt lat="50.10153" lon="7.13789">
        <ele>90.0</ele>
      </trkpt>
      <trkpt lat="50.10163" lon="7.13781">
        <ele>89.5</ele>
      </trkpt>
      <trkpt lat="50.10208" lon="7.13715">
        <ele>90.5</ele>
      </trkpt>
      <trkpt lat="50.10253" lon="7.13649">
        <ele>92.1</ele>
      </trkpt>
      <trkpt lat="50.10298" lon="7.13584">
        <ele>93.7</ele>
      </trkpt>
      <trkpt lat="50.10344" lon="7.13514">
        <ele>95.9</ele>
      </trkpt>
      <trkpt lat="50.10382" lon="7.1345">
        <ele>96.0</ele>
      </trkpt>
      <trkpt lat="50.10403" lon="7.13412">
        <ele>95.3</ele>
      </trkpt>
      <trkpt lat="50.10418" lon="7.13382">
        <ele>94.8</ele>
      </trkpt>
      <trkpt lat="50.10459" lon="7.13289">
        <ele>103.1</ele>
      </trkpt>
      <trkpt lat="50.10473" lon="7.13257">
        <ele>104.2</ele>
      </trkpt>
      <trkpt lat="50.10487" lon="7.13216">
        <ele>103.4</ele>
      </trkpt>
      <trkpt lat="50.10496" lon="7.13197">
        <ele>102.6</ele>
      </trkpt>
      <trkpt lat="50.10505" lon="7.13171">
        <ele>103.1</ele>
      </trkpt>
      <trkpt lat="50.10523" lon="7.131">
        <ele>107.9</ele>
      </trkpt>
      <trkpt lat="50.1053" lon="7.1307">
        <ele>108.6</ele>
      </trkpt>
      <trkpt lat="50.10546" lon="7.12993">
        <ele>107.2</ele>
      </trkpt>
      <trkpt lat="50.10556" lon="7.12937">
        <ele>107.2</ele>
      </trkpt>
      <trkpt lat="50.10564" lon="7.12881">
        <ele>107.0</ele>
      </trkpt>
      <trkpt lat="50.10576" lon="7.12788">
        <ele>107.3</ele>
      </trkpt>
      <trkpt lat="50.10588" lon="7.12695">
        <ele>110.1</ele>
      </trkpt>
      <trkpt lat="50.10592" lon="7.12658">
        <ele>111.8</ele>
      </trkpt>
      <trkpt lat="50.10594" lon="7.12626">
        <ele>112.3</ele>
      </trkpt>
      <trkpt lat="50.10597" lon="7.1255">
        <ele>112.4</ele>
      </trkpt>
      <trkpt lat="50.106" lon="7.12474">
        <ele>112.9</ele>
      </trkpt>
      <trkpt lat="50.10604" lon="7.12391">
        <ele>114.9</ele>
      </trkpt>
      <trkpt lat="50.10609" lon="7.12308">
        <ele>115.0</ele>
      </trkpt>
      <trkpt lat="50.1061" lon="7.12263">
        <ele>112.0</ele>
      </trkpt>
      <trkpt lat="50.10607" lon="7.12209">
        <ele>107.8</ele>
      </trkpt>
      <trkpt lat="50.10602" lon="7.12167">
        <ele>104.9</ele>
      </trkpt>
      <trkpt lat="50.10598" lon="7.12146">
        <ele>105.3</ele>
      </trkpt>
      <trkpt lat="50.10586" lon="7.12111">
        <ele>106.1</ele>
      </trkpt>
      <trkpt lat="50.10571" lon="7.12041">
        <ele>107.3</ele>
      </trkpt>
      <trkpt lat="50.10559" lon="7.11998">
        <ele>107.9</ele>
      </trkpt>
      <trkpt lat="50.10543" lon="7.11949">
        <ele>106.6</ele>
      </trkpt>
      <trkpt lat="50.10533" lon="7.11922">
        <ele>106.2</ele>
      </trkpt>
      <trkpt lat="50.1052" lon="7.11892">
        <ele>106.1</ele>
      </trkpt>
      <trkpt lat="50.10503" lon="7.11859">
        <ele>106.4</ele>
      </trkpt>
      <trkpt lat="50.10485" lon="7.11831">
        <ele>105.8</ele>
      </trkpt>
      <trkpt lat="50.10471" lon="7.11812">
        <ele>109.8</ele>
      </trkpt>
      <trkpt lat="50.10456" lon="7.11795">
        <ele>111.5</ele>
      </trkpt>
      <trkpt lat="50.10421" lon="7.11762">
        <ele>109.4</ele>
      </trkpt>
      <trkpt lat="50.10412" lon="7.11754">
        <ele>108.6</ele>
      </trkpt>
      <trkpt lat="50.10387" lon="7.11738">
        <ele>106.5</ele>
      </trkpt>
      <trkpt lat="50.10371" lon="7.1173">
        <ele>104.4</ele>
      </trkpt>
      <trkpt lat="50.10355" lon="7.11723">
        <ele>101.9</ele>
      </trkpt>
      <trkpt lat="50.10327" lon="7.11716">
        <ele>98.1</ele>
      </trkpt>
      <trkpt lat="50.10295" lon="7.11714">
        <ele>98.2</ele>
      </trkpt>
      <trkpt lat="50.10284" lon="7.11714">
        <ele>98.2</ele>
      </trkpt>
      <trkpt lat="50.10263" lon="7.11717">
        <ele>98.2</ele>
      </trkpt>
      <trkpt lat="50.10242" lon="7.11722">
        <ele>98.3</ele>
      </trkpt>
      <trkpt lat="50.10212" lon="7.11735">
        <ele>98.8</ele>
      </trkpt>
      <trkpt lat="50.10178" lon="7.11756">
        <ele>99.4</ele>
      </trkpt>
      <trkpt lat="50.10143" lon="7.11784">
        <ele>98.9</ele>
      </trkpt>
      <trkpt lat="50.10107" lon="7.11819">
        <ele>97.6</ele>
      </trkpt>
      <trkpt lat="50.10083" lon="7.11845">
        <ele>97.3</ele>
      </trkpt>
      <trkpt lat="50.10057" lon="7.11874">
        <ele>97.7</ele>
      </trkpt>
      <trkpt lat="50.10018" lon="7.11928">
        <ele>97.4</ele>
      </trkpt>
      <trkpt lat="50.09996" lon="7.1196">
        <ele>96.6</ele>
      </trkpt>
      <trkpt lat="50.09974" lon="7.11997">
        <ele>96.7</ele>
      </trkpt>
      <trkpt lat="50.09957" lon="7.12027">
        <ele>97.0</ele>
      </trkpt>
      <trkpt lat="50.09937" lon="7.12103">
        <ele>96.3</ele>
      </trkpt>
      <trkpt lat="50.09916" lon="7.1218">
        <ele>94.0</ele>
      </trkpt>
      <trkpt lat="50.09894" lon="7.12263">
        <ele>94.7</ele>
      </trkpt>
      <trkpt lat="50.09872" lon="7.12347">
        <ele>95.4</ele>
      </trkpt>
      <trkpt lat="50.09853" lon="7.12421">
        <ele>94.4</ele>
      </trkpt>
      <trkpt lat="50.09834" lon="7.12496">
        <ele>92.1</ele>
      </trkpt>
      <trkpt lat="50.09805" lon="7.12622">
        <ele>92.1</ele>
      </trkpt>
      <trkpt lat="50.09802" lon="7.1263">
        <ele>92.1</ele>
      </trkpt>
      <trkpt lat="50.09774" lon="7.12734">
        <ele>92.1</ele>
      </trkpt>
      <trkpt lat="50.09745" lon="7.12837">
        <ele>90.2</ele>
      </trkpt>
      <trkpt lat="50.09717" lon="7.12941">
        <ele>90.9</ele>
      </trkpt>
      <trkpt lat="50.09688" lon="7.13044">
        <ele>90.3</ele>
      </trkpt>
      <trkpt lat="50.09686" lon="7.13052">
        <ele>90.2</ele>
      </trkpt>
      <trkpt lat="50.09663" lon="7.1314">
        <ele>89.8</ele>
      </trkpt>
      <trkpt lat="50.09639" lon="7.13227">
        <ele>90.8</ele>
      </trkpt>
      <trkpt lat="50.09613" lon="7.13317">
        <ele>92.2</ele>
      </trkpt>
      <trkpt lat="50.0961" lon="7.13326">
        <ele>92.3</ele>
      </trkpt>
      <trkpt lat="50.09606" lon="7.13332">
        <ele>92.5</ele>
      </trkpt>
      <trkpt lat="50.09581" lon="7.13366">
        <ele>92.3</ele>
      </trkpt>
      <trkpt lat="50.09575" lon="7.13373">
        <ele>92.3</ele>
      </trkpt>
      <trkpt lat="50.09568" lon="7.13375">
        <ele>92.5</ele>
      </trkpt>
      <trkpt lat="50.09561" lon="7.13376">
        <ele>92.6</ele>
      </trkpt>
      <trkpt lat="50.09557" lon="7.13375">
        <ele>92.8</ele>
      </trkpt>
      <trkpt lat="50.09554" lon="7.13373">
        <ele>92.9</ele>
      </trkpt>
      <trkpt lat="50.0955" lon="7.13366">
        <ele>93.3</ele>
      </trkpt>
      <trkpt lat="50.09548" lon="7.13357">
        <ele>93.6</ele>
      </trkpt>
      <trkpt lat="50.09547" lon="7.13351">
        <ele>93.8</ele>
      </trkpt>
      <trkpt lat="50.09542" lon="7.13341">
        <ele>94.3</ele>
      </trkpt>
      <trkpt lat="50.09536" lon="7.13334">
        <ele>94.7</ele>
      </trkpt>
      <trkpt lat="50.09528" lon="7.1333">
        <ele>95.0</ele>
      </trkpt>
      <trkpt lat="50.09506" lon="7.13329">
        <ele>95.8</ele>
      </trkpt>
      <trkpt lat="50.09498" lon="7.13331">
        <ele>96.3</ele>
      </trkpt>
      <trkpt lat="50.09486" lon="7.13339">
        <ele>97.9</ele>
      </trkpt>
      <trkpt lat="50.09476" lon="7.13348">
        <ele>99.0</ele>
      </trkpt>
      <trkpt lat="50.09457" lon="7.13372">
        <ele>100.4</ele>
      </trkpt>
      <trkpt lat="50.0944" lon="7.13398">
        <ele>100.8</ele>
      </trkpt>
      <trkpt lat="50.09429" lon="7.13423">
        <ele>100.1</ele>
      </trkpt>
      <trkpt lat="50.09417" lon="7.13456">
        <ele>99.9</ele>
      </trkpt>
      <trkpt lat="50.09415" lon="7.13465">
        <ele>99.9</ele>
      </trkpt>
      <trkpt lat="50.09414" lon="7.13481">
        <ele>99.8</ele>
      </trkpt>
      <trkpt lat="50.09414" lon="7.13502">
        <ele>99.7</ele>
      </trkpt>
      <trkpt lat="50.09433" lon="7.13625">
        <ele>99.2</ele>
      </trkpt>
      <trkpt lat="50.09452" lon="7.13748">
        <ele>98.7</ele>
      </trkpt>
      <trkpt lat="50.09453" lon="7.13764">
        <ele>98.6</ele>
      </trkpt>
      <trkpt lat="50.09453" lon="7.13773">
        <ele>98.6</ele>
      </trkpt>
      <trkpt lat="50.09452" lon="7.13788">
        <ele>98.5</ele>
      </trkpt>
      <trkpt lat="50.09448" lon="7.13803">
        <ele>98.4</ele>
      </trkpt>
      <trkpt lat="50.09445" lon="7.13811">
        <ele>98.4</ele>
      </trkpt>
      <trkpt lat="50.0944" lon="7.13821">
        <ele>98.4</ele>
      </trkpt>
      <trkpt lat="50.09434" lon="7.1383">
        <ele>98.5</ele>
      </trkpt>
      <trkpt lat="50.09423" lon="7.13839">
        <ele>98.7</ele>
      </trkpt>
      <trkpt lat="50.09417" lon="7.13841">
        <ele>98.5</ele>
      </trkpt>
      <trkpt lat="50.09408" lon="7.13843">
        <ele>98.6</ele>
      </trkpt>
      <trkpt lat="50.09397" lon="7.13841">
        <ele>97.9</ele>
      </trkpt>
      <trkpt lat="50.09384" lon="7.13835">
        <ele>96.5</ele>
      </trkpt>
      <trkpt lat="50.09358" lon="7.13821">
        <ele>95.1</ele>
      </trkpt>
      <trkpt lat="50.09309" lon="7.13791">
        <ele>94.1</ele>
      </trkpt>
      <trkpt lat="50.09259" lon="7.1376">
        <ele>94.1</ele>
      </trkpt>
      <trkpt lat="50.09233" lon="7.13746">
        <ele>94.5</ele>
      </trkpt>
      <trkpt lat="50.09195" lon="7.13732">
        <ele>95.3</ele>
      </trkpt>
      <trkpt lat="50.09139" lon="7.1372">
        <ele>95.3</ele>
      </trkpt>
      <trkpt lat="50.09123" lon="7.13716">
        <ele>94.8</ele>
      </trkpt>
      <trkpt lat="50.09095" lon="7.13713">
        <ele>94.0</ele>
      </trkpt>
      <trkpt lat="50.0908" lon="7.13709">
        <ele>93.7</ele>
      </trkpt>
      <trkpt lat="50.09035" lon="7.13686">
        <ele>93.6</ele>
      </trkpt>
      <trkpt lat="50.0898" lon="7.1366">
        <ele>94.1</ele>
      </trkpt>
      <trkpt lat="50.08924" lon="7.13634">
        <ele>96.2</ele>
      </trkpt>
      <trkpt lat="50.08881" lon="7.13616">
        <ele>95.9</ele>
      </trkpt>
      <trkpt lat="50.08872" lon="7.13614">
        <ele>95.9</ele>
      </trkpt>
      <trkpt lat="50.08863" lon="7.13616">
        <ele>96.1</ele>
      </trkpt>
      <trkpt lat="50.08854" lon="7.13622">
        <ele>96.6</ele>
      </trkpt>
      <trkpt lat="50.08827" lon="7.13647">
        <ele>97.9</ele>
      </trkpt>
      <trkpt lat="50.08813" lon="7.13658">
        <ele>98.1</ele>
      </trkpt>
      <trkpt lat="50.08801" lon="7.13665">
        <ele>98.2</ele>
      </trkpt>
      <trkpt lat="50.08777" lon="7.13673">
        <ele>98.2</ele>
      </trkpt>
      <trkpt lat="50.08762" lon="7.13675">
        <ele>97.9</ele>
      </trkpt>
      <trkpt lat="50.08742" lon="7.13672">
        <ele>98.3</ele>
      </trkpt>
      <trkpt lat="50.08729" lon="7.13668">
        <ele>99.6</ele>
      </trkpt>
      <trkpt lat="50.08715" lon="7.13663">
        <ele>101.0</ele>
      </trkpt>
      <trkpt lat="50.08699" lon="7.13654">
        <ele>102.3</ele>
      </trkpt>
      <trkpt lat="50.08684" lon="7.13643">
        <ele>103.2</ele>
      </trkpt>
      <trkpt lat="50.08659" lon="7.13623">
        <ele>104.3</ele>
      </trkpt>
      <trkpt lat="50.08605" lon="7.1357">
        <ele>106.2</ele>
      </trkpt>
      <trkpt lat="50.08587" lon="7.13553">
        <ele>106.7</ele>
      </trkpt>
      <trkpt lat="50.0857" lon="7.13538">
        <ele>106.2</ele>
      </trkpt>
      <trkpt lat="50.08548" lon="7.13523">
        <ele>105.2</ele>
      </trkpt>
      <trkpt lat="50.0853" lon="7.13514">
        <ele>104.5</ele>
      </trkpt>
      <trkpt lat="50.08486" lon="7.13494">
        <ele>104.1</ele>
      </trkpt>
      <trkpt lat="50.08443" lon="7.13474">
        <ele>106.7</ele>
      </trkpt>
      <trkpt lat="50.08416" lon="7.13463">
        <ele>107.9</ele>
      </trkpt>
      <trkpt lat="50.08396" lon="7.13456">
        <ele>108.5</ele>
      </trkpt>
      <trkpt lat="50.08371" lon="7.13449">
        <ele>109.2</ele>
      </trkpt>
      <trkpt lat="50.0831" lon="7.13438">
        <ele>110.7</ele>
      </trkpt>
      <trkpt lat="50.0825" lon="7.13427">
        <ele>110.9</ele>
      </trkpt>
      <trkpt lat="50.08248" lon="7.13435">
        <ele>112.3</ele>
      </trkpt>
      <trkpt lat="50.08244" lon="7.13444">
        <ele>114.1</ele>
      </trkpt>
      <trkpt lat="50.08239" lon="7.13451">
        <ele>115.4</ele>
      </trkpt>
      <trkpt lat="50.08234" lon="7.13452">
        <ele>115.7</ele>
      </trkpt>
      <trkpt lat="50.0822" lon="7.1345">
        <ele>115.7</ele>
      </trkpt>
      <trkpt lat="50.08187" lon="7.13449">
        <ele>116.3</ele>
      </trkpt>
      <trkpt lat="50.08155" lon="7.13452">
        <ele>117.1</ele>
      </trkpt>
      <trkpt lat="50.08132" lon="7.13453">
        <ele>116.7</ele>
      </trkpt>
      <trkpt lat="50.08074" lon="7.13452">
        <ele>115.6</ele>
      </trkpt>
      <trkpt lat="50.08016" lon="7.13451">
        <ele>118.1</ele>
      </trkpt>
      <trkpt lat="50.07989" lon="7.13447">
        <ele>118.1</ele>
      </trkpt>
      <trkpt lat="50.07927" lon="7.13436">
        <ele>116.7</ele>
      </trkpt>
      <trkpt lat="50.07865" lon="7.13424">
        <ele>119.4</ele>
      </trkpt>
      <trkpt lat="50.07804" lon="7.13413">
        <ele>120.8</ele>
      </trkpt>
      <trkpt lat="50.07751" lon="7.1341">
        <ele>121.1</ele>
      </trkpt>
      <trkpt lat="50.07699" lon="7.13406">
        <ele>119.4</ele>
      </trkpt>
      <trkpt lat="50.07648" lon="7.134">
        <ele>116.9</ele>
      </trkpt>
      <trkpt lat="50.07621" lon="7.13395">
        <ele>115.1</ele>
      </trkpt>
      <trkpt lat="50.07621" lon="7.13395">
        <ele>115.1</ele>
      </trkpt>
      <trkpt lat="50.07554" lon="7.13379">
        <ele>111.1</ele>
      </trkpt>
      <trkpt lat="50.07486" lon="7.13363">
        <ele>110.6</ele>
      </trkpt>
      <trkpt lat="50.07419" lon="7.13346">
        <ele>110.2</ele>
      </trkpt>
      <trkpt lat="50.07351" lon="7.1333">
        <ele>113.2</ele>
      </trkpt>
      <trkpt lat="50.07312" lon="7.13321">
        <ele>115.0</ele>
      </trkpt>
      <trkpt lat="50.07279" lon="7.13314">
        <ele>115.4</ele>
      </trkpt>
      <trkpt lat="50.07224" lon="7.13307">
        <ele>116.2</ele>
      </trkpt>
      <trkpt lat="50.07153" lon="7.13306">
        <ele>116.9</ele>
      </trkpt>
      <trkpt lat="50.07075" lon="7.13306">
        <ele>113.7</ele>
      </trkpt>
      <trkpt lat="50.07049" lon="7.13308">
        <ele>113.0</ele>
      </trkpt>
      <trkpt lat="50.06978" lon="7.13311">
        <ele>111.6</ele>
      </trkpt>
      <trkpt lat="50.06974" lon="7.13309">
        <ele>111.4</ele>
      </trkpt>
      <trkpt lat="50.06971" lon="7.13307">
        <ele>111.2</ele>
      </trkpt>
      <trkpt lat="50.0697" lon="7.13304">
        <ele>110.8</ele>
      </trkpt>
      <trkpt lat="50.06965" lon="7.13307">
        <ele>111.3</ele>
      </trkpt>
      <trkpt lat="50.06924" lon="7.13303">
        <ele>111.3</ele>
      </trkpt>
      <trkpt lat="50.06899" lon="7.13304">
        <ele>112.5</ele>
      </trkpt>
      <trkpt lat="50.06853" lon="7.13302">
        <ele>114.8</ele>
      </trkpt>
      <trkpt lat="50.06808" lon="7.13301">
        <ele>115.9</ele>
      </trkpt>
      <trkpt lat="50.0674" lon="7.133">
        <ele>115.8</ele>
      </trkpt>
      <trkpt lat="50.06671" lon="7.133">
        <ele>113.4</ele>
      </trkpt>
      <trkpt lat="50.06644" lon="7.13305">
        <ele>113.7</ele>
      </trkpt>
      <trkpt lat="50.06628" lon="7.13314">
        <ele>114.9</ele>
      </trkpt>
      <trkpt lat="50.06624" lon="7.13315">
        <ele>115.0</ele>
      </trkpt>
      <trkpt lat="50.06622" lon="7.13313">
        <ele>114.7</ele>
      </trkpt>
      <trkpt lat="50.06616" lon="7.13306">
        <ele>113.7</ele>
      </trkpt>
      <trkpt lat="50.06611" lon="7.13302">
        <ele>113.1</ele>
      </trkpt>
      <trkpt lat="50.06605" lon="7.13301">
        <ele>112.9</ele>
      </trkpt>
      <trkpt lat="50.06555" lon="7.13301">
        <ele>113.8</ele>
      </trkpt>
      <trkpt lat="50.06505" lon="7.13302">
        <ele>115.7</ele>
      </trkpt>
      <trkpt lat="50.06505" lon="7.13302">
        <ele>115.7</ele>
      </trkpt>
      <trkpt lat="50.06468" lon="7.13303">
        <ele>116.2</ele>
      </trkpt>
      <trkpt lat="50.06451" lon="7.13305">
        <ele>116.6</ele>
      </trkpt>
      <trkpt lat="50.06429" lon="7.13312">
        <ele>117.8</ele>
      </trkpt>
      <trkpt lat="50.06414" lon="7.13315">
        <ele>118.4</ele>
      </trkpt>
      <trkpt lat="50.06398" lon="7.13316">
        <ele>119.1</ele>
      </trkpt>
      <trkpt lat="50.06342" lon="7.13316">
        <ele>120.8</ele>
      </trkpt>
      <trkpt lat="50.06286" lon="7.13316">
        <ele>119.6</ele>
      </trkpt>
      <trkpt lat="50.06262" lon="7.13314">
        <ele>118.6</ele>
      </trkpt>
      <trkpt lat="50.06201" lon="7.13297">
        <ele>114.8</ele>
      </trkpt>
      <trkpt lat="50.06193" lon="7.13296">
        <ele>114.5</ele>
      </trkpt>
      <trkpt lat="50.06186" lon="7.13299">
        <ele>114.7</ele>
      </trkpt>
      <trkpt lat="50.06181" lon="7.13299">
        <ele>114.6</ele>
      </trkpt>
      <trkpt lat="50.06174" lon="7.13297">
        <ele>114.2</ele>
      </trkpt>
      <trkpt lat="50.06171" lon="7.13272">
        <ele>111.4</ele>
      </trkpt>
      <trkpt lat="50.06165" lon="7.1326">
        <ele>110.1</ele>
      </trkpt>
      <trkpt lat="50.06154" lon="7.13247">
        <ele>109.2</ele>
      </trkpt>
      <trkpt lat="50.06142" lon="7.13247">
        <ele>109.6</ele>
      </trkpt>
      <trkpt lat="50.06137" lon="7.13247">
        <ele>109.8</ele>
      </trkpt>
      <trkpt lat="50.06138" lon="7.13229">
        <ele>107.8</ele>
      </trkpt>
      <trkpt lat="50.06135" lon="7.13224">
        <ele>107.4</ele>
      </trkpt>
      <trkpt lat="50.06094" lon="7.13199">
        <ele>105.7</ele>
      </trkpt>
      <trkpt lat="50.06032" lon="7.13193">
        <ele>106.0</ele>
      </trkpt>
      <trkpt lat="50.05995" lon="7.13183">
        <ele>105.2</ele>
      </trkpt>
      <trkpt lat="50.05995" lon="7.13183">
        <ele>105.2</ele>
      </trkpt>
      <trkpt lat="50.05969" lon="7.13176">
        <ele>102.8</ele>
      </trkpt>
      <trkpt lat="50.0592" lon="7.1316">
        <ele>98.7</ele>
      </trkpt>
      <trkpt lat="50.05871" lon="7.13144">
        <ele>97.7</ele>
      </trkpt>
      <trkpt lat="50.05795" lon="7.1311">
        <ele>97.7</ele>
      </trkpt>
      <trkpt lat="50.05723" lon="7.13073">
        <ele>97.2</ele>
      </trkpt>
      <trkpt lat="50.05669" lon="7.13044">
        <ele>97.0</ele>
      </trkpt>
      <trkpt lat="50.05606" lon="7.13021">
        <ele>95.2</ele>
      </trkpt>
      <trkpt lat="50.05582" lon="7.13015">
        <ele>94.6</ele>
      </trkpt>
      <trkpt lat="50.05567" lon="7.13009">
        <ele>94.9</ele>
      </trkpt>
      <trkpt lat="50.05545" lon="7.13005">
        <ele>95.5</ele>
      </trkpt>
      <trkpt lat="50.05515" lon="7.13002">
        <ele>96.5</ele>
      </trkpt>
      <trkpt lat="50.05464" lon="7.13001">
        <ele>96.6</ele>
      </trkpt>
      <trkpt lat="50.0544" lon="7.13003">
        <ele>96.3</ele>
      </trkpt>
      <trkpt lat="50.05425" lon="7.13007">
        <ele>96.2</ele>
      </trkpt>
      <trkpt lat="50.05392" lon="7.1302">
        <ele>95.1</ele>
      </trkpt>
      <trkpt lat="50.05373" lon="7.13029">
        <ele>94.4</ele>
      </trkpt>
      <trkpt lat="50.05311" lon="7.13062">
        <ele>93.0</ele>
      </trkpt>
      <trkpt lat="50.05293" lon="7.13073">
        <ele>92.8</ele>
      </trkpt>
      <trkpt lat="50.05239" lon="7.13117">
        <ele>92.9</ele>
      </trkpt>
      <trkpt lat="50.05174" lon="7.13186">
        <ele>95.2</ele>
      </trkpt>
      <trkpt lat="50.05158" lon="7.13205">
        <ele>95.5</ele>
      </trkpt>
      <trkpt lat="50.05114" lon="7.1327">
        <ele>96.0</ele>
      </trkpt>
      <trkpt lat="50.05105" lon="7.13288">
        <ele>95.9</ele>
      </trkpt>
      <trkpt lat="50.05093" lon="7.13301">
        <ele>95.6</ele>
      </trkpt>
      <trkpt lat="50.05084" lon="7.13314">
        <ele>95.3</ele>
      </trkpt>
      <trkpt lat="50.05022" lon="7.13411">
        <ele>94.5</ele>
      </trkpt>
      <trkpt lat="50.05008" lon="7.13425">
        <ele>94.4</ele>
      </trkpt>
      <trkpt lat="50.04994" lon="7.13435">
        <ele>94.4</ele>
      </trkpt>
      <trkpt lat="50.04981" lon="7.13446">
        <ele>94.8</ele>
      </trkpt>
      <trkpt lat="50.04971" lon="7.13458">
        <ele>95.4</ele>
      </trkpt>
      <trkpt lat="50.04934" lon="7.13513">
        <ele>97.0</ele>
      </trkpt>
      <trkpt lat="50.04924" lon="7.13533">
        <ele>96.8</ele>
      </trkpt>
      <trkpt lat="50.0491" lon="7.13524">
        <ele>96.5</ele>
      </trkpt>
      <trkpt lat="50.04905" lon="7.13522">
        <ele>96.6</ele>
      </trkpt>
      <trkpt lat="50.049" lon="7.13523">
        <ele>96.7</ele>
      </trkpt>
      <trkpt lat="50.04862" lon="7.13577">
        <ele>97.1</ele>
      </trkpt>
      <trkpt lat="50.04825" lon="7.13631">
        <ele>95.6</ele>
      </trkpt>
      <trkpt lat="50.04789" lon="7.1369">
        <ele>93.0</ele>
      </trkpt>
      <trkpt lat="50.04752" lon="7.1375">
        <ele>92.1</ele>
      </trkpt>
      <trkpt lat="50.04723" lon="7.13806">
        <ele>93.1</ele>
      </trkpt>
      <trkpt lat="50.04694" lon="7.13861">
        <ele>93.5</ele>
      </trkpt>
      <trkpt lat="50.04666" lon="7.13931">
        <ele>92.8</ele>
      </trkpt>
      <trkpt lat="50.04637" lon="7.14001">
        <ele>91.0</ele>
      </trkpt>
      <trkpt lat="50.04592" lon="7.14098">
        <ele>91.7</ele>
      </trkpt>
      <trkpt lat="50.04548" lon="7.14204">
        <ele>94.6</ele>
      </trkpt>
      <trkpt lat="50.04504" lon="7.14293">
        <ele>94.1</ele>
      </trkpt>
      <trkpt lat="50.04476" lon="7.14376">
        <ele>92.4</ele>
      </trkpt>
      <trkpt lat="50.04449" lon="7.14508">
        <ele>94.3</ele>
      </trkpt>
      <trkpt lat="50.04421" lon="7.14641">
        <ele>93.6</ele>
      </trkpt>
      <trkpt lat="50.04393" lon="7.14727">
        <ele>92.7</ele>
      </trkpt>
      <trkpt lat="50.04364" lon="7.14813">
        <ele>92.6</ele>
      </trkpt>
      <trkpt lat="50.0434" lon="7.1493">
        <ele>92.9</ele>
      </trkpt>
      <trkpt lat="50.04315" lon="7.15047">
        <ele>93.4</ele>
      </trkpt>
      <trkpt lat="50.04291" lon="7.15164">
        <ele>94.5</ele>
      </trkpt>
      <trkpt lat="50.04278" lon="7.15242">
        <ele>95.9</ele>
      </trkpt>
      <trkpt lat="50.04265" lon="7.15321">
        <ele>95.8</ele>
      </trkpt>
      <trkpt lat="50.04259" lon="7.1536">
        <ele>95.9</ele>
      </trkpt>
      <trkpt lat="50.04247" lon="7.15461">
        <ele>97.7</ele>
      </trkpt>
      <trkpt lat="50.04233" lon="7.15555">
        <ele>100.3</ele>
      </trkpt>
      <trkpt lat="50.04221" lon="7.15622">
        <ele>100.9</ele>
      </trkpt>
      <trkpt lat="50.042" lon="7.15755">
        <ele>101.3</ele>
      </trkpt>
      <trkpt lat="50.04179" lon="7.15888">
        <ele>101.2</ele>
      </trkpt>
      <trkpt lat="50.04169" lon="7.15947">
        <ele>100.4</ele>
      </trkpt>
      <trkpt lat="50.04143" lon="7.16057">
        <ele>100.6</ele>
      </trkpt>
      <trkpt lat="50.04118" lon="7.16166">
        <ele>100.3</ele>
      </trkpt>
      <trkpt lat="50.04099" lon="7.16263">
        <ele>99.0</ele>
      </trkpt>
      <trkpt lat="50.0408" lon="7.1636">
        <ele>96.6</ele>
      </trkpt>
      <trkpt lat="50.04062" lon="7.16457">
        <ele>98.6</ele>
      </trkpt>
      <trkpt lat="50.04055" lon="7.1651">
        <ele>99.5</ele>
      </trkpt>
      <trkpt lat="50.04048" lon="7.16523">
        <ele>99.4</ele>
      </trkpt>
      <trkpt lat="50.04032" lon="7.16584">
        <ele>99.1</ele>
      </trkpt>
      <trkpt lat="50.0402" lon="7.16634">
        <ele>97.9</ele>
      </trkpt>
      <trkpt lat="50.04011" lon="7.16688">
        <ele>97.1</ele>
      </trkpt>
      <trkpt lat="50.04007" lon="7.16699">
        <ele>96.8</ele>
      </trkpt>
      <trkpt lat="50.03997" lon="7.16725">
        <ele>96.3</ele>
      </trkpt>
      <trkpt lat="50.03969" lon="7.16831">
        <ele>96.0</ele>
      </trkpt>
      <trkpt lat="50.0394" lon="7.16937">
        <ele>95.6</ele>
      </trkpt>
      <trkpt lat="50.03912" lon="7.17043">
        <ele>96.6</ele>
      </trkpt>
      <trkpt lat="50.03893" lon="7.17104">
        <ele>97.8</ele>
      </trkpt>
      <trkpt lat="50.0387" lon="7.17168">
        <ele>99.6</ele>
      </trkpt>
      <trkpt lat="50.03839" lon="7.17247">
        <ele>98.7</ele>
      </trkpt>
      <trkpt lat="50.03789" lon="7.17362">
        <ele>97.1</ele>
      </trkpt>
      <trkpt lat="50.0376" lon="7.17426">
        <ele>97.4</ele>
      </trkpt>
      <trkpt lat="50.03732" lon="7.17485">
        <ele>97.3</ele>
      </trkpt>
      <trkpt lat="50.037" lon="7.17538">
        <ele>100.3</ele>
      </trkpt>
      <trkpt lat="50.03661" lon="7.17595">
        <ele>100.5</ele>
      </trkpt>
      <trkpt lat="50.03626" lon="7.17642">
        <ele>100.5</ele>
      </trkpt>
      <trkpt lat="50.03611" lon="7.17659">
        <ele>99.6</ele>
      </trkpt>
      <trkpt lat="50.03588" lon="7.17682">
        <ele>99.3</ele>
      </trkpt>
      <trkpt lat="50.03536" lon="7.17729">
        <ele>101.9</ele>
      </trkpt>
      <trkpt lat="50.03467" lon="7.17784">
        <ele>100.3</ele>
      </trkpt>
      <trkpt lat="50.0345" lon="7.17801">
        <ele>99.7</ele>
      </trkpt>
      <trkpt lat="50.03445" lon="7.17805">
        <ele>99.5</ele>
      </trkpt>
      <trkpt lat="50.03399" lon="7.17831">
        <ele>96.9</ele>
      </trkpt>
      <trkpt lat="50.03353" lon="7.17857">
        <ele>97.2</ele>
      </trkpt>
      <trkpt lat="50.03283" lon="7.17894">
        <ele>103.2</ele>
      </trkpt>
      <trkpt lat="50.03213" lon="7.17932">
        <ele>104.3</ele>
      </trkpt>
      <trkpt lat="50.03161" lon="7.17956">
        <ele>102.3</ele>
      </trkpt>
      <trkpt lat="50.03164" lon="7.1797">
        <ele>101.6</ele>
      </trkpt>
      <trkpt lat="50.03163" lon="7.17973">
        <ele>101.4</ele>
      </trkpt>
      <trkpt lat="50.03162" lon="7.17976">
        <ele>101.2</ele>
      </trkpt>
      <trkpt lat="50.03119" lon="7.17996">
        <ele>97.9</ele>
      </trkpt>
      <trkpt lat="50.03068" lon="7.18016">
        <ele>97.9</ele>
      </trkpt>
      <trkpt lat="50.03003" lon="7.18029">
        <ele>100.3</ele>
      </trkpt>
      <trkpt lat="50.02986" lon="7.18038">
        <ele>100.4</ele>
      </trkpt>
      <trkpt lat="50.02979" lon="7.1804">
        <ele>100.3</ele>
      </trkpt>
      <trkpt lat="50.0297" lon="7.1804">
        <ele>100.0</ele>
      </trkpt>
      <trkpt lat="50.0294" lon="7.18038">
        <ele>99.1</ele>
      </trkpt>
      <trkpt lat="50.02899" lon="7.18044">
        <ele>98.7</ele>
      </trkpt>
      <trkpt lat="50.0285" lon="7.18056">
        <ele>99.3</ele>
      </trkpt>
      <trkpt lat="50.02801" lon="7.18069">
        <ele>99.6</ele>
      </trkpt>
      <trkpt lat="50.02774" lon="7.18077">
        <ele>99.8</ele>
      </trkpt>
      <trkpt lat="50.02767" lon="7.18089">
        <ele>100.2</ele>
      </trkpt>
      <trkpt lat="50.02766" lon="7.18091">
        <ele>100.3</ele>
      </trkpt>
      <trkpt lat="50.0276" lon="7.18099">
        <ele>100.6</ele>
      </trkpt>
      <trkpt lat="50.02757" lon="7.18107">
        <ele>100.9</ele>
      </trkpt>
      <trkpt lat="50.02755" lon="7.18117">
        <ele>101.2</ele>
      </trkpt>
      <trkpt lat="50.02753" lon="7.18116">
        <ele>101.2</ele>
      </trkpt>
      <trkpt lat="50.02748" lon="7.18117">
        <ele>101.1</ele>
      </trkpt>
      <trkpt lat="50.02712" lon="7.18125">
        <ele>100.1</ele>
      </trkpt>
      <trkpt lat="50.02674" lon="7.18131">
        <ele>99.0</ele>
      </trkpt>
      <trkpt lat="50.02674" lon="7.18122">
        <ele>98.7</ele>
      </trkpt>
      <trkpt lat="50.02678" lon="7.18115">
        <ele>98.5</ele>
      </trkpt>
      <trkpt lat="50.02677" lon="7.18109">
        <ele>98.3</ele>
      </trkpt>
      <trkpt lat="50.02676" lon="7.18105">
        <ele>98.1</ele>
      </trkpt>
    </trkseg>
  </trk>
</gpx>
