<?xml version="1.0" encoding="UTF-8"?>
<gpx xmlns:gpxdata="http://www.cluetrust.com/XML/GPXDATA/1/0" xmlns:xsi="http://www.w3.org/2001/XMLSchema-instance" xmlns="http://www.topografix.com/GPX/1/1" version="1.1" creator="http://ridewithgps.com/" xsi:schemaLocation="http://www.topografix.com/GPX/1/1 http://www.topografix.com/GPX/1/1/gpx.xsd http://www.cluetrust.com/XML/GPXDATA/1/0 http://www.cluetrust.com/Schemas/gpxdata10.xsd">
  <metadata>
    <name>Trier - Saarburg (loop) 50km ENG 2026</name>
    <link href="https://ridewithgps.com/routes/56384927">
      <text>Trier - Saarburg (loop) 50km ENG 2026</text>
    </link>
    <time>2026-07-29T08:52:43Z</time>
  </metadata>
  <trk>
    <name>Trier - Saarburg (loop) 50km ENG 2026</name>
    <trkseg>
      <trkpt lat="49.7674" lon="6.63812">
        <ele>128.4</ele>
      </trkpt>
      <trkpt lat="49.76739" lon="6.6381">
        <ele>128.3</ele>
      </trkpt>
      <trkpt lat="49.76725" lon="6.63791">
        <ele>128.0</ele>
      </trkpt>
      <trkpt lat="49.76675" lon="6.63726">
        <ele>127.8</ele>
      </trkpt>
      <trkpt lat="49.7663" lon="6.63678">
        <ele>128.8</ele>
      </trkpt>
      <trkpt lat="49.76626" lon="6.6366">
        <ele>128.7</ele>
      </trkpt>
      <trkpt lat="49.76604" lon="6.6361">
        <ele>127.3</ele>
      </trkpt>
      <trkpt lat="49.7657" lon="6.6356">
        <ele>124.3</ele>
      </trkpt>
      <trkpt lat="49.76535" lon="6.63511">
        <ele>122.6</ele>
      </trkpt>
      <trkpt lat="49.76505" lon="6.63474">
        <ele>120.8</ele>
      </trkpt>
      <trkpt lat="49.76475" lon="6.63441">
        <ele>122.0</ele>
      </trkpt>
      <trkpt lat="49.76459" lon="6.63428">
        <ele>123.2</ele>
      </trkpt>
      <trkpt lat="49.76407" lon="6.63396">
        <ele>128.1</ele>
      </trkpt>
      <trkpt lat="49.76373" lon="6.63381">
        <ele>129.5</ele>
      </trkpt>
      <trkpt lat="49.76355" lon="6.63366">
        <ele>130.0</ele>
      </trkpt>
      <trkpt lat="49.76337" lon="6.63347">
        <ele>130.3</ele>
      </trkpt>
      <trkpt lat="49.76323" lon="6.63332">
        <ele>130.2</ele>
      </trkpt>
      <trkpt lat="49.76309" lon="6.63321">
        <ele>130.2</ele>
      </trkpt>
      <trkpt lat="49.76294" lon="6.6331">
        <ele>130.1</ele>
      </trkpt>
      <trkpt lat="49.76275" lon="6.63301">
        <ele>130.1</ele>
      </trkpt>
      <trkpt lat="49.76256" lon="6.63293">
        <ele>130.0</ele>
      </trkpt>
      <trkpt lat="49.76199" lon="6.63277">
        <ele>129.7</ele>
      </trkpt>
      <trkpt lat="49.76181" lon="6.63272">
        <ele>129.7</ele>
      </trkpt>
      <trkpt lat="49.76163" lon="6.63265">
        <ele>129.6</ele>
      </trkpt>
      <trkpt lat="49.76108" lon="6.63235">
        <ele>129.6</ele>
      </trkpt>
      <trkpt lat="49.76053" lon="6.63201">
        <ele>128.0</ele>
      </trkpt>
      <trkpt lat="49.76" lon="6.63161">
        <ele>128.0</ele>
      </trkpt>
      <trkpt lat="49.75942" lon="6.63112">
        <ele>130.8</ele>
      </trkpt>
      <trkpt lat="49.75884" lon="6.63063">
        <ele>129.6</ele>
      </trkpt>
      <trkpt lat="49.75826" lon="6.63014">
        <ele>127.1</ele>
      </trkpt>
      <trkpt lat="49.758" lon="6.62993">
        <ele>128.6</ele>
      </trkpt>
      <trkpt lat="49.75759" lon="6.62966">
        <ele>129.7</ele>
      </trkpt>
      <trkpt lat="49.75717" lon="6.62941">
        <ele>129.2</ele>
      </trkpt>
      <trkpt lat="49.75639" lon="6.62906">
        <ele>131.4</ele>
      </trkpt>
      <trkpt lat="49.75633" lon="6.62902">
        <ele>131.5</ele>
      </trkpt>
      <trkpt lat="49.7563" lon="6.629">
        <ele>131.5</ele>
      </trkpt>
      <trkpt lat="49.75616" lon="6.62896">
        <ele>131.7</ele>
      </trkpt>
      <trkpt lat="49.75596" lon="6.6288">
        <ele>131.8</ele>
      </trkpt>
      <trkpt lat="49.75568" lon="6.62869">
        <ele>131.7</ele>
      </trkpt>
      <trkpt lat="49.75504" lon="6.62847">
        <ele>129.3</ele>
      </trkpt>
      <trkpt lat="49.75447" lon="6.62826">
        <ele>128.9</ele>
      </trkpt>
      <trkpt lat="49.75412" lon="6.62813">
        <ele>129.4</ele>
      </trkpt>
      <trkpt lat="49.75392" lon="6.62807">
        <ele>129.6</ele>
      </trkpt>
      <trkpt lat="49.75328" lon="6.62794">
        <ele>131.1</ele>
      </trkpt>
      <trkpt lat="49.75294" lon="6.62789">
        <ele>131.5</ele>
      </trkpt>
      <trkpt lat="49.75277" lon="6.62788">
        <ele>131.7</ele>
      </trkpt>
      <trkpt lat="49.75255" lon="6.62791">
        <ele>131.9</ele>
      </trkpt>
      <trkpt lat="49.75218" lon="6.62793">
        <ele>131.8</ele>
      </trkpt>
      <trkpt lat="49.75174" lon="6.62785">
        <ele>131.3</ele>
      </trkpt>
      <trkpt lat="49.75148" lon="6.62783">
        <ele>131.6</ele>
      </trkpt>
      <trkpt lat="49.7509" lon="6.62774">
        <ele>132.7</ele>
      </trkpt>
      <trkpt lat="49.75019" lon="6.6276">
        <ele>128.7</ele>
      </trkpt>
      <trkpt lat="49.74957" lon="6.62752">
        <ele>128.7</ele>
      </trkpt>
      <trkpt lat="49.74875" lon="6.62746">
        <ele>129.8</ele>
      </trkpt>
      <trkpt lat="49.74792" lon="6.62745">
        <ele>130.0</ele>
      </trkpt>
      <trkpt lat="49.74715" lon="6.62752">
        <ele>130.1</ele>
      </trkpt>
      <trkpt lat="49.74639" lon="6.62759">
        <ele>130.3</ele>
      </trkpt>
      <trkpt lat="49.74563" lon="6.62766">
        <ele>129.5</ele>
      </trkpt>
      <trkpt lat="49.74531" lon="6.62772">
        <ele>128.2</ele>
      </trkpt>
      <trkpt lat="49.7448" lon="6.62778">
        <ele>126.2</ele>
      </trkpt>
      <trkpt lat="49.74429" lon="6.62784">
        <ele>124.7</ele>
      </trkpt>
      <trkpt lat="49.74429" lon="6.62784">
        <ele>124.7</ele>
      </trkpt>
      <trkpt lat="49.74397" lon="6.62788">
        <ele>125.6</ele>
      </trkpt>
      <trkpt lat="49.74347" lon="6.62792">
        <ele>128.4</ele>
      </trkpt>
      <trkpt lat="49.74296" lon="6.62796">
        <ele>128.8</ele>
      </trkpt>
      <trkpt lat="49.74237" lon="6.62803">
        <ele>129.0</ele>
      </trkpt>
      <trkpt lat="49.74179" lon="6.62809">
        <ele>131.1</ele>
      </trkpt>
      <trkpt lat="49.74094" lon="6.62816">
        <ele>132.0</ele>
      </trkpt>
      <trkpt lat="49.74056" lon="6.62817">
        <ele>130.3</ele>
      </trkpt>
      <trkpt lat="49.74" lon="6.6282">
        <ele>127.2</ele>
      </trkpt>
      <trkpt lat="49.73954" lon="6.6282">
        <ele>125.6</ele>
      </trkpt>
      <trkpt lat="49.73907" lon="6.6282">
        <ele>124.6</ele>
      </trkpt>
      <trkpt lat="49.73846" lon="6.62816">
        <ele>126.3</ele>
      </trkpt>
      <trkpt lat="49.73786" lon="6.62813">
        <ele>128.2</ele>
      </trkpt>
      <trkpt lat="49.73769" lon="6.6281">
        <ele>128.6</ele>
      </trkpt>
      <trkpt lat="49.73738" lon="6.62803">
        <ele>128.8</ele>
      </trkpt>
      <trkpt lat="49.73682" lon="6.62797">
        <ele>128.0</ele>
      </trkpt>
      <trkpt lat="49.73615" lon="6.62784">
        <ele>128.5</ele>
      </trkpt>
      <trkpt lat="49.73549" lon="6.62771">
        <ele>129.5</ele>
      </trkpt>
      <trkpt lat="49.73483" lon="6.62759">
        <ele>131.2</ele>
      </trkpt>
      <trkpt lat="49.73394" lon="6.62737">
        <ele>133.6</ele>
      </trkpt>
      <trkpt lat="49.73306" lon="6.62715">
        <ele>134.8</ele>
      </trkpt>
      <trkpt lat="49.73229" lon="6.6269">
        <ele>132.5</ele>
      </trkpt>
      <trkpt lat="49.73152" lon="6.62666">
        <ele>133.7</ele>
      </trkpt>
      <trkpt lat="49.7308" lon="6.62631">
        <ele>129.7</ele>
      </trkpt>
      <trkpt lat="49.73035" lon="6.62604">
        <ele>129.0</ele>
      </trkpt>
      <trkpt lat="49.7299" lon="6.62577">
        <ele>129.4</ele>
      </trkpt>
      <trkpt lat="49.7296" lon="6.62563">
        <ele>131.0</ele>
      </trkpt>
      <trkpt lat="49.72936" lon="6.62557">
        <ele>132.6</ele>
      </trkpt>
      <trkpt lat="49.72909" lon="6.62558">
        <ele>134.2</ele>
      </trkpt>
      <trkpt lat="49.72887" lon="6.62562">
        <ele>134.5</ele>
      </trkpt>
      <trkpt lat="49.72876" lon="6.62562">
        <ele>134.6</ele>
      </trkpt>
      <trkpt lat="49.72857" lon="6.6256">
        <ele>134.7</ele>
      </trkpt>
      <trkpt lat="49.72835" lon="6.62542">
        <ele>134.0</ele>
      </trkpt>
      <trkpt lat="49.72826" lon="6.62542">
        <ele>134.4</ele>
      </trkpt>
      <trkpt lat="49.72808" lon="6.62546">
        <ele>135.5</ele>
      </trkpt>
      <trkpt lat="49.72798" lon="6.62541">
        <ele>135.6</ele>
      </trkpt>
      <trkpt lat="49.72781" lon="6.62533">
        <ele>135.8</ele>
      </trkpt>
      <trkpt lat="49.72756" lon="6.6251">
        <ele>134.8</ele>
      </trkpt>
      <trkpt lat="49.72731" lon="6.62472">
        <ele>134.7</ele>
      </trkpt>
      <trkpt lat="49.72712" lon="6.62429">
        <ele>133.3</ele>
      </trkpt>
      <trkpt lat="49.72691" lon="6.62395">
        <ele>132.7</ele>
      </trkpt>
      <trkpt lat="49.7268" lon="6.62382">
        <ele>133.2</ele>
      </trkpt>
      <trkpt lat="49.72662" lon="6.62365">
        <ele>134.2</ele>
      </trkpt>
      <trkpt lat="49.72636" lon="6.62343">
        <ele>134.7</ele>
      </trkpt>
      <trkpt lat="49.72557" lon="6.62285">
        <ele>136.7</ele>
      </trkpt>
      <trkpt lat="49.72517" lon="6.62245">
        <ele>137.5</ele>
      </trkpt>
      <trkpt lat="49.72474" lon="6.62189">
        <ele>138.2</ele>
      </trkpt>
      <trkpt lat="49.7243" lon="6.62132">
        <ele>137.1</ele>
      </trkpt>
      <trkpt lat="49.72371" lon="6.62051">
        <ele>136.4</ele>
      </trkpt>
      <trkpt lat="49.72337" lon="6.61985">
        <ele>132.1</ele>
      </trkpt>
      <trkpt lat="49.7233" lon="6.61973">
        <ele>131.9</ele>
      </trkpt>
      <trkpt lat="49.72302" lon="6.61938">
        <ele>133.1</ele>
      </trkpt>
      <trkpt lat="49.72289" lon="6.61924">
        <ele>133.4</ele>
      </trkpt>
      <trkpt lat="49.72253" lon="6.61881">
        <ele>134.1</ele>
      </trkpt>
      <trkpt lat="49.72234" lon="6.61852">
        <ele>136.2</ele>
      </trkpt>
      <trkpt lat="49.72173" lon="6.61756">
        <ele>138.5</ele>
      </trkpt>
      <trkpt lat="49.72112" lon="6.61661">
        <ele>139.0</ele>
      </trkpt>
      <trkpt lat="49.72053" lon="6.61572">
        <ele>148.7</ele>
      </trkpt>
      <trkpt lat="49.71996" lon="6.61482">
        <ele>139.7</ele>
      </trkpt>
      <trkpt lat="49.71939" lon="6.61392">
        <ele>138.9</ele>
      </trkpt>
      <trkpt lat="49.71903" lon="6.61333">
        <ele>141.4</ele>
      </trkpt>
      <trkpt lat="49.71868" lon="6.61274">
        <ele>145.1</ele>
      </trkpt>
      <trkpt lat="49.7183" lon="6.61197">
        <ele>143.9</ele>
      </trkpt>
      <trkpt lat="49.71793" lon="6.61118">
        <ele>142.3</ele>
      </trkpt>
      <trkpt lat="49.71762" lon="6.61051">
        <ele>138.1</ele>
      </trkpt>
      <trkpt lat="49.71731" lon="6.60983">
        <ele>142.8</ele>
      </trkpt>
      <trkpt lat="49.71698" lon="6.60878">
        <ele>143.6</ele>
      </trkpt>
      <trkpt lat="49.71666" lon="6.60773">
        <ele>139.9</ele>
      </trkpt>
      <trkpt lat="49.71633" lon="6.60668">
        <ele>139.4</ele>
      </trkpt>
      <trkpt lat="49.71601" lon="6.60563">
        <ele>134.8</ele>
      </trkpt>
      <trkpt lat="49.71568" lon="6.60458">
        <ele>132.1</ele>
      </trkpt>
      <trkpt lat="49.71532" lon="6.60344">
        <ele>129.8</ele>
      </trkpt>
      <trkpt lat="49.71496" lon="6.60231">
        <ele>131.8</ele>
      </trkpt>
      <trkpt lat="49.71461" lon="6.60117">
        <ele>132.9</ele>
      </trkpt>
      <trkpt lat="49.71425" lon="6.60004">
        <ele>132.5</ele>
      </trkpt>
      <trkpt lat="49.71389" lon="6.5989">
        <ele>131.6</ele>
      </trkpt>
      <trkpt lat="49.71353" lon="6.59777">
        <ele>135.0</ele>
      </trkpt>
      <trkpt lat="49.71317" lon="6.59663">
        <ele>134.4</ele>
      </trkpt>
      <trkpt lat="49.71281" lon="6.5955">
        <ele>130.6</ele>
      </trkpt>
      <trkpt lat="49.71245" lon="6.59436">
        <ele>127.3</ele>
      </trkpt>
      <trkpt lat="49.71211" lon="6.59328">
        <ele>123.2</ele>
      </trkpt>
      <trkpt lat="49.71178" lon="6.59219">
        <ele>133.3</ele>
      </trkpt>
      <trkpt lat="49.71145" lon="6.5911">
        <ele>130.9</ele>
      </trkpt>
      <trkpt lat="49.71111" lon="6.59001">
        <ele>129.0</ele>
      </trkpt>
      <trkpt lat="49.71078" lon="6.58893">
        <ele>132.1</ele>
      </trkpt>
      <trkpt lat="49.71045" lon="6.58784">
        <ele>133.9</ele>
      </trkpt>
      <trkpt lat="49.71012" lon="6.58675">
        <ele>131.2</ele>
      </trkpt>
      <trkpt lat="49.70973" lon="6.58551">
        <ele>132.5</ele>
      </trkpt>
      <trkpt lat="49.70934" lon="6.58427">
        <ele>135.2</ele>
      </trkpt>
      <trkpt lat="49.70895" lon="6.58302">
        <ele>127.6</ele>
      </trkpt>
      <trkpt lat="49.70856" lon="6.58178">
        <ele>130.8</ele>
      </trkpt>
      <trkpt lat="49.70827" lon="6.58089">
        <ele>133.8</ele>
      </trkpt>
      <trkpt lat="49.70798" lon="6.58001">
        <ele>135.4</ele>
      </trkpt>
      <trkpt lat="49.7076" lon="6.57898">
        <ele>131.4</ele>
      </trkpt>
      <trkpt lat="49.70748" lon="6.57889">
        <ele>131.7</ele>
      </trkpt>
      <trkpt lat="49.70705" lon="6.57869">
        <ele>131.2</ele>
      </trkpt>
      <trkpt lat="49.70695" lon="6.57859">
        <ele>131.1</ele>
      </trkpt>
      <trkpt lat="49.70661" lon="6.57795">
        <ele>129.6</ele>
      </trkpt>
      <trkpt lat="49.70627" lon="6.57731">
        <ele>127.8</ele>
      </trkpt>
      <trkpt lat="49.70586" lon="6.57665">
        <ele>127.9</ele>
      </trkpt>
      <trkpt lat="49.70545" lon="6.57599">
        <ele>130.3</ele>
      </trkpt>
      <trkpt lat="49.7057" lon="6.57565">
        <ele>130.2</ele>
      </trkpt>
      <trkpt lat="49.70573" lon="6.57544">
        <ele>130.2</ele>
      </trkpt>
      <trkpt lat="49.70573" lon="6.57535">
        <ele>130.2</ele>
      </trkpt>
      <trkpt lat="49.70568" lon="6.57523">
        <ele>130.3</ele>
      </trkpt>
      <trkpt lat="49.70534" lon="6.57475">
        <ele>130.5</ele>
      </trkpt>
      <trkpt lat="49.70501" lon="6.57428">
        <ele>130.2</ele>
      </trkpt>
      <trkpt lat="49.70469" lon="6.57389">
        <ele>130.5</ele>
      </trkpt>
      <trkpt lat="49.70401" lon="6.57308">
        <ele>127.5</ele>
      </trkpt>
      <trkpt lat="49.7033" lon="6.57231">
        <ele>124.9</ele>
      </trkpt>
      <trkpt lat="49.70288" lon="6.57194">
        <ele>122.6</ele>
      </trkpt>
      <trkpt lat="49.70247" lon="6.57157">
        <ele>126.4</ele>
      </trkpt>
      <trkpt lat="49.70212" lon="6.57128">
        <ele>125.4</ele>
      </trkpt>
      <trkpt lat="49.70174" lon="6.57104">
        <ele>128.8</ele>
      </trkpt>
      <trkpt lat="49.70133" lon="6.57082">
        <ele>131.4</ele>
      </trkpt>
      <trkpt lat="49.70082" lon="6.57061">
        <ele>135.2</ele>
      </trkpt>
      <trkpt lat="49.70031" lon="6.57048">
        <ele>130.5</ele>
      </trkpt>
      <trkpt lat="49.69996" lon="6.5704">
        <ele>127.0</ele>
      </trkpt>
      <trkpt lat="49.69937" lon="6.57036">
        <ele>129.8</ele>
      </trkpt>
      <trkpt lat="49.69874" lon="6.57036">
        <ele>130.9</ele>
      </trkpt>
      <trkpt lat="49.69868" lon="6.5704">
        <ele>131.0</ele>
      </trkpt>
      <trkpt lat="49.69844" lon="6.57046">
        <ele>131.1</ele>
      </trkpt>
      <trkpt lat="49.69841" lon="6.5705">
        <ele>131.2</ele>
      </trkpt>
      <trkpt lat="49.69829" lon="6.57061">
        <ele>131.5</ele>
      </trkpt>
      <trkpt lat="49.69826" lon="6.57062">
        <ele>131.6</ele>
      </trkpt>
      <trkpt lat="49.69822" lon="6.57061">
        <ele>131.5</ele>
      </trkpt>
      <trkpt lat="49.6981" lon="6.57047">
        <ele>131.5</ele>
      </trkpt>
      <trkpt lat="49.69809" lon="6.5696">
        <ele>131.5</ele>
      </trkpt>
      <trkpt lat="49.69807" lon="6.56872">
        <ele>131.5</ele>
      </trkpt>
      <trkpt lat="49.69807" lon="6.56858">
        <ele>131.5</ele>
      </trkpt>
      <trkpt lat="49.69805" lon="6.56838">
        <ele>131.5</ele>
      </trkpt>
      <trkpt lat="49.69794" lon="6.56784">
        <ele>132.4</ele>
      </trkpt>
      <trkpt lat="49.69785" lon="6.56789">
        <ele>132.2</ele>
      </trkpt>
      <trkpt lat="49.69783" lon="6.56796">
        <ele>132.0</ele>
      </trkpt>
      <trkpt lat="49.69782" lon="6.56805">
        <ele>131.9</ele>
      </trkpt>
      <trkpt lat="49.69792" lon="6.56861">
        <ele>130.7</ele>
      </trkpt>
      <trkpt lat="49.69794" lon="6.56884">
        <ele>130.0</ele>
      </trkpt>
      <trkpt lat="49.69785" lon="6.56885">
        <ele>129.8</ele>
      </trkpt>
      <trkpt lat="49.69702" lon="6.56877">
        <ele>128.6</ele>
      </trkpt>
      <trkpt lat="49.69639" lon="6.56866">
        <ele>129.3</ele>
      </trkpt>
      <trkpt lat="49.69599" lon="6.56856">
        <ele>131.1</ele>
      </trkpt>
      <trkpt lat="49.69546" lon="6.56839">
        <ele>132.3</ele>
      </trkpt>
      <trkpt lat="49.69538" lon="6.56791">
        <ele>133.3</ele>
      </trkpt>
      <trkpt lat="49.69527" lon="6.56783">
        <ele>133.7</ele>
      </trkpt>
      <trkpt lat="49.69477" lon="6.56759">
        <ele>134.0</ele>
      </trkpt>
      <trkpt lat="49.69407" lon="6.56716">
        <ele>132.8</ele>
      </trkpt>
      <trkpt lat="49.69354" lon="6.56682">
        <ele>132.1</ele>
      </trkpt>
      <trkpt lat="49.69302" lon="6.56648">
        <ele>132.5</ele>
      </trkpt>
      <trkpt lat="49.69244" lon="6.56619">
        <ele>132.9</ele>
      </trkpt>
      <trkpt lat="49.69199" lon="6.56589">
        <ele>131.8</ele>
      </trkpt>
      <trkpt lat="49.69178" lon="6.56579">
        <ele>131.3</ele>
      </trkpt>
      <trkpt lat="49.69171" lon="6.56571">
        <ele>131.1</ele>
      </trkpt>
      <trkpt lat="49.6917" lon="6.56557">
        <ele>131.1</ele>
      </trkpt>
      <trkpt lat="49.6917" lon="6.56539">
        <ele>131.1</ele>
      </trkpt>
      <trkpt lat="49.69165" lon="6.56528">
        <ele>131.0</ele>
      </trkpt>
      <trkpt lat="49.69155" lon="6.56522">
        <ele>131.0</ele>
      </trkpt>
      <trkpt lat="49.69085" lon="6.56504">
        <ele>131.0</ele>
      </trkpt>
      <trkpt lat="49.69015" lon="6.56485">
        <ele>130.2</ele>
      </trkpt>
      <trkpt lat="49.68946" lon="6.56467">
        <ele>131.6</ele>
      </trkpt>
      <trkpt lat="49.68876" lon="6.56448">
        <ele>132.8</ele>
      </trkpt>
      <trkpt lat="49.68863" lon="6.56452">
        <ele>132.8</ele>
      </trkpt>
      <trkpt lat="49.68847" lon="6.56468">
        <ele>132.9</ele>
      </trkpt>
      <trkpt lat="49.68844" lon="6.56484">
        <ele>132.9</ele>
      </trkpt>
      <trkpt lat="49.68844" lon="6.56498">
        <ele>132.9</ele>
      </trkpt>
      <trkpt lat="49.68846" lon="6.5651">
        <ele>132.8</ele>
      </trkpt>
      <trkpt lat="49.68849" lon="6.56526">
        <ele>132.8</ele>
      </trkpt>
      <trkpt lat="49.6885" lon="6.56538">
        <ele>132.8</ele>
      </trkpt>
      <trkpt lat="49.68847" lon="6.56549">
        <ele>132.8</ele>
      </trkpt>
      <trkpt lat="49.68842" lon="6.56555">
        <ele>132.9</ele>
      </trkpt>
      <trkpt lat="49.68836" lon="6.56558">
        <ele>133.0</ele>
      </trkpt>
      <trkpt lat="49.68774" lon="6.56557">
        <ele>133.7</ele>
      </trkpt>
      <trkpt lat="49.68697" lon="6.56563">
        <ele>131.9</ele>
      </trkpt>
      <trkpt lat="49.68634" lon="6.5657">
        <ele>132.1</ele>
      </trkpt>
      <trkpt lat="49.68559" lon="6.56574">
        <ele>135.1</ele>
      </trkpt>
      <trkpt lat="49.68484" lon="6.56577">
        <ele>135.8</ele>
      </trkpt>
      <trkpt lat="49.68433" lon="6.56575">
        <ele>135.4</ele>
      </trkpt>
      <trkpt lat="49.68382" lon="6.56573">
        <ele>135.9</ele>
      </trkpt>
      <trkpt lat="49.68312" lon="6.56565">
        <ele>136.3</ele>
      </trkpt>
      <trkpt lat="49.68265" lon="6.56555">
        <ele>135.3</ele>
      </trkpt>
      <trkpt lat="49.68218" lon="6.56545">
        <ele>134.0</ele>
      </trkpt>
      <trkpt lat="49.68132" lon="6.56513">
        <ele>132.6</ele>
      </trkpt>
      <trkpt lat="49.68068" lon="6.56482">
        <ele>132.9</ele>
      </trkpt>
      <trkpt lat="49.68005" lon="6.56452">
        <ele>134.0</ele>
      </trkpt>
      <trkpt lat="49.6793" lon="6.5641">
        <ele>133.3</ele>
      </trkpt>
      <trkpt lat="49.67855" lon="6.56368">
        <ele>134.2</ele>
      </trkpt>
      <trkpt lat="49.67809" lon="6.56339">
        <ele>134.0</ele>
      </trkpt>
      <trkpt lat="49.67764" lon="6.56309">
        <ele>134.0</ele>
      </trkpt>
      <trkpt lat="49.67691" lon="6.56256">
        <ele>134.7</ele>
      </trkpt>
      <trkpt lat="49.67618" lon="6.56203">
        <ele>135.5</ele>
      </trkpt>
      <trkpt lat="49.676" lon="6.56187">
        <ele>135.7</ele>
      </trkpt>
      <trkpt lat="49.67577" lon="6.56153">
        <ele>136.4</ele>
      </trkpt>
      <trkpt lat="49.67539" lon="6.56107">
        <ele>137.2</ele>
      </trkpt>
      <trkpt lat="49.67479" lon="6.56056">
        <ele>137.4</ele>
      </trkpt>
      <trkpt lat="49.67419" lon="6.56004">
        <ele>137.0</ele>
      </trkpt>
      <trkpt lat="49.67359" lon="6.55953">
        <ele>137.6</ele>
      </trkpt>
      <trkpt lat="49.67301" lon="6.55908">
        <ele>137.1</ele>
      </trkpt>
      <trkpt lat="49.67289" lon="6.55902">
        <ele>137.3</ele>
      </trkpt>
      <trkpt lat="49.67285" lon="6.55891">
        <ele>138.2</ele>
      </trkpt>
      <trkpt lat="49.6729" lon="6.55867">
        <ele>140.7</ele>
      </trkpt>
      <trkpt lat="49.67228" lon="6.55822">
        <ele>140.4</ele>
      </trkpt>
      <trkpt lat="49.67167" lon="6.55777">
        <ele>139.4</ele>
      </trkpt>
      <trkpt lat="49.67095" lon="6.55717">
        <ele>142.0</ele>
      </trkpt>
      <trkpt lat="49.67024" lon="6.55657">
        <ele>142.2</ele>
      </trkpt>
      <trkpt lat="49.66953" lon="6.55598">
        <ele>142.2</ele>
      </trkpt>
      <trkpt lat="49.66905" lon="6.55571">
        <ele>139.4</ele>
      </trkpt>
      <trkpt lat="49.66829" lon="6.55536">
        <ele>139.7</ele>
      </trkpt>
      <trkpt lat="49.66778" lon="6.55525">
        <ele>141.3</ele>
      </trkpt>
      <trkpt lat="49.66727" lon="6.55514">
        <ele>141.5</ele>
      </trkpt>
      <trkpt lat="49.66682" lon="6.55499">
        <ele>140.4</ele>
      </trkpt>
      <trkpt lat="49.66638" lon="6.55485">
        <ele>143.5</ele>
      </trkpt>
      <trkpt lat="49.66583" lon="6.55474">
        <ele>146.2</ele>
      </trkpt>
      <trkpt lat="49.66514" lon="6.55474">
        <ele>146.1</ele>
      </trkpt>
      <trkpt lat="49.66446" lon="6.55474">
        <ele>148.4</ele>
      </trkpt>
      <trkpt lat="49.66387" lon="6.5548">
        <ele>149.0</ele>
      </trkpt>
      <trkpt lat="49.66325" lon="6.55491">
        <ele>148.3</ele>
      </trkpt>
      <trkpt lat="49.6625" lon="6.55519">
        <ele>145.9</ele>
      </trkpt>
      <trkpt lat="49.66205" lon="6.55537">
        <ele>145.5</ele>
      </trkpt>
      <trkpt lat="49.66151" lon="6.55577">
        <ele>138.0</ele>
      </trkpt>
      <trkpt lat="49.66127" lon="6.55604">
        <ele>137.4</ele>
      </trkpt>
      <trkpt lat="49.6611" lon="6.55625">
        <ele>137.1</ele>
      </trkpt>
      <trkpt lat="49.66097" lon="6.55645">
        <ele>135.9</ele>
      </trkpt>
      <trkpt lat="49.66081" lon="6.55674">
        <ele>134.1</ele>
      </trkpt>
      <trkpt lat="49.66044" lon="6.55725">
        <ele>135.9</ele>
      </trkpt>
      <trkpt lat="49.66007" lon="6.55775">
        <ele>134.7</ele>
      </trkpt>
      <trkpt lat="49.65968" lon="6.55824">
        <ele>141.3</ele>
      </trkpt>
      <trkpt lat="49.65929" lon="6.55873">
        <ele>144.8</ele>
      </trkpt>
      <trkpt lat="49.65876" lon="6.55964">
        <ele>148.8</ele>
      </trkpt>
      <trkpt lat="49.6581" lon="6.5605">
        <ele>154.0</ele>
      </trkpt>
      <trkpt lat="49.65767" lon="6.56109">
        <ele>153.5</ele>
      </trkpt>
      <trkpt lat="49.65725" lon="6.56167">
        <ele>150.3</ele>
      </trkpt>
      <trkpt lat="49.65665" lon="6.56237">
        <ele>154.1</ele>
      </trkpt>
      <trkpt lat="49.65638" lon="6.5627">
        <ele>153.4</ele>
      </trkpt>
      <trkpt lat="49.65575" lon="6.56354">
        <ele>150.8</ele>
      </trkpt>
      <trkpt lat="49.65511" lon="6.56439">
        <ele>148.9</ele>
      </trkpt>
      <trkpt lat="49.65476" lon="6.56481">
        <ele>148.2</ele>
      </trkpt>
      <trkpt lat="49.65439" lon="6.56529">
        <ele>147.5</ele>
      </trkpt>
      <trkpt lat="49.65402" lon="6.56577">
        <ele>146.7</ele>
      </trkpt>
      <trkpt lat="49.65369" lon="6.56615">
        <ele>147.5</ele>
      </trkpt>
      <trkpt lat="49.65361" lon="6.56623">
        <ele>147.7</ele>
      </trkpt>
      <trkpt lat="49.65308" lon="6.5668">
        <ele>149.1</ele>
      </trkpt>
      <trkpt lat="49.6526" lon="6.56726">
        <ele>147.9</ele>
      </trkpt>
      <trkpt lat="49.6522" lon="6.56758">
        <ele>148.0</ele>
      </trkpt>
      <trkpt lat="49.6518" lon="6.5679">
        <ele>149.4</ele>
      </trkpt>
      <trkpt lat="49.65124" lon="6.56829">
        <ele>150.3</ele>
      </trkpt>
      <trkpt lat="49.65067" lon="6.56864">
        <ele>149.7</ele>
      </trkpt>
      <trkpt lat="49.65009" lon="6.569">
        <ele>147.5</ele>
      </trkpt>
      <trkpt lat="49.64952" lon="6.56936">
        <ele>149.5</ele>
      </trkpt>
      <trkpt lat="49.64915" lon="6.56957">
        <ele>151.0</ele>
      </trkpt>
      <trkpt lat="49.64855" lon="6.56988">
        <ele>148.3</ele>
      </trkpt>
      <trkpt lat="49.64824" lon="6.57001">
        <ele>147.1</ele>
      </trkpt>
      <trkpt lat="49.64769" lon="6.57026">
        <ele>146.7</ele>
      </trkpt>
      <trkpt lat="49.64749" lon="6.57036">
        <ele>146.3</ele>
      </trkpt>
      <trkpt lat="49.64704" lon="6.57051">
        <ele>147.2</ele>
      </trkpt>
      <trkpt lat="49.6467" lon="6.5706">
        <ele>148.0</ele>
      </trkpt>
      <trkpt lat="49.64588" lon="6.57075">
        <ele>148.2</ele>
      </trkpt>
      <trkpt lat="49.6451" lon="6.57083">
        <ele>146.2</ele>
      </trkpt>
      <trkpt lat="49.64462" lon="6.57084">
        <ele>145.1</ele>
      </trkpt>
      <trkpt lat="49.64397" lon="6.57081">
        <ele>144.3</ele>
      </trkpt>
      <trkpt lat="49.64332" lon="6.57078">
        <ele>145.1</ele>
      </trkpt>
      <trkpt lat="49.64272" lon="6.5708">
        <ele>144.4</ele>
      </trkpt>
      <trkpt lat="49.64221" lon="6.57086">
        <ele>144.4</ele>
      </trkpt>
      <trkpt lat="49.6416" lon="6.57099">
        <ele>144.8</ele>
      </trkpt>
      <trkpt lat="49.64113" lon="6.57115">
        <ele>143.5</ele>
      </trkpt>
      <trkpt lat="49.64062" lon="6.57135">
        <ele>142.7</ele>
      </trkpt>
      <trkpt lat="49.64021" lon="6.57171">
        <ele>143.7</ele>
      </trkpt>
      <trkpt lat="49.63986" lon="6.57191">
        <ele>145.2</ele>
      </trkpt>
      <trkpt lat="49.63914" lon="6.57224">
        <ele>145.2</ele>
      </trkpt>
      <trkpt lat="49.63879" lon="6.57237">
        <ele>143.7</ele>
      </trkpt>
      <trkpt lat="49.63856" lon="6.57245">
        <ele>142.8</ele>
      </trkpt>
      <trkpt lat="49.63801" lon="6.57255">
        <ele>141.5</ele>
      </trkpt>
      <trkpt lat="49.63747" lon="6.57266">
        <ele>140.6</ele>
      </trkpt>
      <trkpt lat="49.63675" lon="6.57279">
        <ele>140.9</ele>
      </trkpt>
      <trkpt lat="49.63624" lon="6.5729">
        <ele>140.0</ele>
      </trkpt>
      <trkpt lat="49.63573" lon="6.57301">
        <ele>139.1</ele>
      </trkpt>
      <trkpt lat="49.63537" lon="6.57294">
        <ele>139.2</ele>
      </trkpt>
      <trkpt lat="49.63468" lon="6.57311">
        <ele>139.1</ele>
      </trkpt>
      <trkpt lat="49.634" lon="6.57328">
        <ele>140.0</ele>
      </trkpt>
      <trkpt lat="49.63381" lon="6.57328">
        <ele>140.1</ele>
      </trkpt>
      <trkpt lat="49.6337" lon="6.57313">
        <ele>140.2</ele>
      </trkpt>
      <trkpt lat="49.63355" lon="6.57316">
        <ele>140.4</ele>
      </trkpt>
      <trkpt lat="49.63347" lon="6.57319">
        <ele>140.5</ele>
      </trkpt>
      <trkpt lat="49.63339" lon="6.57321">
        <ele>140.6</ele>
      </trkpt>
      <trkpt lat="49.6333" lon="6.57318">
        <ele>140.7</ele>
      </trkpt>
      <trkpt lat="49.63313" lon="6.57322">
        <ele>141.0</ele>
      </trkpt>
      <trkpt lat="49.63288" lon="6.57332">
        <ele>141.7</ele>
      </trkpt>
      <trkpt lat="49.63268" lon="6.57359">
        <ele>141.1</ele>
      </trkpt>
      <trkpt lat="49.63256" lon="6.57368">
        <ele>141.1</ele>
      </trkpt>
      <trkpt lat="49.63177" lon="6.57386">
        <ele>140.4</ele>
      </trkpt>
      <trkpt lat="49.6313" lon="6.57401">
        <ele>141.7</ele>
      </trkpt>
      <trkpt lat="49.63061" lon="6.57419">
        <ele>142.8</ele>
      </trkpt>
      <trkpt lat="49.62995" lon="6.57448">
        <ele>141.3</ele>
      </trkpt>
      <trkpt lat="49.62951" lon="6.57458">
        <ele>141.6</ele>
      </trkpt>
      <trkpt lat="49.6287" lon="6.57481">
        <ele>143.2</ele>
      </trkpt>
      <trkpt lat="49.62816" lon="6.57491">
        <ele>143.8</ele>
      </trkpt>
      <trkpt lat="49.62774" lon="6.57496">
        <ele>142.7</ele>
      </trkpt>
      <trkpt lat="49.62731" lon="6.57493">
        <ele>142.9</ele>
      </trkpt>
      <trkpt lat="49.62661" lon="6.57477">
        <ele>144.6</ele>
      </trkpt>
      <trkpt lat="49.62634" lon="6.57467">
        <ele>144.3</ele>
      </trkpt>
      <trkpt lat="49.62578" lon="6.57437">
        <ele>144.4</ele>
      </trkpt>
      <trkpt lat="49.62528" lon="6.57397">
        <ele>144.9</ele>
      </trkpt>
      <trkpt lat="49.62503" lon="6.57373">
        <ele>145.1</ele>
      </trkpt>
      <trkpt lat="49.6248" lon="6.57347">
        <ele>144.8</ele>
      </trkpt>
      <trkpt lat="49.62459" lon="6.57326">
        <ele>144.4</ele>
      </trkpt>
      <trkpt lat="49.624" lon="6.57227">
        <ele>147.8</ele>
      </trkpt>
      <trkpt lat="49.62383" lon="6.57188">
        <ele>149.8</ele>
      </trkpt>
      <trkpt lat="49.62357" lon="6.57107">
        <ele>152.7</ele>
      </trkpt>
      <trkpt lat="49.6233" lon="6.56983">
        <ele>155.4</ele>
      </trkpt>
      <trkpt lat="49.62302" lon="6.5688">
        <ele>157.7</ele>
      </trkpt>
      <trkpt lat="49.62275" lon="6.56791">
        <ele>163.5</ele>
      </trkpt>
      <trkpt lat="49.62248" lon="6.56701">
        <ele>161.3</ele>
      </trkpt>
      <trkpt lat="49.62224" lon="6.56617">
        <ele>161.4</ele>
      </trkpt>
      <trkpt lat="49.62203" lon="6.56542">
        <ele>162.2</ele>
      </trkpt>
      <trkpt lat="49.62183" lon="6.56467">
        <ele>162.3</ele>
      </trkpt>
      <trkpt lat="49.62164" lon="6.5641">
        <ele>163.2</ele>
      </trkpt>
      <trkpt lat="49.62149" lon="6.56379">
        <ele>162.4</ele>
      </trkpt>
      <trkpt lat="49.62145" lon="6.56373">
        <ele>161.7</ele>
      </trkpt>
      <trkpt lat="49.62144" lon="6.56367">
        <ele>162.0</ele>
      </trkpt>
      <trkpt lat="49.62142" lon="6.56363">
        <ele>161.7</ele>
      </trkpt>
      <trkpt lat="49.62139" lon="6.56359">
        <ele>161.0</ele>
      </trkpt>
      <trkpt lat="49.62133" lon="6.56354">
        <ele>159.3</ele>
      </trkpt>
      <trkpt lat="49.62094" lon="6.56302">
        <ele>153.1</ele>
      </trkpt>
      <trkpt lat="49.62055" lon="6.56249">
        <ele>154.5</ele>
      </trkpt>
      <trkpt lat="49.62006" lon="6.56179">
        <ele>152.2</ele>
      </trkpt>
      <trkpt lat="49.61958" lon="6.5611">
        <ele>157.3</ele>
      </trkpt>
      <trkpt lat="49.6194" lon="6.5609">
        <ele>155.3</ele>
      </trkpt>
      <trkpt lat="49.61896" lon="6.56053">
        <ele>157.1</ele>
      </trkpt>
      <trkpt lat="49.6188" lon="6.56043">
        <ele>157.9</ele>
      </trkpt>
      <trkpt lat="49.61864" lon="6.56037">
        <ele>156.9</ele>
      </trkpt>
      <trkpt lat="49.61854" lon="6.56035">
        <ele>155.5</ele>
      </trkpt>
      <trkpt lat="49.61846" lon="6.56035">
        <ele>154.0</ele>
      </trkpt>
      <trkpt lat="49.61839" lon="6.56038">
        <ele>152.2</ele>
      </trkpt>
      <trkpt lat="49.61833" lon="6.56044">
        <ele>150.1</ele>
      </trkpt>
      <trkpt lat="49.6183" lon="6.56049">
        <ele>149.0</ele>
      </trkpt>
      <trkpt lat="49.61816" lon="6.56054">
        <ele>147.3</ele>
      </trkpt>
      <trkpt lat="49.61805" lon="6.56061">
        <ele>145.7</ele>
      </trkpt>
      <trkpt lat="49.61799" lon="6.56066">
        <ele>144.8</ele>
      </trkpt>
      <trkpt lat="49.61775" lon="6.56082">
        <ele>142.4</ele>
      </trkpt>
      <trkpt lat="49.61751" lon="6.56101">
        <ele>140.8</ele>
      </trkpt>
      <trkpt lat="49.6174" lon="6.56109">
        <ele>140.3</ele>
      </trkpt>
      <trkpt lat="49.61726" lon="6.56124">
        <ele>140.3</ele>
      </trkpt>
      <trkpt lat="49.61714" lon="6.56135">
        <ele>140.3</ele>
      </trkpt>
      <trkpt lat="49.61706" lon="6.56137">
        <ele>140.3</ele>
      </trkpt>
      <trkpt lat="49.61645" lon="6.56143">
        <ele>140.3</ele>
      </trkpt>
      <trkpt lat="49.61583" lon="6.56149">
        <ele>140.6</ele>
      </trkpt>
      <trkpt lat="49.61522" lon="6.56156">
        <ele>141.1</ele>
      </trkpt>
      <trkpt lat="49.61457" lon="6.56152">
        <ele>141.0</ele>
      </trkpt>
      <trkpt lat="49.61406" lon="6.5614">
        <ele>141.2</ele>
      </trkpt>
      <trkpt lat="49.61356" lon="6.56128">
        <ele>142.5</ele>
      </trkpt>
      <trkpt lat="49.61312" lon="6.56108">
        <ele>142.9</ele>
      </trkpt>
      <trkpt lat="49.61268" lon="6.56088">
        <ele>141.7</ele>
      </trkpt>
      <trkpt lat="49.61215" lon="6.5605">
        <ele>142.6</ele>
      </trkpt>
      <trkpt lat="49.61162" lon="6.56011">
        <ele>143.2</ele>
      </trkpt>
      <trkpt lat="49.61144" lon="6.55999">
        <ele>143.3</ele>
      </trkpt>
      <trkpt lat="49.61109" lon="6.55965">
        <ele>143.9</ele>
      </trkpt>
      <trkpt lat="49.61066" lon="6.55914">
        <ele>143.8</ele>
      </trkpt>
      <trkpt lat="49.61032" lon="6.55867">
        <ele>144.6</ele>
      </trkpt>
      <trkpt lat="49.60984" lon="6.55793">
        <ele>144.9</ele>
      </trkpt>
      <trkpt lat="49.60952" lon="6.5576">
        <ele>144.8</ele>
      </trkpt>
      <trkpt lat="49.60924" lon="6.55704">
        <ele>146.2</ele>
      </trkpt>
      <trkpt lat="49.60898" lon="6.55645">
        <ele>148.5</ele>
      </trkpt>
      <trkpt lat="49.60871" lon="6.55585">
        <ele>149.8</ele>
      </trkpt>
      <trkpt lat="49.60868" lon="6.55569">
        <ele>150.8</ele>
      </trkpt>
      <trkpt lat="49.60855" lon="6.55533">
        <ele>150.8</ele>
      </trkpt>
      <trkpt lat="49.60855" lon="6.55533">
        <ele>150.8</ele>
      </trkpt>
      <trkpt lat="49.60849" lon="6.55517">
        <ele>150.1</ele>
      </trkpt>
      <trkpt lat="49.60851" lon="6.5551">
        <ele>151.1</ele>
      </trkpt>
      <trkpt lat="49.60851" lon="6.55486">
        <ele>152.5</ele>
      </trkpt>
      <trkpt lat="49.60852" lon="6.55477">
        <ele>153.3</ele>
      </trkpt>
      <trkpt lat="49.60854" lon="6.55479">
        <ele>153.8</ele>
      </trkpt>
      <trkpt lat="49.60859" lon="6.55479">
        <ele>155.3</ele>
      </trkpt>
      <trkpt lat="49.60862" lon="6.55475">
        <ele>156.4</ele>
      </trkpt>
      <trkpt lat="49.60863" lon="6.55471">
        <ele>156.8</ele>
      </trkpt>
      <trkpt lat="49.60863" lon="6.55461">
        <ele>157.3</ele>
      </trkpt>
      <trkpt lat="49.60861" lon="6.55431">
        <ele>158.0</ele>
      </trkpt>
      <trkpt lat="49.60859" lon="6.55419">
        <ele>158.1</ele>
      </trkpt>
      <trkpt lat="49.60857" lon="6.55411">
        <ele>157.6</ele>
      </trkpt>
      <trkpt lat="49.60853" lon="6.55402">
        <ele>157.1</ele>
      </trkpt>
      <trkpt lat="49.60848" lon="6.55393">
        <ele>156.5</ele>
      </trkpt>
      <trkpt lat="49.60845" lon="6.55388">
        <ele>156.2</ele>
      </trkpt>
      <trkpt lat="49.60795" lon="6.5543">
        <ele>151.8</ele>
      </trkpt>
      <trkpt lat="49.60746" lon="6.55472">
        <ele>147.5</ele>
      </trkpt>
      <trkpt lat="49.60735" lon="6.55481">
        <ele>146.6</ele>
      </trkpt>
      <trkpt lat="49.60723" lon="6.55494">
        <ele>145.5</ele>
      </trkpt>
      <trkpt lat="49.60693" lon="6.55556">
        <ele>147.5</ele>
      </trkpt>
      <trkpt lat="49.60664" lon="6.55617">
        <ele>148.9</ele>
      </trkpt>
      <trkpt lat="49.60662" lon="6.55624">
        <ele>148.9</ele>
      </trkpt>
      <trkpt lat="49.60659" lon="6.55641">
        <ele>148.9</ele>
      </trkpt>
      <trkpt lat="49.60659" lon="6.55648">
        <ele>148.9</ele>
      </trkpt>
      <trkpt lat="49.60662" lon="6.55657">
        <ele>148.9</ele>
      </trkpt>
      <trkpt lat="49.60664" lon="6.55661">
        <ele>149.0</ele>
      </trkpt>
      <trkpt lat="49.60668" lon="6.55666">
        <ele>149.0</ele>
      </trkpt>
      <trkpt lat="49.60684" lon="6.55681">
        <ele>148.7</ele>
      </trkpt>
      <trkpt lat="49.60753" lon="6.55729">
        <ele>146.7</ele>
      </trkpt>
      <trkpt lat="49.60761" lon="6.55738">
        <ele>146.6</ele>
      </trkpt>
      <trkpt lat="49.60766" lon="6.55755">
        <ele>146.9</ele>
      </trkpt>
      <trkpt lat="49.60775" lon="6.55756">
        <ele>146.7</ele>
      </trkpt>
      <trkpt lat="49.60784" lon="6.55751">
        <ele>146.2</ele>
      </trkpt>
      <trkpt lat="49.60801" lon="6.55727">
        <ele>145.7</ele>
      </trkpt>
      <trkpt lat="49.60837" lon="6.55688">
        <ele>145.1</ele>
      </trkpt>
      <trkpt lat="49.60845" lon="6.55705">
        <ele>145.1</ele>
      </trkpt>
      <trkpt lat="49.60845" lon="6.55705">
        <ele>145.1</ele>
      </trkpt>
      <trkpt lat="49.60876" lon="6.55773">
        <ele>145.2</ele>
      </trkpt>
      <trkpt lat="49.60916" lon="6.55851">
        <ele>146.3</ele>
      </trkpt>
      <trkpt lat="49.6094" lon="6.5589">
        <ele>148.2</ele>
      </trkpt>
      <trkpt lat="49.60962" lon="6.55919">
        <ele>148.9</ele>
      </trkpt>
      <trkpt lat="49.61014" lon="6.55996">
        <ele>147.3</ele>
      </trkpt>
      <trkpt lat="49.61045" lon="6.56037">
        <ele>147.1</ele>
      </trkpt>
      <trkpt lat="49.61079" lon="6.56091">
        <ele>146.0</ele>
      </trkpt>
      <trkpt lat="49.61094" lon="6.56112">
        <ele>147.1</ele>
      </trkpt>
      <trkpt lat="49.61112" lon="6.56132">
        <ele>147.7</ele>
      </trkpt>
      <trkpt lat="49.61131" lon="6.5615">
        <ele>147.7</ele>
      </trkpt>
      <trkpt lat="49.61161" lon="6.5617">
        <ele>147.0</ele>
      </trkpt>
      <trkpt lat="49.61181" lon="6.5618">
        <ele>147.3</ele>
      </trkpt>
      <trkpt lat="49.61201" lon="6.56187">
        <ele>146.8</ele>
      </trkpt>
      <trkpt lat="49.61228" lon="6.56199">
        <ele>145.6</ele>
      </trkpt>
      <trkpt lat="49.61278" lon="6.56224">
        <ele>142.4</ele>
      </trkpt>
      <trkpt lat="49.61325" lon="6.56244">
        <ele>137.4</ele>
      </trkpt>
      <trkpt lat="49.6137" lon="6.5626">
        <ele>138.0</ele>
      </trkpt>
      <trkpt lat="49.61399" lon="6.56268">
        <ele>139.2</ele>
      </trkpt>
      <trkpt lat="49.61443" lon="6.56276">
        <ele>140.1</ele>
      </trkpt>
      <trkpt lat="49.61472" lon="6.56279">
        <ele>140.2</ele>
      </trkpt>
      <trkpt lat="49.61494" lon="6.56279">
        <ele>140.3</ele>
      </trkpt>
      <trkpt lat="49.6151" lon="6.56285">
        <ele>140.5</ele>
      </trkpt>
      <trkpt lat="49.61515" lon="6.56289">
        <ele>140.6</ele>
      </trkpt>
      <trkpt lat="49.61526" lon="6.56297">
        <ele>140.8</ele>
      </trkpt>
      <trkpt lat="49.61541" lon="6.56304">
        <ele>141.0</ele>
      </trkpt>
      <trkpt lat="49.61556" lon="6.56304">
        <ele>141.3</ele>
      </trkpt>
      <trkpt lat="49.61566" lon="6.56307">
        <ele>141.5</ele>
      </trkpt>
      <trkpt lat="49.61574" lon="6.56317">
        <ele>141.7</ele>
      </trkpt>
      <trkpt lat="49.6158" lon="6.56329">
        <ele>141.9</ele>
      </trkpt>
      <trkpt lat="49.6159" lon="6.56374">
        <ele>146.1</ele>
      </trkpt>
      <trkpt lat="49.61596" lon="6.5639">
        <ele>147.8</ele>
      </trkpt>
      <trkpt lat="49.61602" lon="6.56398">
        <ele>148.8</ele>
      </trkpt>
      <trkpt lat="49.6161" lon="6.56403">
        <ele>149.6</ele>
      </trkpt>
      <trkpt lat="49.61619" lon="6.56401">
        <ele>149.7</ele>
      </trkpt>
      <trkpt lat="49.61631" lon="6.56395">
        <ele>149.5</ele>
      </trkpt>
      <trkpt lat="49.61653" lon="6.56378">
        <ele>148.4</ele>
      </trkpt>
      <trkpt lat="49.61672" lon="6.56357">
        <ele>146.8</ele>
      </trkpt>
      <trkpt lat="49.61694" lon="6.56329">
        <ele>145.2</ele>
      </trkpt>
      <trkpt lat="49.61709" lon="6.56301">
        <ele>145.1</ele>
      </trkpt>
      <trkpt lat="49.61722" lon="6.56271">
        <ele>144.7</ele>
      </trkpt>
      <trkpt lat="49.61735" lon="6.56257">
        <ele>144.7</ele>
      </trkpt>
      <trkpt lat="49.61753" lon="6.56257">
        <ele>145.2</ele>
      </trkpt>
      <trkpt lat="49.61769" lon="6.56263">
        <ele>145.3</ele>
      </trkpt>
      <trkpt lat="49.61779" lon="6.56274">
        <ele>145.6</ele>
      </trkpt>
      <trkpt lat="49.61791" lon="6.56282">
        <ele>145.8</ele>
      </trkpt>
      <trkpt lat="49.61796" lon="6.56282">
        <ele>145.8</ele>
      </trkpt>
      <trkpt lat="49.61839" lon="6.5628">
        <ele>145.3</ele>
      </trkpt>
      <trkpt lat="49.61857" lon="6.56286">
        <ele>145.0</ele>
      </trkpt>
      <trkpt lat="49.61867" lon="6.5629">
        <ele>144.9</ele>
      </trkpt>
      <trkpt lat="49.61913" lon="6.56316">
        <ele>144.5</ele>
      </trkpt>
      <trkpt lat="49.61934" lon="6.56332">
        <ele>143.7</ele>
      </trkpt>
      <trkpt lat="49.61949" lon="6.56346">
        <ele>143.5</ele>
      </trkpt>
      <trkpt lat="49.61967" lon="6.56368">
        <ele>143.6</ele>
      </trkpt>
      <trkpt lat="49.61982" lon="6.56397">
        <ele>144.3</ele>
      </trkpt>
      <trkpt lat="49.61993" lon="6.56415">
        <ele>144.5</ele>
      </trkpt>
      <trkpt lat="49.62038" lon="6.56506">
        <ele>143.3</ele>
      </trkpt>
      <trkpt lat="49.62062" lon="6.56561">
        <ele>142.2</ele>
      </trkpt>
      <trkpt lat="49.62087" lon="6.56609">
        <ele>140.8</ele>
      </trkpt>
      <trkpt lat="49.62098" lon="6.56632">
        <ele>141.4</ele>
      </trkpt>
      <trkpt lat="49.62109" lon="6.56664">
        <ele>141.7</ele>
      </trkpt>
      <trkpt lat="49.62119" lon="6.56706">
        <ele>145.4</ele>
      </trkpt>
      <trkpt lat="49.6213" lon="6.56734">
        <ele>147.8</ele>
      </trkpt>
      <trkpt lat="49.62147" lon="6.56763">
        <ele>147.9</ele>
      </trkpt>
      <trkpt lat="49.62157" lon="6.56781">
        <ele>146.0</ele>
      </trkpt>
      <trkpt lat="49.62159" lon="6.56794">
        <ele>144.9</ele>
      </trkpt>
      <trkpt lat="49.62162" lon="6.56824">
        <ele>144.0</ele>
      </trkpt>
      <trkpt lat="49.62167" lon="6.56841">
        <ele>143.6</ele>
      </trkpt>
      <trkpt lat="49.62176" lon="6.56868">
        <ele>142.8</ele>
      </trkpt>
      <trkpt lat="49.62205" lon="6.56924">
        <ele>142.5</ele>
      </trkpt>
      <trkpt lat="49.62213" lon="6.56945">
        <ele>142.9</ele>
      </trkpt>
      <trkpt lat="49.62218" lon="6.56963">
        <ele>143.3</ele>
      </trkpt>
      <trkpt lat="49.62232" lon="6.57055">
        <ele>144.4</ele>
      </trkpt>
      <trkpt lat="49.62232" lon="6.57055">
        <ele>144.4</ele>
      </trkpt>
      <trkpt lat="49.62236" lon="6.57081">
        <ele>144.6</ele>
      </trkpt>
      <trkpt lat="49.62244" lon="6.5711">
        <ele>146.5</ele>
      </trkpt>
      <trkpt lat="49.62253" lon="6.57132">
        <ele>148.2</ele>
      </trkpt>
      <trkpt lat="49.62276" lon="6.57171">
        <ele>150.3</ele>
      </trkpt>
      <trkpt lat="49.62283" lon="6.57191">
        <ele>149.9</ele>
      </trkpt>
      <trkpt lat="49.6229" lon="6.57216">
        <ele>149.4</ele>
      </trkpt>
      <trkpt lat="49.62293" lon="6.57236">
        <ele>149.1</ele>
      </trkpt>
      <trkpt lat="49.62298" lon="6.57258">
        <ele>148.6</ele>
      </trkpt>
      <trkpt lat="49.62306" lon="6.57279">
        <ele>147.4</ele>
      </trkpt>
      <trkpt lat="49.62318" lon="6.57298">
        <ele>145.7</ele>
      </trkpt>
      <trkpt lat="49.62334" lon="6.5733">
        <ele>142.2</ele>
      </trkpt>
      <trkpt lat="49.62346" lon="6.57355">
        <ele>142.6</ele>
      </trkpt>
      <trkpt lat="49.62359" lon="6.57414">
        <ele>143.7</ele>
      </trkpt>
      <trkpt lat="49.62366" lon="6.57439">
        <ele>145.0</ele>
      </trkpt>
      <trkpt lat="49.62375" lon="6.57458">
        <ele>145.5</ele>
      </trkpt>
      <trkpt lat="49.62385" lon="6.5747">
        <ele>145.1</ele>
      </trkpt>
      <trkpt lat="49.62396" lon="6.57477">
        <ele>144.2</ele>
      </trkpt>
      <trkpt lat="49.62413" lon="6.57484">
        <ele>142.3</ele>
      </trkpt>
      <trkpt lat="49.62425" lon="6.5749">
        <ele>141.8</ele>
      </trkpt>
      <trkpt lat="49.62445" lon="6.57505">
        <ele>141.8</ele>
      </trkpt>
      <trkpt lat="49.62464" lon="6.57526">
        <ele>141.8</ele>
      </trkpt>
      <trkpt lat="49.62496" lon="6.5755">
        <ele>141.1</ele>
      </trkpt>
      <trkpt lat="49.62518" lon="6.57566">
        <ele>141.1</ele>
      </trkpt>
      <trkpt lat="49.62569" lon="6.57597">
        <ele>141.2</ele>
      </trkpt>
      <trkpt lat="49.62609" lon="6.57623">
        <ele>142.3</ele>
      </trkpt>
      <trkpt lat="49.62627" lon="6.57634">
        <ele>142.7</ele>
      </trkpt>
      <trkpt lat="49.62647" lon="6.5764">
        <ele>143.2</ele>
      </trkpt>
      <trkpt lat="49.62662" lon="6.57642">
        <ele>143.5</ele>
      </trkpt>
      <trkpt lat="49.62744" lon="6.57648">
        <ele>143.8</ele>
      </trkpt>
      <trkpt lat="49.62777" lon="6.57648">
        <ele>144.3</ele>
      </trkpt>
      <trkpt lat="49.62809" lon="6.57647">
        <ele>144.8</ele>
      </trkpt>
      <trkpt lat="49.62818" lon="6.5765">
        <ele>145.1</ele>
      </trkpt>
      <trkpt lat="49.62839" lon="6.57665">
        <ele>146.5</ele>
      </trkpt>
      <trkpt lat="49.62846" lon="6.5767">
        <ele>148.1</ele>
      </trkpt>
      <trkpt lat="49.62858" lon="6.57671">
        <ele>149.5</ele>
      </trkpt>
      <trkpt lat="49.62909" lon="6.5764">
        <ele>150.0</ele>
      </trkpt>
      <trkpt lat="49.62961" lon="6.5761">
        <ele>148.9</ele>
      </trkpt>
      <trkpt lat="49.63001" lon="6.57591">
        <ele>146.8</ele>
      </trkpt>
      <trkpt lat="49.63014" lon="6.57586">
        <ele>146.3</ele>
      </trkpt>
      <trkpt lat="49.63034" lon="6.57581">
        <ele>146.5</ele>
      </trkpt>
      <trkpt lat="49.63066" lon="6.57574">
        <ele>147.8</ele>
      </trkpt>
      <trkpt lat="49.63126" lon="6.57566">
        <ele>146.5</ele>
      </trkpt>
      <trkpt lat="49.63187" lon="6.57558">
        <ele>144.6</ele>
      </trkpt>
      <trkpt lat="49.63247" lon="6.5755">
        <ele>143.6</ele>
      </trkpt>
      <trkpt lat="49.63286" lon="6.57543">
        <ele>142.5</ele>
      </trkpt>
      <trkpt lat="49.63316" lon="6.57536">
        <ele>141.4</ele>
      </trkpt>
      <trkpt lat="49.63366" lon="6.57528">
        <ele>141.0</ele>
      </trkpt>
      <trkpt lat="49.63395" lon="6.57524">
        <ele>141.3</ele>
      </trkpt>
      <trkpt lat="49.63425" lon="6.57522">
        <ele>141.8</ele>
      </trkpt>
      <trkpt lat="49.63457" lon="6.57518">
        <ele>142.2</ele>
      </trkpt>
      <trkpt lat="49.63502" lon="6.57509">
        <ele>143.0</ele>
      </trkpt>
      <trkpt lat="49.63559" lon="6.57503">
        <ele>140.9</ele>
      </trkpt>
      <trkpt lat="49.63592" lon="6.57498">
        <ele>139.9</ele>
      </trkpt>
      <trkpt lat="49.63618" lon="6.57497">
        <ele>139.9</ele>
      </trkpt>
      <trkpt lat="49.6366" lon="6.57498">
        <ele>139.9</ele>
      </trkpt>
      <trkpt lat="49.63688" lon="6.57493">
        <ele>140.4</ele>
      </trkpt>
      <trkpt lat="49.63722" lon="6.57485">
        <ele>141.1</ele>
      </trkpt>
      <trkpt lat="49.63747" lon="6.57487">
        <ele>141.8</ele>
      </trkpt>
      <trkpt lat="49.63789" lon="6.57501">
        <ele>141.1</ele>
      </trkpt>
      <trkpt lat="49.63805" lon="6.57505">
        <ele>140.8</ele>
      </trkpt>
      <trkpt lat="49.63823" lon="6.57505">
        <ele>140.4</ele>
      </trkpt>
      <trkpt lat="49.63841" lon="6.57497">
        <ele>139.9</ele>
      </trkpt>
      <trkpt lat="49.63849" lon="6.57495">
        <ele>139.7</ele>
      </trkpt>
      <trkpt lat="49.6386" lon="6.57495">
        <ele>139.6</ele>
      </trkpt>
      <trkpt lat="49.63875" lon="6.57497">
        <ele>139.4</ele>
      </trkpt>
      <trkpt lat="49.63881" lon="6.57497">
        <ele>139.4</ele>
      </trkpt>
      <trkpt lat="49.63886" lon="6.57495">
        <ele>139.3</ele>
      </trkpt>
      <trkpt lat="49.6389" lon="6.57489">
        <ele>139.1</ele>
      </trkpt>
      <trkpt lat="49.63891" lon="6.57483">
        <ele>139.0</ele>
      </trkpt>
      <trkpt lat="49.6389" lon="6.57473">
        <ele>138.8</ele>
      </trkpt>
      <trkpt lat="49.63888" lon="6.57468">
        <ele>138.7</ele>
      </trkpt>
      <trkpt lat="49.63884" lon="6.57463">
        <ele>138.7</ele>
      </trkpt>
      <trkpt lat="49.63878" lon="6.57462">
        <ele>138.8</ele>
      </trkpt>
      <trkpt lat="49.63869" lon="6.57464">
        <ele>139.0</ele>
      </trkpt>
      <trkpt lat="49.63847" lon="6.57477">
        <ele>139.5</ele>
      </trkpt>
      <trkpt lat="49.63832" lon="6.57481">
        <ele>139.8</ele>
      </trkpt>
      <trkpt lat="49.63821" lon="6.57484">
        <ele>139.7</ele>
      </trkpt>
      <trkpt lat="49.6382" lon="6.57473">
        <ele>139.6</ele>
      </trkpt>
      <trkpt lat="49.63809" lon="6.57338">
        <ele>139.1</ele>
      </trkpt>
      <trkpt lat="49.63833" lon="6.57334">
        <ele>139.0</ele>
      </trkpt>
      <trkpt lat="49.63884" lon="6.5732">
        <ele>140.7</ele>
      </trkpt>
      <trkpt lat="49.63899" lon="6.57314">
        <ele>141.3</ele>
      </trkpt>
      <trkpt lat="49.63943" lon="6.57297">
        <ele>144.0</ele>
      </trkpt>
      <trkpt lat="49.63955" lon="6.57313">
        <ele>144.5</ele>
      </trkpt>
      <trkpt lat="49.64004" lon="6.57365">
        <ele>147.1</ele>
      </trkpt>
      <trkpt lat="49.64022" lon="6.57386">
        <ele>148.9</ele>
      </trkpt>
      <trkpt lat="49.64042" lon="6.57418">
        <ele>150.0</ele>
      </trkpt>
      <trkpt lat="49.64061" lon="6.57452">
        <ele>150.0</ele>
      </trkpt>
      <trkpt lat="49.64081" lon="6.57501">
        <ele>147.7</ele>
      </trkpt>
      <trkpt lat="49.64099" lon="6.57556">
        <ele>148.8</ele>
      </trkpt>
      <trkpt lat="49.6411" lon="6.57631">
        <ele>148.6</ele>
      </trkpt>
      <trkpt lat="49.64121" lon="6.57706">
        <ele>149.5</ele>
      </trkpt>
      <trkpt lat="49.64121" lon="6.57706">
        <ele>149.5</ele>
      </trkpt>
      <trkpt lat="49.64137" lon="6.57814">
        <ele>150.8</ele>
      </trkpt>
      <trkpt lat="49.64152" lon="6.57924">
        <ele>149.6</ele>
      </trkpt>
      <trkpt lat="49.64167" lon="6.58035">
        <ele>146.8</ele>
      </trkpt>
      <trkpt lat="49.64169" lon="6.58059">
        <ele>146.4</ele>
      </trkpt>
      <trkpt lat="49.64175" lon="6.58131">
        <ele>145.5</ele>
      </trkpt>
      <trkpt lat="49.6418" lon="6.58202">
        <ele>144.9</ele>
      </trkpt>
      <trkpt lat="49.64181" lon="6.58279">
        <ele>144.1</ele>
      </trkpt>
      <trkpt lat="49.64183" lon="6.58356">
        <ele>143.0</ele>
      </trkpt>
      <trkpt lat="49.64185" lon="6.58418">
        <ele>141.5</ele>
      </trkpt>
      <trkpt lat="49.6419" lon="6.58514">
        <ele>142.8</ele>
      </trkpt>
      <trkpt lat="49.64197" lon="6.58611">
        <ele>140.8</ele>
      </trkpt>
      <trkpt lat="49.64206" lon="6.58728">
        <ele>139.4</ele>
      </trkpt>
      <trkpt lat="49.64211" lon="6.58766">
        <ele>139.5</ele>
      </trkpt>
      <trkpt lat="49.64216" lon="6.58788">
        <ele>139.3</ele>
      </trkpt>
      <trkpt lat="49.64223" lon="6.58805">
        <ele>139.1</ele>
      </trkpt>
      <trkpt lat="49.64259" lon="6.58873">
        <ele>137.4</ele>
      </trkpt>
      <trkpt lat="49.64259" lon="6.58877">
        <ele>137.4</ele>
      </trkpt>
      <trkpt lat="49.64295" lon="6.58931">
        <ele>137.3</ele>
      </trkpt>
      <trkpt lat="49.64317" lon="6.58951">
        <ele>137.3</ele>
      </trkpt>
      <trkpt lat="49.64341" lon="6.5897">
        <ele>137.0</ele>
      </trkpt>
      <trkpt lat="49.64358" lon="6.5898">
        <ele>137.2</ele>
      </trkpt>
      <trkpt lat="49.64371" lon="6.58986">
        <ele>137.3</ele>
      </trkpt>
      <trkpt lat="49.6442" lon="6.59">
        <ele>138.0</ele>
      </trkpt>
      <trkpt lat="49.64461" lon="6.59008">
        <ele>137.7</ele>
      </trkpt>
      <trkpt lat="49.645" lon="6.59005">
        <ele>137.2</ele>
      </trkpt>
      <trkpt lat="49.64548" lon="6.58995">
        <ele>138.2</ele>
      </trkpt>
      <trkpt lat="49.64619" lon="6.58976">
        <ele>138.4</ele>
      </trkpt>
      <trkpt lat="49.64657" lon="6.5897">
        <ele>137.9</ele>
      </trkpt>
      <trkpt lat="49.64733" lon="6.58956">
        <ele>140.0</ele>
      </trkpt>
      <trkpt lat="49.64763" lon="6.58952">
        <ele>140.5</ele>
      </trkpt>
      <trkpt lat="49.64842" lon="6.58946">
        <ele>140.9</ele>
      </trkpt>
      <trkpt lat="49.64897" lon="6.58934">
        <ele>140.1</ele>
      </trkpt>
      <trkpt lat="49.64947" lon="6.58926">
        <ele>139.9</ele>
      </trkpt>
      <trkpt lat="49.64969" lon="6.58917">
        <ele>140.0</ele>
      </trkpt>
      <trkpt lat="49.64969" lon="6.58917">
        <ele>140.0</ele>
      </trkpt>
      <trkpt lat="49.6504" lon="6.5889">
        <ele>139.5</ele>
      </trkpt>
      <trkpt lat="49.65112" lon="6.58863">
        <ele>139.5</ele>
      </trkpt>
      <trkpt lat="49.65135" lon="6.58855">
        <ele>139.4</ele>
      </trkpt>
      <trkpt lat="49.65151" lon="6.58852">
        <ele>139.3</ele>
      </trkpt>
      <trkpt lat="49.65182" lon="6.58835">
        <ele>139.0</ele>
      </trkpt>
      <trkpt lat="49.65193" lon="6.58827">
        <ele>139.1</ele>
      </trkpt>
      <trkpt lat="49.65201" lon="6.58832">
        <ele>139.0</ele>
      </trkpt>
      <trkpt lat="49.65205" lon="6.58833">
        <ele>139.0</ele>
      </trkpt>
      <trkpt lat="49.6521" lon="6.58832">
        <ele>139.0</ele>
      </trkpt>
      <trkpt lat="49.65217" lon="6.58829">
        <ele>139.1</ele>
      </trkpt>
      <trkpt lat="49.65224" lon="6.58823">
        <ele>139.2</ele>
      </trkpt>
      <trkpt lat="49.65238" lon="6.58798">
        <ele>139.5</ele>
      </trkpt>
      <trkpt lat="49.65254" lon="6.58785">
        <ele>139.6</ele>
      </trkpt>
      <trkpt lat="49.6529" lon="6.58749">
        <ele>139.5</ele>
      </trkpt>
      <trkpt lat="49.6533" lon="6.58717">
        <ele>139.0</ele>
      </trkpt>
      <trkpt lat="49.65356" lon="6.587">
        <ele>138.9</ele>
      </trkpt>
      <trkpt lat="49.65397" lon="6.58675">
        <ele>139.5</ele>
      </trkpt>
      <trkpt lat="49.65445" lon="6.58644">
        <ele>139.3</ele>
      </trkpt>
      <trkpt lat="49.65484" lon="6.5862">
        <ele>138.4</ele>
      </trkpt>
      <trkpt lat="49.65531" lon="6.58598">
        <ele>138.2</ele>
      </trkpt>
      <trkpt lat="49.6556" lon="6.58586">
        <ele>138.7</ele>
      </trkpt>
      <trkpt lat="49.65608" lon="6.58571">
        <ele>138.9</ele>
      </trkpt>
      <trkpt lat="49.65656" lon="6.58556">
        <ele>139.0</ele>
      </trkpt>
      <trkpt lat="49.65699" lon="6.58548">
        <ele>138.7</ele>
      </trkpt>
      <trkpt lat="49.65723" lon="6.58544">
        <ele>138.4</ele>
      </trkpt>
      <trkpt lat="49.65753" lon="6.58542">
        <ele>138.1</ele>
      </trkpt>
      <trkpt lat="49.6577" lon="6.58542">
        <ele>138.8</ele>
      </trkpt>
      <trkpt lat="49.65802" lon="6.58546">
        <ele>139.9</ele>
      </trkpt>
      <trkpt lat="49.65808" lon="6.58544">
        <ele>140.3</ele>
      </trkpt>
      <trkpt lat="49.65813" lon="6.58541">
        <ele>140.7</ele>
      </trkpt>
      <trkpt lat="49.65819" lon="6.58535">
        <ele>141.4</ele>
      </trkpt>
      <trkpt lat="49.65821" lon="6.58524">
        <ele>142.4</ele>
      </trkpt>
      <trkpt lat="49.65867" lon="6.58524">
        <ele>145.1</ele>
      </trkpt>
      <trkpt lat="49.65931" lon="6.58522">
        <ele>149.1</ele>
      </trkpt>
      <trkpt lat="49.65964" lon="6.58524">
        <ele>149.9</ele>
      </trkpt>
      <trkpt lat="49.66045" lon="6.58536">
        <ele>150.7</ele>
      </trkpt>
      <trkpt lat="49.66126" lon="6.58548">
        <ele>149.8</ele>
      </trkpt>
      <trkpt lat="49.6619" lon="6.58561">
        <ele>147.3</ele>
      </trkpt>
      <trkpt lat="49.66254" lon="6.58568">
        <ele>148.5</ele>
      </trkpt>
      <trkpt lat="49.66283" lon="6.58574">
        <ele>148.8</ele>
      </trkpt>
      <trkpt lat="49.66328" lon="6.5859">
        <ele>148.8</ele>
      </trkpt>
      <trkpt lat="49.66373" lon="6.58606">
        <ele>148.7</ele>
      </trkpt>
      <trkpt lat="49.66444" lon="6.58625">
        <ele>146.0</ele>
      </trkpt>
      <trkpt lat="49.66516" lon="6.58643">
        <ele>141.5</ele>
      </trkpt>
      <trkpt lat="49.66544" lon="6.58649">
        <ele>141.5</ele>
      </trkpt>
      <trkpt lat="49.66599" lon="6.58649">
        <ele>143.4</ele>
      </trkpt>
      <trkpt lat="49.66654" lon="6.58649">
        <ele>145.3</ele>
      </trkpt>
      <trkpt lat="49.66679" lon="6.58647">
        <ele>145.9</ele>
      </trkpt>
      <trkpt lat="49.667" lon="6.58641">
        <ele>146.4</ele>
      </trkpt>
      <trkpt lat="49.66724" lon="6.58624">
        <ele>147.4</ele>
      </trkpt>
      <trkpt lat="49.66737" lon="6.58609">
        <ele>148.0</ele>
      </trkpt>
      <trkpt lat="49.66749" lon="6.58589">
        <ele>148.8</ele>
      </trkpt>
      <trkpt lat="49.66758" lon="6.58566">
        <ele>149.0</ele>
      </trkpt>
      <trkpt lat="49.66765" lon="6.5854">
        <ele>148.9</ele>
      </trkpt>
      <trkpt lat="49.6677" lon="6.58517">
        <ele>148.8</ele>
      </trkpt>
      <trkpt lat="49.66773" lon="6.5849">
        <ele>148.7</ele>
      </trkpt>
      <trkpt lat="49.66774" lon="6.58436">
        <ele>148.7</ele>
      </trkpt>
      <trkpt lat="49.66771" lon="6.584">
        <ele>149.1</ele>
      </trkpt>
      <trkpt lat="49.66775" lon="6.58395">
        <ele>149.1</ele>
      </trkpt>
      <trkpt lat="49.66778" lon="6.58392">
        <ele>149.2</ele>
      </trkpt>
      <trkpt lat="49.66782" lon="6.58378">
        <ele>149.4</ele>
      </trkpt>
      <trkpt lat="49.66794" lon="6.58336">
        <ele>149.9</ele>
      </trkpt>
      <trkpt lat="49.66796" lon="6.58309">
        <ele>150.2</ele>
      </trkpt>
      <trkpt lat="49.66795" lon="6.58274">
        <ele>150.7</ele>
      </trkpt>
      <trkpt lat="49.66784" lon="6.582">
        <ele>150.9</ele>
      </trkpt>
      <trkpt lat="49.6678" lon="6.58158">
        <ele>150.9</ele>
      </trkpt>
      <trkpt lat="49.66776" lon="6.58106">
        <ele>150.6</ele>
      </trkpt>
      <trkpt lat="49.66775" lon="6.58049">
        <ele>150.2</ele>
      </trkpt>
      <trkpt lat="49.66777" lon="6.57945">
        <ele>149.8</ele>
      </trkpt>
      <trkpt lat="49.66782" lon="6.57893">
        <ele>149.6</ele>
      </trkpt>
      <trkpt lat="49.66783" lon="6.57888">
        <ele>149.6</ele>
      </trkpt>
      <trkpt lat="49.66786" lon="6.57883">
        <ele>149.6</ele>
      </trkpt>
      <trkpt lat="49.6679" lon="6.57878">
        <ele>149.5</ele>
      </trkpt>
      <trkpt lat="49.66829" lon="6.57842">
        <ele>149.1</ele>
      </trkpt>
      <trkpt lat="49.66826" lon="6.57833">
        <ele>149.1</ele>
      </trkpt>
      <trkpt lat="49.66798" lon="6.57753">
        <ele>149.3</ele>
      </trkpt>
      <trkpt lat="49.66765" lon="6.57682">
        <ele>147.7</ele>
      </trkpt>
      <trkpt lat="49.66759" lon="6.57667">
        <ele>147.5</ele>
      </trkpt>
      <trkpt lat="49.66755" lon="6.57651">
        <ele>147.3</ele>
      </trkpt>
      <trkpt lat="49.66757" lon="6.57646">
        <ele>147.1</ele>
      </trkpt>
      <trkpt lat="49.66759" lon="6.57641">
        <ele>146.8</ele>
      </trkpt>
      <trkpt lat="49.66759" lon="6.57626">
        <ele>146.4</ele>
      </trkpt>
      <trkpt lat="49.66758" lon="6.57616">
        <ele>146.2</ele>
      </trkpt>
      <trkpt lat="49.66753" lon="6.576">
        <ele>146.2</ele>
      </trkpt>
      <trkpt lat="49.66728" lon="6.5754">
        <ele>144.0</ele>
      </trkpt>
      <trkpt lat="49.66758" lon="6.57518">
        <ele>143.0</ele>
      </trkpt>
      <trkpt lat="49.66816" lon="6.57466">
        <ele>141.1</ele>
      </trkpt>
      <trkpt lat="49.6688" lon="6.57421">
        <ele>139.2</ele>
      </trkpt>
      <trkpt lat="49.66882" lon="6.57414">
        <ele>139.0</ele>
      </trkpt>
      <trkpt lat="49.66885" lon="6.5741">
        <ele>138.9</ele>
      </trkpt>
      <trkpt lat="49.66893" lon="6.57402">
        <ele>138.7</ele>
      </trkpt>
      <trkpt lat="49.66897" lon="6.57397">
        <ele>139.2</ele>
      </trkpt>
      <trkpt lat="49.66901" lon="6.5739">
        <ele>139.9</ele>
      </trkpt>
      <trkpt lat="49.66903" lon="6.57384">
        <ele>140.4</ele>
      </trkpt>
      <trkpt lat="49.66903" lon="6.57378">
        <ele>140.6</ele>
      </trkpt>
      <trkpt lat="49.66903" lon="6.57373">
        <ele>140.9</ele>
      </trkpt>
      <trkpt lat="49.66901" lon="6.57366">
        <ele>141.0</ele>
      </trkpt>
      <trkpt lat="49.66898" lon="6.57359">
        <ele>141.0</ele>
      </trkpt>
      <trkpt lat="49.66893" lon="6.57352">
        <ele>140.9</ele>
      </trkpt>
      <trkpt lat="49.66847" lon="6.57294">
        <ele>139.8</ele>
      </trkpt>
      <trkpt lat="49.66823" lon="6.57288">
        <ele>137.5</ele>
      </trkpt>
      <trkpt lat="49.66817" lon="6.57284">
        <ele>137.2</ele>
      </trkpt>
      <trkpt lat="49.66814" lon="6.5728">
        <ele>137.1</ele>
      </trkpt>
      <trkpt lat="49.66781" lon="6.57176">
        <ele>137.1</ele>
      </trkpt>
      <trkpt lat="49.66757" lon="6.57107">
        <ele>136.9</ele>
      </trkpt>
      <trkpt lat="49.66757" lon="6.57107">
        <ele>136.9</ele>
      </trkpt>
      <trkpt lat="49.66733" lon="6.57042">
        <ele>139.0</ele>
      </trkpt>
      <trkpt lat="49.66704" lon="6.56964">
        <ele>141.5</ele>
      </trkpt>
      <trkpt lat="49.66674" lon="6.56886">
        <ele>140.1</ele>
      </trkpt>
      <trkpt lat="49.6667" lon="6.56881">
        <ele>139.4</ele>
      </trkpt>
      <trkpt lat="49.66649" lon="6.5683">
        <ele>140.8</ele>
      </trkpt>
      <trkpt lat="49.66611" lon="6.56737">
        <ele>141.2</ele>
      </trkpt>
      <trkpt lat="49.66603" lon="6.56722">
        <ele>140.8</ele>
      </trkpt>
      <trkpt lat="49.66586" lon="6.56694">
        <ele>139.3</ele>
      </trkpt>
      <trkpt lat="49.66569" lon="6.56672">
        <ele>139.3</ele>
      </trkpt>
      <trkpt lat="49.66554" lon="6.56663">
        <ele>138.4</ele>
      </trkpt>
      <trkpt lat="49.66506" lon="6.56626">
        <ele>135.6</ele>
      </trkpt>
      <trkpt lat="49.66484" lon="6.56608">
        <ele>135.4</ele>
      </trkpt>
      <trkpt lat="49.66436" lon="6.56576">
        <ele>134.9</ele>
      </trkpt>
      <trkpt lat="49.66389" lon="6.56544">
        <ele>134.8</ele>
      </trkpt>
      <trkpt lat="49.66328" lon="6.56504">
        <ele>134.8</ele>
      </trkpt>
      <trkpt lat="49.66267" lon="6.56465">
        <ele>133.0</ele>
      </trkpt>
      <trkpt lat="49.66238" lon="6.56439">
        <ele>133.0</ele>
      </trkpt>
      <trkpt lat="49.66225" lon="6.56425">
        <ele>133.1</ele>
      </trkpt>
      <trkpt lat="49.66209" lon="6.56406">
        <ele>132.9</ele>
      </trkpt>
      <trkpt lat="49.66156" lon="6.56336">
        <ele>130.7</ele>
      </trkpt>
      <trkpt lat="49.6614" lon="6.56306">
        <ele>132.1</ele>
      </trkpt>
      <trkpt lat="49.66138" lon="6.56298">
        <ele>132.3</ele>
      </trkpt>
      <trkpt lat="49.66139" lon="6.56291">
        <ele>132.3</ele>
      </trkpt>
      <trkpt lat="49.66142" lon="6.56287">
        <ele>132.3</ele>
      </trkpt>
      <trkpt lat="49.66155" lon="6.56292">
        <ele>131.8</ele>
      </trkpt>
      <trkpt lat="49.66204" lon="6.56317">
        <ele>132.3</ele>
      </trkpt>
      <trkpt lat="49.66211" lon="6.56316">
        <ele>132.6</ele>
      </trkpt>
      <trkpt lat="49.66216" lon="6.56312">
        <ele>133.0</ele>
      </trkpt>
      <trkpt lat="49.6622" lon="6.56303">
        <ele>133.4</ele>
      </trkpt>
      <trkpt lat="49.66228" lon="6.56252">
        <ele>135.2</ele>
      </trkpt>
      <trkpt lat="49.66227" lon="6.56243">
        <ele>135.7</ele>
      </trkpt>
      <trkpt lat="49.66224" lon="6.56235">
        <ele>136.1</ele>
      </trkpt>
      <trkpt lat="49.6622" lon="6.56229">
        <ele>136.4</ele>
      </trkpt>
      <trkpt lat="49.66216" lon="6.56227">
        <ele>136.4</ele>
      </trkpt>
      <trkpt lat="49.66188" lon="6.5622">
        <ele>135.9</ele>
      </trkpt>
      <trkpt lat="49.66173" lon="6.56214">
        <ele>135.8</ele>
      </trkpt>
      <trkpt lat="49.66167" lon="6.5621">
        <ele>135.9</ele>
      </trkpt>
      <trkpt lat="49.66142" lon="6.56192">
        <ele>135.5</ele>
      </trkpt>
      <trkpt lat="49.66129" lon="6.56181">
        <ele>135.0</ele>
      </trkpt>
      <trkpt lat="49.66107" lon="6.56156">
        <ele>133.3</ele>
      </trkpt>
      <trkpt lat="49.66095" lon="6.56137">
        <ele>132.2</ele>
      </trkpt>
      <trkpt lat="49.6609" lon="6.56126">
        <ele>131.7</ele>
      </trkpt>
      <trkpt lat="49.66087" lon="6.56115">
        <ele>131.4</ele>
      </trkpt>
      <trkpt lat="49.66086" lon="6.561">
        <ele>131.3</ele>
      </trkpt>
      <trkpt lat="49.66086" lon="6.56069">
        <ele>131.1</ele>
      </trkpt>
      <trkpt lat="49.66088" lon="6.5605">
        <ele>131.1</ele>
      </trkpt>
      <trkpt lat="49.66092" lon="6.56031">
        <ele>131.2</ele>
      </trkpt>
      <trkpt lat="49.66095" lon="6.56022">
        <ele>131.4</ele>
      </trkpt>
      <trkpt lat="49.66099" lon="6.56019">
        <ele>131.8</ele>
      </trkpt>
      <trkpt lat="49.66102" lon="6.56019">
        <ele>132.1</ele>
      </trkpt>
      <trkpt lat="49.66106" lon="6.56017">
        <ele>132.4</ele>
      </trkpt>
      <trkpt lat="49.66124" lon="6.56014">
        <ele>134.2</ele>
      </trkpt>
      <trkpt lat="49.66204" lon="6.56">
        <ele>138.4</ele>
      </trkpt>
      <trkpt lat="49.66252" lon="6.55987">
        <ele>139.2</ele>
      </trkpt>
      <trkpt lat="49.66275" lon="6.55984">
        <ele>140.3</ele>
      </trkpt>
      <trkpt lat="49.66299" lon="6.55983">
        <ele>141.3</ele>
      </trkpt>
      <trkpt lat="49.66305" lon="6.55875">
        <ele>140.8</ele>
      </trkpt>
      <trkpt lat="49.66311" lon="6.55768">
        <ele>139.1</ele>
      </trkpt>
      <trkpt lat="49.663" lon="6.55755">
        <ele>138.7</ele>
      </trkpt>
      <trkpt lat="49.663" lon="6.55657">
        <ele>137.5</ele>
      </trkpt>
      <trkpt lat="49.66301" lon="6.5565">
        <ele>137.6</ele>
      </trkpt>
      <trkpt lat="49.66304" lon="6.55643">
        <ele>137.6</ele>
      </trkpt>
      <trkpt lat="49.66372" lon="6.55629">
        <ele>135.4</ele>
      </trkpt>
      <trkpt lat="49.664" lon="6.55622">
        <ele>133.8</ele>
      </trkpt>
      <trkpt lat="49.66427" lon="6.55612">
        <ele>132.7</ele>
      </trkpt>
      <trkpt lat="49.66438" lon="6.55609">
        <ele>132.7</ele>
      </trkpt>
      <trkpt lat="49.66477" lon="6.55604">
        <ele>132.7</ele>
      </trkpt>
      <trkpt lat="49.6654" lon="6.55606">
        <ele>134.0</ele>
      </trkpt>
      <trkpt lat="49.66586" lon="6.5561">
        <ele>135.2</ele>
      </trkpt>
      <trkpt lat="49.66631" lon="6.55617">
        <ele>134.0</ele>
      </trkpt>
      <trkpt lat="49.66677" lon="6.55625">
        <ele>133.5</ele>
      </trkpt>
      <trkpt lat="49.66713" lon="6.55633">
        <ele>133.8</ele>
      </trkpt>
      <trkpt lat="49.66777" lon="6.55656">
        <ele>133.6</ele>
      </trkpt>
      <trkpt lat="49.66843" lon="6.55687">
        <ele>133.7</ele>
      </trkpt>
      <trkpt lat="49.66873" lon="6.55704">
        <ele>134.0</ele>
      </trkpt>
      <trkpt lat="49.66903" lon="6.55723">
        <ele>133.6</ele>
      </trkpt>
      <trkpt lat="49.66931" lon="6.55744">
        <ele>132.8</ele>
      </trkpt>
      <trkpt lat="49.66949" lon="6.55758">
        <ele>132.2</ele>
      </trkpt>
      <trkpt lat="49.66989" lon="6.55788">
        <ele>131.3</ele>
      </trkpt>
      <trkpt lat="49.67011" lon="6.55807">
        <ele>131.5</ele>
      </trkpt>
      <trkpt lat="49.67052" lon="6.55847">
        <ele>133.0</ele>
      </trkpt>
      <trkpt lat="49.67052" lon="6.55847">
        <ele>133.0</ele>
      </trkpt>
      <trkpt lat="49.67067" lon="6.55859">
        <ele>133.3</ele>
      </trkpt>
      <trkpt lat="49.67113" lon="6.55903">
        <ele>133.6</ele>
      </trkpt>
      <trkpt lat="49.67132" lon="6.55919">
        <ele>133.6</ele>
      </trkpt>
      <trkpt lat="49.67187" lon="6.55963">
        <ele>133.8</ele>
      </trkpt>
      <trkpt lat="49.67221" lon="6.55987">
        <ele>134.4</ele>
      </trkpt>
      <trkpt lat="49.67243" lon="6.56016">
        <ele>135.2</ele>
      </trkpt>
      <trkpt lat="49.67264" lon="6.56039">
        <ele>135.7</ele>
      </trkpt>
      <trkpt lat="49.67277" lon="6.56051">
        <ele>135.6</ele>
      </trkpt>
      <trkpt lat="49.67297" lon="6.56067">
        <ele>135.2</ele>
      </trkpt>
      <trkpt lat="49.67341" lon="6.56107">
        <ele>134.6</ele>
      </trkpt>
      <trkpt lat="49.67395" lon="6.56154">
        <ele>134.6</ele>
      </trkpt>
      <trkpt lat="49.67411" lon="6.56166">
        <ele>134.1</ele>
      </trkpt>
      <trkpt lat="49.6743" lon="6.56177">
        <ele>134.3</ele>
      </trkpt>
      <trkpt lat="49.67442" lon="6.56186">
        <ele>134.6</ele>
      </trkpt>
      <trkpt lat="49.67456" lon="6.56198">
        <ele>134.7</ele>
      </trkpt>
      <trkpt lat="49.67468" lon="6.56213">
        <ele>134.7</ele>
      </trkpt>
      <trkpt lat="49.67482" lon="6.5623">
        <ele>134.5</ele>
      </trkpt>
      <trkpt lat="49.67553" lon="6.56285">
        <ele>134.0</ele>
      </trkpt>
      <trkpt lat="49.67582" lon="6.56311">
        <ele>133.3</ele>
      </trkpt>
      <trkpt lat="49.67606" lon="6.56331">
        <ele>133.6</ele>
      </trkpt>
      <trkpt lat="49.67634" lon="6.56351">
        <ele>135.1</ele>
      </trkpt>
      <trkpt lat="49.67647" lon="6.56363">
        <ele>135.7</ele>
      </trkpt>
      <trkpt lat="49.67663" lon="6.5638">
        <ele>136.2</ele>
      </trkpt>
      <trkpt lat="49.6772" lon="6.56425">
        <ele>136.0</ele>
      </trkpt>
      <trkpt lat="49.67783" lon="6.56468">
        <ele>137.2</ele>
      </trkpt>
      <trkpt lat="49.67825" lon="6.56491">
        <ele>136.3</ele>
      </trkpt>
      <trkpt lat="49.67879" lon="6.56516">
        <ele>137.4</ele>
      </trkpt>
      <trkpt lat="49.67933" lon="6.56541">
        <ele>139.1</ele>
      </trkpt>
      <trkpt lat="49.68017" lon="6.56577">
        <ele>139.9</ele>
      </trkpt>
      <trkpt lat="49.681" lon="6.56613">
        <ele>139.9</ele>
      </trkpt>
      <trkpt lat="49.68184" lon="6.56649">
        <ele>141.7</ele>
      </trkpt>
      <trkpt lat="49.68272" lon="6.56674">
        <ele>143.6</ele>
      </trkpt>
      <trkpt lat="49.68305" lon="6.5668">
        <ele>145.1</ele>
      </trkpt>
      <trkpt lat="49.68376" lon="6.56684">
        <ele>143.9</ele>
      </trkpt>
      <trkpt lat="49.68451" lon="6.56683">
        <ele>142.9</ele>
      </trkpt>
      <trkpt lat="49.68526" lon="6.56682">
        <ele>144.7</ele>
      </trkpt>
      <trkpt lat="49.68601" lon="6.56681">
        <ele>144.8</ele>
      </trkpt>
      <trkpt lat="49.68646" lon="6.56677">
        <ele>140.7</ele>
      </trkpt>
      <trkpt lat="49.68695" lon="6.56677">
        <ele>139.2</ele>
      </trkpt>
      <trkpt lat="49.68735" lon="6.56675">
        <ele>138.4</ele>
      </trkpt>
      <trkpt lat="49.6882" lon="6.56674">
        <ele>137.0</ele>
      </trkpt>
      <trkpt lat="49.68842" lon="6.56675">
        <ele>136.9</ele>
      </trkpt>
      <trkpt lat="49.68879" lon="6.56679">
        <ele>137.3</ele>
      </trkpt>
      <trkpt lat="49.68898" lon="6.56682">
        <ele>137.6</ele>
      </trkpt>
      <trkpt lat="49.68969" lon="6.567">
        <ele>139.8</ele>
      </trkpt>
      <trkpt lat="49.6904" lon="6.56718">
        <ele>138.7</ele>
      </trkpt>
      <trkpt lat="49.69117" lon="6.56746">
        <ele>135.8</ele>
      </trkpt>
      <trkpt lat="49.69143" lon="6.56759">
        <ele>135.3</ele>
      </trkpt>
      <trkpt lat="49.69188" lon="6.56787">
        <ele>134.4</ele>
      </trkpt>
      <trkpt lat="49.69235" lon="6.56819">
        <ele>132.8</ele>
      </trkpt>
      <trkpt lat="49.69282" lon="6.56852">
        <ele>131.2</ele>
      </trkpt>
      <trkpt lat="49.69349" lon="6.56899">
        <ele>131.1</ele>
      </trkpt>
      <trkpt lat="49.69371" lon="6.56919">
        <ele>132.1</ele>
      </trkpt>
      <trkpt lat="49.69372" lon="6.56924">
        <ele>132.4</ele>
      </trkpt>
      <trkpt lat="49.69434" lon="6.56965">
        <ele>133.3</ele>
      </trkpt>
      <trkpt lat="49.69458" lon="6.56978">
        <ele>133.0</ele>
      </trkpt>
      <trkpt lat="49.6946" lon="6.56976">
        <ele>132.9</ele>
      </trkpt>
      <trkpt lat="49.69532" lon="6.57004">
        <ele>131.0</ele>
      </trkpt>
      <trkpt lat="49.69579" lon="6.57021">
        <ele>131.0</ele>
      </trkpt>
      <trkpt lat="49.69589" lon="6.57027">
        <ele>131.0</ele>
      </trkpt>
      <trkpt lat="49.69592" lon="6.57031">
        <ele>131.0</ele>
      </trkpt>
      <trkpt lat="49.69593" lon="6.57031">
        <ele>131.0</ele>
      </trkpt>
      <trkpt lat="49.696" lon="6.57033">
        <ele>131.0</ele>
      </trkpt>
      <trkpt lat="49.69611" lon="6.57035">
        <ele>131.0</ele>
      </trkpt>
      <trkpt lat="49.69613" lon="6.57032">
        <ele>131.0</ele>
      </trkpt>
      <trkpt lat="49.69633" lon="6.57031">
        <ele>131.1</ele>
      </trkpt>
      <trkpt lat="49.69656" lon="6.57037">
        <ele>131.6</ele>
      </trkpt>
      <trkpt lat="49.69658" lon="6.57041">
        <ele>131.9</ele>
      </trkpt>
      <trkpt lat="49.69672" lon="6.57042">
        <ele>132.0</ele>
      </trkpt>
      <trkpt lat="49.6971" lon="6.5704">
        <ele>131.4</ele>
      </trkpt>
      <trkpt lat="49.6972" lon="6.57041">
        <ele>131.3</ele>
      </trkpt>
      <trkpt lat="49.69739" lon="6.57042">
        <ele>131.2</ele>
      </trkpt>
      <trkpt lat="49.69796" lon="6.57042">
        <ele>131.0</ele>
      </trkpt>
      <trkpt lat="49.69874" lon="6.57036">
        <ele>130.9</ele>
      </trkpt>
      <trkpt lat="49.69937" lon="6.57036">
        <ele>129.8</ele>
      </trkpt>
      <trkpt lat="49.69996" lon="6.5704">
        <ele>127.0</ele>
      </trkpt>
      <trkpt lat="49.70031" lon="6.57048">
        <ele>130.5</ele>
      </trkpt>
      <trkpt lat="49.70082" lon="6.57061">
        <ele>135.2</ele>
      </trkpt>
      <trkpt lat="49.70133" lon="6.57082">
        <ele>131.4</ele>
      </trkpt>
      <trkpt lat="49.70174" lon="6.57104">
        <ele>128.8</ele>
      </trkpt>
      <trkpt lat="49.70212" lon="6.57128">
        <ele>125.4</ele>
      </trkpt>
      <trkpt lat="49.70247" lon="6.57157">
        <ele>126.4</ele>
      </trkpt>
      <trkpt lat="49.70288" lon="6.57194">
        <ele>122.6</ele>
      </trkpt>
      <trkpt lat="49.7033" lon="6.57231">
        <ele>124.9</ele>
      </trkpt>
      <trkpt lat="49.70401" lon="6.57308">
        <ele>127.5</ele>
      </trkpt>
      <trkpt lat="49.70469" lon="6.57389">
        <ele>130.5</ele>
      </trkpt>
      <trkpt lat="49.70501" lon="6.57428">
        <ele>130.2</ele>
      </trkpt>
      <trkpt lat="49.70534" lon="6.57475">
        <ele>130.5</ele>
      </trkpt>
      <trkpt lat="49.70568" lon="6.57523">
        <ele>130.3</ele>
      </trkpt>
      <trkpt lat="49.70573" lon="6.57535">
        <ele>130.2</ele>
      </trkpt>
      <trkpt lat="49.70573" lon="6.57544">
        <ele>130.2</ele>
      </trkpt>
      <trkpt lat="49.7057" lon="6.57565">
        <ele>130.2</ele>
      </trkpt>
      <trkpt lat="49.70545" lon="6.57599">
        <ele>130.3</ele>
      </trkpt>
      <trkpt lat="49.70537" lon="6.57589">
        <ele>130.5</ele>
      </trkpt>
      <trkpt lat="49.70527" lon="6.57569">
        <ele>130.8</ele>
      </trkpt>
      <trkpt lat="49.70521" lon="6.57553">
        <ele>131.0</ele>
      </trkpt>
      <trkpt lat="49.70516" lon="6.57534">
        <ele>131.3</ele>
      </trkpt>
      <trkpt lat="49.70512" lon="6.57512">
        <ele>131.6</ele>
      </trkpt>
      <trkpt lat="49.70507" lon="6.575">
        <ele>131.8</ele>
      </trkpt>
      <trkpt lat="49.705" lon="6.57491">
        <ele>131.8</ele>
      </trkpt>
      <trkpt lat="49.70493" lon="6.57488">
        <ele>131.9</ele>
      </trkpt>
      <trkpt lat="49.70483" lon="6.57488">
        <ele>132.1</ele>
      </trkpt>
      <trkpt lat="49.70474" lon="6.57494">
        <ele>132.5</ele>
      </trkpt>
      <trkpt lat="49.70468" lon="6.57501">
        <ele>132.8</ele>
      </trkpt>
      <trkpt lat="49.70464" lon="6.57495">
        <ele>132.7</ele>
      </trkpt>
      <trkpt lat="49.70464" lon="6.57488">
        <ele>132.6</ele>
      </trkpt>
      <trkpt lat="49.70493" lon="6.57428">
        <ele>132.7</ele>
      </trkpt>
      <trkpt lat="49.70532" lon="6.57351">
        <ele>132.9</ele>
      </trkpt>
      <trkpt lat="49.7057" lon="6.57274">
        <ele>133.0</ele>
      </trkpt>
      <trkpt lat="49.70608" lon="6.57197">
        <ele>133.2</ele>
      </trkpt>
      <trkpt lat="49.70623" lon="6.57172">
        <ele>133.3</ele>
      </trkpt>
      <trkpt lat="49.70654" lon="6.57141">
        <ele>134.6</ele>
      </trkpt>
      <trkpt lat="49.70672" lon="6.57125">
        <ele>135.5</ele>
      </trkpt>
      <trkpt lat="49.70676" lon="6.57126">
        <ele>135.5</ele>
      </trkpt>
      <trkpt lat="49.70662" lon="6.57146">
        <ele>134.6</ele>
      </trkpt>
      <trkpt lat="49.70647" lon="6.57169">
        <ele>133.7</ele>
      </trkpt>
      <trkpt lat="49.70626" lon="6.57211">
        <ele>131.7</ele>
      </trkpt>
      <trkpt lat="49.70635" lon="6.57212">
        <ele>131.8</ele>
      </trkpt>
      <trkpt lat="49.70655" lon="6.57223">
        <ele>131.7</ele>
      </trkpt>
      <trkpt lat="49.70666" lon="6.57233">
        <ele>131.6</ele>
      </trkpt>
      <trkpt lat="49.70679" lon="6.5725">
        <ele>131.0</ele>
      </trkpt>
      <trkpt lat="49.70694" lon="6.57272">
        <ele>131.4</ele>
      </trkpt>
      <trkpt lat="49.70716" lon="6.57312">
        <ele>132.0</ele>
      </trkpt>
      <trkpt lat="49.70716" lon="6.57312">
        <ele>132.0</ele>
      </trkpt>
      <trkpt lat="49.70757" lon="6.57386">
        <ele>132.7</ele>
      </trkpt>
      <trkpt lat="49.70795" lon="6.5746">
        <ele>132.7</ele>
      </trkpt>
      <trkpt lat="49.7084" lon="6.57559">
        <ele>133.3</ele>
      </trkpt>
      <trkpt lat="49.70867" lon="6.57629">
        <ele>131.0</ele>
      </trkpt>
      <trkpt lat="49.70896" lon="6.57706">
        <ele>130.5</ele>
      </trkpt>
      <trkpt lat="49.70924" lon="6.57784">
        <ele>133.1</ele>
      </trkpt>
      <trkpt lat="49.70951" lon="6.57863">
        <ele>132.1</ele>
      </trkpt>
      <trkpt lat="49.70976" lon="6.57934">
        <ele>130.3</ele>
      </trkpt>
      <trkpt lat="49.70989" lon="6.57983">
        <ele>129.3</ele>
      </trkpt>
      <trkpt lat="49.71013" lon="6.58063">
        <ele>127.6</ele>
      </trkpt>
      <trkpt lat="49.71051" lon="6.58172">
        <ele>128.5</ele>
      </trkpt>
      <trkpt lat="49.71081" lon="6.58253">
        <ele>132.7</ele>
      </trkpt>
      <trkpt lat="49.71127" lon="6.58369">
        <ele>132.5</ele>
      </trkpt>
      <trkpt lat="49.71171" lon="6.58485">
        <ele>130.3</ele>
      </trkpt>
      <trkpt lat="49.71192" lon="6.58549">
        <ele>132.0</ele>
      </trkpt>
      <trkpt lat="49.71213" lon="6.58614">
        <ele>132.0</ele>
      </trkpt>
      <trkpt lat="49.71233" lon="6.58677">
        <ele>131.3</ele>
      </trkpt>
      <trkpt lat="49.71253" lon="6.58741">
        <ele>132.1</ele>
      </trkpt>
      <trkpt lat="49.71255" lon="6.58754">
        <ele>131.8</ele>
      </trkpt>
      <trkpt lat="49.71281" lon="6.58836">
        <ele>129.9</ele>
      </trkpt>
      <trkpt lat="49.71284" lon="6.58845">
        <ele>129.7</ele>
      </trkpt>
      <trkpt lat="49.71314" lon="6.58942">
        <ele>127.5</ele>
      </trkpt>
      <trkpt lat="49.71344" lon="6.5904">
        <ele>129.4</ele>
      </trkpt>
      <trkpt lat="49.71375" lon="6.59138">
        <ele>131.8</ele>
      </trkpt>
      <trkpt lat="49.71412" lon="6.59263">
        <ele>133.0</ele>
      </trkpt>
      <trkpt lat="49.7145" lon="6.59388">
        <ele>132.2</ele>
      </trkpt>
      <trkpt lat="49.71488" lon="6.59513">
        <ele>132.6</ele>
      </trkpt>
      <trkpt lat="49.71526" lon="6.59638">
        <ele>131.4</ele>
      </trkpt>
      <trkpt lat="49.71563" lon="6.59763">
        <ele>132.4</ele>
      </trkpt>
      <trkpt lat="49.71601" lon="6.59888">
        <ele>130.7</ele>
      </trkpt>
      <trkpt lat="49.7164" lon="6.60013">
        <ele>130.2</ele>
      </trkpt>
      <trkpt lat="49.71672" lon="6.59975">
        <ele>131.7</ele>
      </trkpt>
      <trkpt lat="49.71681" lon="6.60049">
        <ele>132.6</ele>
      </trkpt>
      <trkpt lat="49.71687" lon="6.60087">
        <ele>133.0</ele>
      </trkpt>
      <trkpt lat="49.71704" lon="6.60146">
        <ele>133.8</ele>
      </trkpt>
      <trkpt lat="49.71721" lon="6.60201">
        <ele>133.4</ele>
      </trkpt>
      <trkpt lat="49.71736" lon="6.60238">
        <ele>133.9</ele>
      </trkpt>
      <trkpt lat="49.71756" lon="6.60273">
        <ele>134.4</ele>
      </trkpt>
      <trkpt lat="49.71759" lon="6.60287">
        <ele>134.1</ele>
      </trkpt>
      <trkpt lat="49.71764" lon="6.60366">
        <ele>132.5</ele>
      </trkpt>
      <trkpt lat="49.71774" lon="6.60417">
        <ele>131.3</ele>
      </trkpt>
      <trkpt lat="49.71786" lon="6.60457">
        <ele>130.3</ele>
      </trkpt>
      <trkpt lat="49.718" lon="6.60467">
        <ele>130.6</ele>
      </trkpt>
      <trkpt lat="49.71816" lon="6.60476">
        <ele>131.2</ele>
      </trkpt>
      <trkpt lat="49.71848" lon="6.60487">
        <ele>132.3</ele>
      </trkpt>
      <trkpt lat="49.71862" lon="6.60494">
        <ele>132.7</ele>
      </trkpt>
      <trkpt lat="49.71868" lon="6.605">
        <ele>132.8</ele>
      </trkpt>
      <trkpt lat="49.71878" lon="6.60513">
        <ele>132.8</ele>
      </trkpt>
      <trkpt lat="49.71884" lon="6.60526">
        <ele>132.6</ele>
      </trkpt>
      <trkpt lat="49.71923" lon="6.60627">
        <ele>130.5</ele>
      </trkpt>
      <trkpt lat="49.71962" lon="6.60729">
        <ele>131.4</ele>
      </trkpt>
      <trkpt lat="49.71975" lon="6.60746">
        <ele>132.0</ele>
      </trkpt>
      <trkpt lat="49.71985" lon="6.60752">
        <ele>132.4</ele>
      </trkpt>
      <trkpt lat="49.72048" lon="6.60764">
        <ele>133.3</ele>
      </trkpt>
      <trkpt lat="49.72057" lon="6.6077">
        <ele>133.3</ele>
      </trkpt>
      <trkpt lat="49.72063" lon="6.60776">
        <ele>133.2</ele>
      </trkpt>
      <trkpt lat="49.72069" lon="6.60786">
        <ele>133.0</ele>
      </trkpt>
      <trkpt lat="49.72116" lon="6.60887">
        <ele>132.0</ele>
      </trkpt>
      <trkpt lat="49.72163" lon="6.60988">
        <ele>130.1</ele>
      </trkpt>
      <trkpt lat="49.72207" lon="6.61071">
        <ele>133.7</ele>
      </trkpt>
      <trkpt lat="49.72252" lon="6.61149">
        <ele>133.4</ele>
      </trkpt>
      <trkpt lat="49.72298" lon="6.61224">
        <ele>132.6</ele>
      </trkpt>
      <trkpt lat="49.72346" lon="6.6129">
        <ele>131.2</ele>
      </trkpt>
      <trkpt lat="49.72394" lon="6.61357">
        <ele>130.5</ele>
      </trkpt>
      <trkpt lat="49.72448" lon="6.61425">
        <ele>132.6</ele>
      </trkpt>
      <trkpt lat="49.72489" lon="6.6147">
        <ele>134.1</ele>
      </trkpt>
      <trkpt lat="49.7253" lon="6.61516">
        <ele>134.1</ele>
      </trkpt>
      <trkpt lat="49.7257" lon="6.61556">
        <ele>133.6</ele>
      </trkpt>
      <trkpt lat="49.72612" lon="6.61597">
        <ele>132.9</ele>
      </trkpt>
      <trkpt lat="49.72635" lon="6.61617">
        <ele>132.7</ele>
      </trkpt>
      <trkpt lat="49.72688" lon="6.61661">
        <ele>132.1</ele>
      </trkpt>
      <trkpt lat="49.72704" lon="6.61676">
        <ele>131.9</ele>
      </trkpt>
      <trkpt lat="49.72715" lon="6.61684">
        <ele>131.9</ele>
      </trkpt>
      <trkpt lat="49.7273" lon="6.61687">
        <ele>131.8</ele>
      </trkpt>
      <trkpt lat="49.7274" lon="6.61694">
        <ele>131.7</ele>
      </trkpt>
      <trkpt lat="49.72738" lon="6.61699">
        <ele>131.7</ele>
      </trkpt>
      <trkpt lat="49.72739" lon="6.61708">
        <ele>131.6</ele>
      </trkpt>
      <trkpt lat="49.7274" lon="6.6171">
        <ele>131.5</ele>
      </trkpt>
      <trkpt lat="49.72744" lon="6.61713">
        <ele>131.5</ele>
      </trkpt>
      <trkpt lat="49.72725" lon="6.61751">
        <ele>131.3</ele>
      </trkpt>
      <trkpt lat="49.72686" lon="6.61816">
        <ele>132.7</ele>
      </trkpt>
      <trkpt lat="49.72692" lon="6.61829">
        <ele>132.9</ele>
      </trkpt>
      <trkpt lat="49.72708" lon="6.61849">
        <ele>133.1</ele>
      </trkpt>
      <trkpt lat="49.7272" lon="6.61861">
        <ele>133.2</ele>
      </trkpt>
      <trkpt lat="49.72739" lon="6.61877">
        <ele>133.5</ele>
      </trkpt>
      <trkpt lat="49.72749" lon="6.61881">
        <ele>133.6</ele>
      </trkpt>
      <trkpt lat="49.72793" lon="6.61922">
        <ele>133.8</ele>
      </trkpt>
      <trkpt lat="49.72837" lon="6.61962">
        <ele>131.8</ele>
      </trkpt>
      <trkpt lat="49.72856" lon="6.61979">
        <ele>130.9</ele>
      </trkpt>
      <trkpt lat="49.7286" lon="6.62005">
        <ele>130.0</ele>
      </trkpt>
      <trkpt lat="49.72856" lon="6.62022">
        <ele>130.1</ele>
      </trkpt>
      <trkpt lat="49.72839" lon="6.62062">
        <ele>130.1</ele>
      </trkpt>
      <trkpt lat="49.72837" lon="6.62082">
        <ele>130.0</ele>
      </trkpt>
      <trkpt lat="49.72909" lon="6.62135">
        <ele>130.3</ele>
      </trkpt>
      <trkpt lat="49.72967" lon="6.62174">
        <ele>130.9</ele>
      </trkpt>
      <trkpt lat="49.73026" lon="6.62214">
        <ele>130.0</ele>
      </trkpt>
      <trkpt lat="49.73057" lon="6.62237">
        <ele>129.3</ele>
      </trkpt>
      <trkpt lat="49.7313" lon="6.6229">
        <ele>128.1</ele>
      </trkpt>
      <trkpt lat="49.73203" lon="6.62343">
        <ele>129.1</ele>
      </trkpt>
      <trkpt lat="49.73269" lon="6.62392">
        <ele>130.6</ele>
      </trkpt>
      <trkpt lat="49.73279" lon="6.62397">
        <ele>130.8</ele>
      </trkpt>
      <trkpt lat="49.7331" lon="6.62398">
        <ele>131.4</ele>
      </trkpt>
      <trkpt lat="49.73327" lon="6.62408">
        <ele>132.3</ele>
      </trkpt>
      <trkpt lat="49.73385" lon="6.62442">
        <ele>133.8</ele>
      </trkpt>
      <trkpt lat="49.73446" lon="6.62485">
        <ele>134.8</ele>
      </trkpt>
      <trkpt lat="49.73493" lon="6.62505">
        <ele>133.8</ele>
      </trkpt>
      <trkpt lat="49.73525" lon="6.62514">
        <ele>133.1</ele>
      </trkpt>
      <trkpt lat="49.73552" lon="6.6252">
        <ele>132.4</ele>
      </trkpt>
      <trkpt lat="49.7364" lon="6.62533">
        <ele>131.0</ele>
      </trkpt>
      <trkpt lat="49.73728" lon="6.62538">
        <ele>129.6</ele>
      </trkpt>
      <trkpt lat="49.73789" lon="6.6254">
        <ele>127.4</ele>
      </trkpt>
      <trkpt lat="49.73849" lon="6.62542">
        <ele>125.0</ele>
      </trkpt>
      <trkpt lat="49.7391" lon="6.62549">
        <ele>122.7</ele>
      </trkpt>
      <trkpt lat="49.73956" lon="6.62548">
        <ele>122.9</ele>
      </trkpt>
      <trkpt lat="49.74002" lon="6.62547">
        <ele>123.4</ele>
      </trkpt>
      <trkpt lat="49.7406" lon="6.62544">
        <ele>125.6</ele>
      </trkpt>
      <trkpt lat="49.74118" lon="6.6254">
        <ele>127.0</ele>
      </trkpt>
      <trkpt lat="49.74118" lon="6.6254">
        <ele>127.0</ele>
      </trkpt>
      <trkpt lat="49.74194" lon="6.62535">
        <ele>128.7</ele>
      </trkpt>
      <trkpt lat="49.7428" lon="6.62536">
        <ele>130.2</ele>
      </trkpt>
      <trkpt lat="49.74313" lon="6.62536">
        <ele>129.8</ele>
      </trkpt>
      <trkpt lat="49.74344" lon="6.62532">
        <ele>130.0</ele>
      </trkpt>
      <trkpt lat="49.74405" lon="6.62521">
        <ele>132.1</ele>
      </trkpt>
      <trkpt lat="49.74465" lon="6.62511">
        <ele>130.1</ele>
      </trkpt>
      <trkpt lat="49.74534" lon="6.62503">
        <ele>130.1</ele>
      </trkpt>
      <trkpt lat="49.74607" lon="6.62497">
        <ele>130.8</ele>
      </trkpt>
      <trkpt lat="49.74623" lon="6.62497">
        <ele>129.3</ele>
      </trkpt>
      <trkpt lat="49.74677" lon="6.6249">
        <ele>126.4</ele>
      </trkpt>
      <trkpt lat="49.74714" lon="6.62489">
        <ele>128.9</ele>
      </trkpt>
      <trkpt lat="49.74747" lon="6.62486">
        <ele>131.1</ele>
      </trkpt>
      <trkpt lat="49.74779" lon="6.62486">
        <ele>131.5</ele>
      </trkpt>
      <trkpt lat="49.74856" lon="6.62493">
        <ele>131.9</ele>
      </trkpt>
      <trkpt lat="49.74932" lon="6.62499">
        <ele>132.2</ele>
      </trkpt>
      <trkpt lat="49.75009" lon="6.62506">
        <ele>132.8</ele>
      </trkpt>
      <trkpt lat="49.75078" lon="6.62509">
        <ele>133.6</ele>
      </trkpt>
      <trkpt lat="49.75111" lon="6.62505">
        <ele>133.8</ele>
      </trkpt>
      <trkpt lat="49.75177" lon="6.62516">
        <ele>133.3</ele>
      </trkpt>
      <trkpt lat="49.75248" lon="6.62527">
        <ele>132.1</ele>
      </trkpt>
      <trkpt lat="49.75287" lon="6.62532">
        <ele>132.2</ele>
      </trkpt>
      <trkpt lat="49.75332" lon="6.6254">
        <ele>132.1</ele>
      </trkpt>
      <trkpt lat="49.75377" lon="6.62549">
        <ele>131.9</ele>
      </trkpt>
      <trkpt lat="49.75428" lon="6.62555">
        <ele>131.8</ele>
      </trkpt>
      <trkpt lat="49.75478" lon="6.62566">
        <ele>130.6</ele>
      </trkpt>
      <trkpt lat="49.7553" lon="6.62585">
        <ele>130.2</ele>
      </trkpt>
      <trkpt lat="49.75581" lon="6.62605">
        <ele>129.7</ele>
      </trkpt>
      <trkpt lat="49.75638" lon="6.62624">
        <ele>128.2</ele>
      </trkpt>
      <trkpt lat="49.75695" lon="6.62644">
        <ele>127.8</ele>
      </trkpt>
      <trkpt lat="49.75753" lon="6.62664">
        <ele>128.2</ele>
      </trkpt>
      <trkpt lat="49.75758" lon="6.62664">
        <ele>128.4</ele>
      </trkpt>
      <trkpt lat="49.75824" lon="6.6268">
        <ele>130.5</ele>
      </trkpt>
      <trkpt lat="49.75871" lon="6.62693">
        <ele>131.0</ele>
      </trkpt>
      <trkpt lat="49.75921" lon="6.62712">
        <ele>130.4</ele>
      </trkpt>
      <trkpt lat="49.75971" lon="6.62732">
        <ele>130.8</ele>
      </trkpt>
      <trkpt lat="49.76013" lon="6.62753">
        <ele>131.1</ele>
      </trkpt>
      <trkpt lat="49.76081" lon="6.6279">
        <ele>131.0</ele>
      </trkpt>
      <trkpt lat="49.76148" lon="6.62827">
        <ele>131.0</ele>
      </trkpt>
      <trkpt lat="49.76215" lon="6.62864">
        <ele>130.3</ele>
      </trkpt>
      <trkpt lat="49.76252" lon="6.62893">
        <ele>130.7</ele>
      </trkpt>
      <trkpt lat="49.76257" lon="6.6288">
        <ele>130.8</ele>
      </trkpt>
      <trkpt lat="49.76261" lon="6.62867">
        <ele>130.9</ele>
      </trkpt>
      <trkpt lat="49.76305" lon="6.62901">
        <ele>131.5</ele>
      </trkpt>
      <trkpt lat="49.76307" lon="6.62893">
        <ele>132.2</ele>
      </trkpt>
      <trkpt lat="49.76392" lon="6.62926">
        <ele>138.7</ele>
      </trkpt>
      <trkpt lat="49.76478" lon="6.62959">
        <ele>150.5</ele>
      </trkpt>
      <trkpt lat="49.76494" lon="6.62969">
        <ele>151.4</ele>
      </trkpt>
      <trkpt lat="49.76498" lon="6.62985">
        <ele>148.3</ele>
      </trkpt>
      <trkpt lat="49.76491" lon="6.62985">
        <ele>147.9</ele>
      </trkpt>
      <trkpt lat="49.76492" lon="6.62992">
        <ele>147.6</ele>
      </trkpt>
      <trkpt lat="49.76491" lon="6.62996">
        <ele>147.5</ele>
      </trkpt>
      <trkpt lat="49.76491" lon="6.62996">
        <ele>147.5</ele>
      </trkpt>
      <trkpt lat="49.7649" lon="6.63003">
        <ele>147.2</ele>
      </trkpt>
      <trkpt lat="49.76448" lon="6.63122">
        <ele>142.3</ele>
      </trkpt>
      <trkpt lat="49.76406" lon="6.6324">
        <ele>137.5</ele>
      </trkpt>
      <trkpt lat="49.76364" lon="6.63359">
        <ele>132.7</ele>
      </trkpt>
      <trkpt lat="49.7636" lon="6.63366">
        <ele>132.3</ele>
      </trkpt>
      <trkpt lat="49.76354" lon="6.63371">
        <ele>132.0</ele>
      </trkpt>
      <trkpt lat="49.76352" lon="6.63372">
        <ele>131.8</ele>
      </trkpt>
      <trkpt lat="49.76353" lon="6.63377">
        <ele>131.7</ele>
      </trkpt>
      <trkpt lat="49.76356" lon="6.63396">
        <ele>131.0</ele>
      </trkpt>
      <trkpt lat="49.76364" lon="6.634">
        <ele>130.6</ele>
      </trkpt>
      <trkpt lat="49.7637" lon="6.63402">
        <ele>130.3</ele>
      </trkpt>
      <trkpt lat="49.76374" lon="6.6342">
        <ele>130.7</ele>
      </trkpt>
      <trkpt lat="49.76383" lon="6.6342">
        <ele>130.1</ele>
      </trkpt>
      <trkpt lat="49.76409" lon="6.63423">
        <ele>128.8</ele>
      </trkpt>
      <trkpt lat="49.76451" lon="6.63431">
        <ele>124.4</ele>
      </trkpt>
      <trkpt lat="49.76459" lon="6.63428">
        <ele>123.2</ele>
      </trkpt>
      <trkpt lat="49.76475" lon="6.63441">
        <ele>122.0</ele>
      </trkpt>
      <trkpt lat="49.76505" lon="6.63474">
        <ele>120.8</ele>
      </trkpt>
      <trkpt lat="49.76535" lon="6.63511">
        <ele>122.6</ele>
      </trkpt>
      <trkpt lat="49.7657" lon="6.6356">
        <ele>124.3</ele>
      </trkpt>
      <trkpt lat="49.76604" lon="6.6361">
        <ele>127.3</ele>
      </trkpt>
      <trkpt lat="49.76626" lon="6.6366">
        <ele>128.7</ele>
      </trkpt>
      <trkpt lat="49.7663" lon="6.63678">
        <ele>128.8</ele>
      </trkpt>
      <trkpt lat="49.76675" lon="6.63726">
        <ele>127.8</ele>
      </trkpt>
      <trkpt lat="49.76725" lon="6.63791">
        <ele>128.0</ele>
      </trkpt>
      <trkpt lat="49.7674" lon="6.63812">
        <ele>128.4</ele>
      </trkpt>
      <trkpt lat="49.76753" lon="6.63836">
        <ele>129.0</ele>
      </trkpt>
    </trkseg>
  </trk>
</gpx>
