<?xml version="1.0" encoding="UTF-8"?>
<gpx xmlns:gpxdata="http://www.cluetrust.com/XML/GPXDATA/1/0" xmlns:xsi="http://www.w3.org/2001/XMLSchema-instance" xmlns="http://www.topografix.com/GPX/1/1" version="1.1" creator="http://ridewithgps.com/" xsi:schemaLocation="http://www.topografix.com/GPX/1/1 http://www.topografix.com/GPX/1/1/gpx.xsd http://www.cluetrust.com/XML/GPXDATA/1/0 http://www.cluetrust.com/Schemas/gpxdata10.xsd">
  <metadata>
    <name>Zell - Cochem 37 km ENG 2026</name>
    <link href="https://ridewithgps.com/routes/29339437">
      <text>Zell - Cochem 37 km ENG 2026</text>
    </link>
    <time>2019-02-16T21:05:25Z</time>
  </metadata>
  <wpt lat="50.11075468674329" lon="7.236526774212905">
    <name>Ferry to Beilstein</name>
    <cmt>transit</cmt>
    <sym>Dot</sym>
    <type>transport</type>
  </wpt>
  <wpt lat="50.110912903194965" lon="7.238853015528068">
    <name>Park the bikes</name>
    <cmt>bike_parking</cmt>
    <sym>Dot</sym>
    <type>service</type>
  </wpt>
  <wpt lat="50.100306011057" lon="7.119124989254345">
    <name>Take a detour to the steepest wine ranks, with a beautifull viewpoint</name>
    <cmt>segment_start</cmt>
    <desc>Navigate Bremmer-Calmont</desc>
    <sym>Dot</sym>
    <type>generic</type>
  </wpt>
  <wpt lat="50.14393006952153" lon="7.169277137015854">
    <name>Docking Cochem</name>
    <cmt>lodging</cmt>
    <sym>Dot</sym>
    <type>shelter</type>
  </wpt>
  <wpt lat="50.110166912017604" lon="7.239167054916152">
    <name>Beilstein </name>
    <cmt>generic</cmt>
    <sym>Dot</sym>
    <type>generic</type>
  </wpt>
  <wpt lat="50.093882396479984" lon="7.158644894017044">
    <name>Cafes Ediger-Eller</name>
    <cmt>coffee</cmt>
    <sym>Dot</sym>
    <type>food</type>
  </wpt>
  <wpt lat="50.0942140144382" lon="7.157884018656082">
    <name>Ediger-Eller toilet en picknick spot</name>
    <cmt>restroom</cmt>
    <sym>Dot</sym>
    <type>toilet</type>
  </wpt>
  <wpt lat="50.11025787851864" lon="7.239972873717647">
    <name>Beilstein Coffee with a view</name>
    <cmt>coffee</cmt>
    <sym>Dot</sym>
    <type>food</type>
  </wpt>
  <wpt lat="50.10403280031994" lon="7.116112084018653">
    <name>Bremmer-Calmont</name>
    <cmt>viewpoint</cmt>
    <desc>Steepest vinyard</desc>
    <sym>Dot</sym>
    <type>overlook</type>
  </wpt>
  <wpt lat="50.093986569770664" lon="7.159582072039143">
    <name>Bakery</name>
    <cmt>convenience_store</cmt>
    <sym>Dot</sym>
    <type>store</type>
  </wpt>
  <wpt lat="50.11023379664255" lon="7.240310832053979">
    <name>Carmelite church</name>
    <cmt>viewpoint</cmt>
    <desc>with black madonna</desc>
    <sym>Dot</sym>
    <type>overlook</type>
  </wpt>
  <wpt lat="50.10886078235484" lon="7.239264079721863">
    <name>Burg Metternich</name>
    <cmt>generic</cmt>
    <sym>Dot</sym>
    <type>generic</type>
  </wpt>
  <wpt lat="50.0938096736501" lon="7.1575300842262095">
    <name>Swimming Ediger</name>
    <cmt>swimming</cmt>
    <sym>Dot</sym>
    <type>rest_area</type>
  </wpt>
  <wpt lat="50.094676756594254" lon="7.156747188436441">
    <name>Icecream</name>
    <cmt>food</cmt>
    <sym>Dot</sym>
    <type>food</type>
  </wpt>
  <wpt lat="50.05543955734231" lon="7.130628368526601">
    <name>Public restroom</name>
    <cmt>restroom</cmt>
    <sym>Dot</sym>
    <type>toilet</type>
  </wpt>
  <wpt lat="50.08353883765372" lon="7.206968603614769">
    <name>Water tap</name>
    <cmt>water</cmt>
    <sym>Dot</sym>
    <type>water</type>
  </wpt>
  <wpt lat="50.13232317325554" lon="7.229737036326242">
    <name>Public restroom</name>
    <cmt>restroom</cmt>
    <sym>Dot</sym>
    <type>toilet</type>
  </wpt>
  <wpt lat="50.132855888947944" lon="7.230088913278308">
    <name>Water taps</name>
    <cmt>water</cmt>
    <sym>Dot</sym>
    <type>water</type>
  </wpt>
  <wpt lat="50.13404628488706" lon="7.232797953849655">
    <name>Public restroom</name>
    <cmt>restroom</cmt>
    <sym>Dot</sym>
    <type>toilet</type>
  </wpt>
  <wpt lat="50.08870716607399" lon="7.200783463959283">
    <name>Imbiss Grillstation</name>
    <cmt>food</cmt>
    <sym>Dot</sym>
    <type>food</type>
  </wpt>
  <wpt lat="50.1157335762862" lon="7.233961479722893">
    <name>Public restroom</name>
    <cmt>restroom</cmt>
    <sym>Dot</sym>
    <type>toilet</type>
  </wpt>
  <wpt lat="50.14730087327399" lon="7.166471511954171">
    <name>Public restroom</name>
    <cmt>restroom</cmt>
    <sym>Dot</sym>
    <type>toilet</type>
  </wpt>
  <trk>
    <name>Zell - Cochem 37 km ENG 2026</name>
    <trkseg>
      <trkpt lat="50.0254" lon="7.18128">
        <ele>103.5</ele>
      </trkpt>
      <trkpt lat="50.0254" lon="7.18131">
        <ele>103.5</ele>
      </trkpt>
      <trkpt lat="50.025407" lon="7.181352">
        <ele>103.4</ele>
      </trkpt>
      <trkpt lat="50.02541" lon="7.181368">
        <ele>103.4</ele>
      </trkpt>
      <trkpt lat="50.02542" lon="7.18143">
        <ele>103.3</ele>
      </trkpt>
      <trkpt lat="50.02557" lon="7.18144">
        <ele>102.5</ele>
      </trkpt>
      <trkpt lat="50.02559" lon="7.18144">
        <ele>102.4</ele>
      </trkpt>
      <trkpt lat="50.025592" lon="7.181439">
        <ele>102.4</ele>
      </trkpt>
      <trkpt lat="50.02559" lon="7.18144">
        <ele>102.4</ele>
      </trkpt>
      <trkpt lat="50.02624" lon="7.18134">
        <ele>100.1</ele>
      </trkpt>
      <trkpt lat="50.02665" lon="7.18131">
        <ele>98.8</ele>
      </trkpt>
      <trkpt lat="50.02665" lon="7.18131">
        <ele>98.8</ele>
      </trkpt>
      <trkpt lat="50.02712" lon="7.18125">
        <ele>100.1</ele>
      </trkpt>
      <trkpt lat="50.02748" lon="7.18117">
        <ele>101.1</ele>
      </trkpt>
      <trkpt lat="50.02755" lon="7.18117">
        <ele>101.2</ele>
      </trkpt>
      <trkpt lat="50.02757" lon="7.18107">
        <ele>100.9</ele>
      </trkpt>
      <trkpt lat="50.0276" lon="7.18099">
        <ele>100.6</ele>
      </trkpt>
      <trkpt lat="50.02766" lon="7.1809">
        <ele>100.2</ele>
      </trkpt>
      <trkpt lat="50.02772" lon="7.1809">
        <ele>100.2</ele>
      </trkpt>
      <trkpt lat="50.02769" lon="7.18085">
        <ele>100.1</ele>
      </trkpt>
      <trkpt lat="50.02767" lon="7.18089">
        <ele>100.2</ele>
      </trkpt>
      <trkpt lat="50.02766" lon="7.18084">
        <ele>100.0</ele>
      </trkpt>
      <trkpt lat="50.0277" lon="7.18073">
        <ele>99.7</ele>
      </trkpt>
      <trkpt lat="50.02848" lon="7.18048">
        <ele>99.1</ele>
      </trkpt>
      <trkpt lat="50.02926" lon="7.18023">
        <ele>98.1</ele>
      </trkpt>
      <trkpt lat="50.02926" lon="7.18023">
        <ele>98.1</ele>
      </trkpt>
      <trkpt lat="50.02926" lon="7.18023">
        <ele>98.1</ele>
      </trkpt>
      <trkpt lat="50.03001" lon="7.18">
        <ele>99.0</ele>
      </trkpt>
      <trkpt lat="50.03075" lon="7.17976">
        <ele>97.1</ele>
      </trkpt>
      <trkpt lat="50.03128" lon="7.17963">
        <ele>100.0</ele>
      </trkpt>
      <trkpt lat="50.03153" lon="7.17954">
        <ele>101.9</ele>
      </trkpt>
      <trkpt lat="50.03153" lon="7.17953">
        <ele>102.0</ele>
      </trkpt>
      <trkpt lat="50.03159" lon="7.17953">
        <ele>102.3</ele>
      </trkpt>
      <trkpt lat="50.03161" lon="7.17956">
        <ele>102.3</ele>
      </trkpt>
      <trkpt lat="50.03212" lon="7.17932">
        <ele>104.3</ele>
      </trkpt>
      <trkpt lat="50.03283" lon="7.17894">
        <ele>103.2</ele>
      </trkpt>
      <trkpt lat="50.03353" lon="7.17857">
        <ele>97.2</ele>
      </trkpt>
      <trkpt lat="50.03399" lon="7.17831">
        <ele>96.9</ele>
      </trkpt>
      <trkpt lat="50.03445" lon="7.17805">
        <ele>99.5</ele>
      </trkpt>
      <trkpt lat="50.03467" lon="7.17784">
        <ele>100.3</ele>
      </trkpt>
      <trkpt lat="50.03503" lon="7.17755">
        <ele>101.5</ele>
      </trkpt>
      <trkpt lat="50.03503" lon="7.17755">
        <ele>101.5</ele>
      </trkpt>
      <trkpt lat="50.03536" lon="7.17729">
        <ele>101.9</ele>
      </trkpt>
      <trkpt lat="50.03588" lon="7.17682">
        <ele>99.3</ele>
      </trkpt>
      <trkpt lat="50.03632" lon="7.17634">
        <ele>100.7</ele>
      </trkpt>
      <trkpt lat="50.036325" lon="7.176352">
        <ele>100.8</ele>
      </trkpt>
      <trkpt lat="50.03639" lon="7.17628">
        <ele>100.9</ele>
      </trkpt>
      <trkpt lat="50.03654" lon="7.17608">
        <ele>100.9</ele>
      </trkpt>
      <trkpt lat="50.03668" lon="7.17588">
        <ele>100.5</ele>
      </trkpt>
      <trkpt lat="50.0368" lon="7.1757">
        <ele>100.9</ele>
      </trkpt>
      <trkpt lat="50.03692" lon="7.17551">
        <ele>100.7</ele>
      </trkpt>
      <trkpt lat="50.03705" lon="7.1753">
        <ele>99.9</ele>
      </trkpt>
      <trkpt lat="50.03716" lon="7.17513">
        <ele>98.6</ele>
      </trkpt>
      <trkpt lat="50.03728" lon="7.17493">
        <ele>97.4</ele>
      </trkpt>
      <trkpt lat="50.03737" lon="7.17477">
        <ele>97.3</ele>
      </trkpt>
      <trkpt lat="50.03744" lon="7.17461">
        <ele>97.0</ele>
      </trkpt>
      <trkpt lat="50.03753" lon="7.17443">
        <ele>97.0</ele>
      </trkpt>
      <trkpt lat="50.03762" lon="7.17425">
        <ele>97.6</ele>
      </trkpt>
      <trkpt lat="50.03771" lon="7.17403">
        <ele>97.8</ele>
      </trkpt>
      <trkpt lat="50.03782" lon="7.17379">
        <ele>97.6</ele>
      </trkpt>
      <trkpt lat="50.03793" lon="7.17354">
        <ele>96.8</ele>
      </trkpt>
      <trkpt lat="50.03806" lon="7.17324">
        <ele>95.9</ele>
      </trkpt>
      <trkpt lat="50.03819" lon="7.17297">
        <ele>96.6</ele>
      </trkpt>
      <trkpt lat="50.03829" lon="7.17273">
        <ele>97.4</ele>
      </trkpt>
      <trkpt lat="50.03841" lon="7.17248">
        <ele>98.9</ele>
      </trkpt>
      <trkpt lat="50.0385" lon="7.17227">
        <ele>99.9</ele>
      </trkpt>
      <trkpt lat="50.03861" lon="7.17195">
        <ele>100.2</ele>
      </trkpt>
      <trkpt lat="50.03889" lon="7.17112">
        <ele>98.0</ele>
      </trkpt>
      <trkpt lat="50.03901" lon="7.17077">
        <ele>97.1</ele>
      </trkpt>
      <trkpt lat="50.03901" lon="7.17077">
        <ele>97.1</ele>
      </trkpt>
      <trkpt lat="50.03912" lon="7.17043">
        <ele>96.6</ele>
      </trkpt>
      <trkpt lat="50.03941" lon="7.16935">
        <ele>95.6</ele>
      </trkpt>
      <trkpt lat="50.03971" lon="7.16826">
        <ele>96.2</ele>
      </trkpt>
      <trkpt lat="50.04" lon="7.16717">
        <ele>96.2</ele>
      </trkpt>
      <trkpt lat="50.04011" lon="7.16688">
        <ele>97.1</ele>
      </trkpt>
      <trkpt lat="50.0402" lon="7.16634">
        <ele>97.9</ele>
      </trkpt>
      <trkpt lat="50.04042" lon="7.16546">
        <ele>99.4</ele>
      </trkpt>
      <trkpt lat="50.04042" lon="7.16546">
        <ele>99.4</ele>
      </trkpt>
      <trkpt lat="50.04048" lon="7.16523">
        <ele>99.4</ele>
      </trkpt>
      <trkpt lat="50.04055" lon="7.1651">
        <ele>99.5</ele>
      </trkpt>
      <trkpt lat="50.04062" lon="7.16457">
        <ele>98.6</ele>
      </trkpt>
      <trkpt lat="50.0408" lon="7.1636">
        <ele>96.6</ele>
      </trkpt>
      <trkpt lat="50.04099" lon="7.16263">
        <ele>99.0</ele>
      </trkpt>
      <trkpt lat="50.04118" lon="7.16166">
        <ele>100.3</ele>
      </trkpt>
      <trkpt lat="50.04143" lon="7.16057">
        <ele>100.6</ele>
      </trkpt>
      <trkpt lat="50.04169" lon="7.15947">
        <ele>100.4</ele>
      </trkpt>
      <trkpt lat="50.04183" lon="7.15864">
        <ele>101.2</ele>
      </trkpt>
      <trkpt lat="50.04196" lon="7.15782">
        <ele>101.2</ele>
      </trkpt>
      <trkpt lat="50.04196" lon="7.15782">
        <ele>101.2</ele>
      </trkpt>
      <trkpt lat="50.04196" lon="7.15782">
        <ele>101.2</ele>
      </trkpt>
      <trkpt lat="50.04213" lon="7.15675">
        <ele>100.9</ele>
      </trkpt>
      <trkpt lat="50.0423" lon="7.15568">
        <ele>100.5</ele>
      </trkpt>
      <trkpt lat="50.04247" lon="7.15461">
        <ele>97.7</ele>
      </trkpt>
      <trkpt lat="50.04261" lon="7.15352">
        <ele>96.0</ele>
      </trkpt>
      <trkpt lat="50.042603" lon="7.153521">
        <ele>95.9</ele>
      </trkpt>
      <trkpt lat="50.04271" lon="7.15286">
        <ele>96.1</ele>
      </trkpt>
      <trkpt lat="50.04283" lon="7.15211">
        <ele>95.4</ele>
      </trkpt>
      <trkpt lat="50.04283" lon="7.15211">
        <ele>95.4</ele>
      </trkpt>
      <trkpt lat="50.04291" lon="7.15164">
        <ele>94.5</ele>
      </trkpt>
      <trkpt lat="50.04315" lon="7.15047">
        <ele>93.4</ele>
      </trkpt>
      <trkpt lat="50.0434" lon="7.1493">
        <ele>92.9</ele>
      </trkpt>
      <trkpt lat="50.04364" lon="7.14813">
        <ele>92.6</ele>
      </trkpt>
      <trkpt lat="50.04393" lon="7.14727">
        <ele>92.7</ele>
      </trkpt>
      <trkpt lat="50.04421" lon="7.14641">
        <ele>93.6</ele>
      </trkpt>
      <trkpt lat="50.04445" lon="7.14525">
        <ele>94.4</ele>
      </trkpt>
      <trkpt lat="50.044454" lon="7.145251">
        <ele>94.4</ele>
      </trkpt>
      <trkpt lat="50.04449" lon="7.14508">
        <ele>94.3</ele>
      </trkpt>
      <trkpt lat="50.04476" lon="7.14376">
        <ele>92.4</ele>
      </trkpt>
      <trkpt lat="50.04504" lon="7.14293">
        <ele>94.1</ele>
      </trkpt>
      <trkpt lat="50.04548" lon="7.14204">
        <ele>94.6</ele>
      </trkpt>
      <trkpt lat="50.04592" lon="7.14098">
        <ele>91.7</ele>
      </trkpt>
      <trkpt lat="50.04637" lon="7.14001">
        <ele>91.0</ele>
      </trkpt>
      <trkpt lat="50.04666" lon="7.13931">
        <ele>92.8</ele>
      </trkpt>
      <trkpt lat="50.04694" lon="7.13861">
        <ele>93.5</ele>
      </trkpt>
      <trkpt lat="50.04723" lon="7.13806">
        <ele>93.1</ele>
      </trkpt>
      <trkpt lat="50.04752" lon="7.1375">
        <ele>92.1</ele>
      </trkpt>
      <trkpt lat="50.04792" lon="7.13685">
        <ele>93.1</ele>
      </trkpt>
      <trkpt lat="50.04832" lon="7.1362">
        <ele>96.1</ele>
      </trkpt>
      <trkpt lat="50.04832" lon="7.1362">
        <ele>96.1</ele>
      </trkpt>
      <trkpt lat="50.04866" lon="7.13572">
        <ele>97.1</ele>
      </trkpt>
      <trkpt lat="50.04899" lon="7.13523">
        <ele>96.7</ele>
      </trkpt>
      <trkpt lat="50.0491" lon="7.13524">
        <ele>96.5</ele>
      </trkpt>
      <trkpt lat="50.04916" lon="7.13528">
        <ele>96.4</ele>
      </trkpt>
      <trkpt lat="50.04924" lon="7.13533">
        <ele>96.8</ele>
      </trkpt>
      <trkpt lat="50.04934" lon="7.13513">
        <ele>97.0</ele>
      </trkpt>
      <trkpt lat="50.04971" lon="7.13458">
        <ele>95.4</ele>
      </trkpt>
      <trkpt lat="50.04981" lon="7.13446">
        <ele>94.8</ele>
      </trkpt>
      <trkpt lat="50.05008" lon="7.13425">
        <ele>94.4</ele>
      </trkpt>
      <trkpt lat="50.05021" lon="7.13411">
        <ele>94.4</ele>
      </trkpt>
      <trkpt lat="50.05074" lon="7.1333">
        <ele>94.1</ele>
      </trkpt>
      <trkpt lat="50.05074" lon="7.13329">
        <ele>94.1</ele>
      </trkpt>
      <trkpt lat="50.05084" lon="7.13314">
        <ele>95.3</ele>
      </trkpt>
      <trkpt lat="50.05105" lon="7.13288">
        <ele>95.9</ele>
      </trkpt>
      <trkpt lat="50.05114" lon="7.1327">
        <ele>96.0</ele>
      </trkpt>
      <trkpt lat="50.05158" lon="7.13205">
        <ele>95.5</ele>
      </trkpt>
      <trkpt lat="50.05181" lon="7.1318">
        <ele>95.0</ele>
      </trkpt>
      <trkpt lat="50.05239" lon="7.13117">
        <ele>92.9</ele>
      </trkpt>
      <trkpt lat="50.05284" lon="7.1308">
        <ele>92.7</ele>
      </trkpt>
      <trkpt lat="50.05311" lon="7.13062">
        <ele>93.0</ele>
      </trkpt>
      <trkpt lat="50.05392" lon="7.1302">
        <ele>95.1</ele>
      </trkpt>
      <trkpt lat="50.0544" lon="7.13003">
        <ele>96.3</ele>
      </trkpt>
      <trkpt lat="50.05461" lon="7.13001">
        <ele>96.6</ele>
      </trkpt>
      <trkpt lat="50.05461" lon="7.13001">
        <ele>96.6</ele>
      </trkpt>
      <trkpt lat="50.05515" lon="7.13002">
        <ele>96.5</ele>
      </trkpt>
      <trkpt lat="50.05545" lon="7.13005">
        <ele>95.5</ele>
      </trkpt>
      <trkpt lat="50.05567" lon="7.13009">
        <ele>94.9</ele>
      </trkpt>
      <trkpt lat="50.05606" lon="7.13021">
        <ele>95.2</ele>
      </trkpt>
      <trkpt lat="50.05669" lon="7.13044">
        <ele>97.0</ele>
      </trkpt>
      <trkpt lat="50.05732" lon="7.13077">
        <ele>97.1</ele>
      </trkpt>
      <trkpt lat="50.05795" lon="7.1311">
        <ele>97.7</ele>
      </trkpt>
      <trkpt lat="50.05871" lon="7.13144">
        <ele>97.7</ele>
      </trkpt>
      <trkpt lat="50.05925" lon="7.13161">
        <ele>99.0</ele>
      </trkpt>
      <trkpt lat="50.05978" lon="7.13179">
        <ele>103.7</ele>
      </trkpt>
      <trkpt lat="50.05978" lon="7.13179">
        <ele>103.7</ele>
      </trkpt>
      <trkpt lat="50.06032" lon="7.13193">
        <ele>106.0</ele>
      </trkpt>
      <trkpt lat="50.06094" lon="7.13199">
        <ele>105.7</ele>
      </trkpt>
      <trkpt lat="50.06135" lon="7.13224">
        <ele>107.4</ele>
      </trkpt>
      <trkpt lat="50.06138" lon="7.13229">
        <ele>107.8</ele>
      </trkpt>
      <trkpt lat="50.06137" lon="7.1324">
        <ele>109.0</ele>
      </trkpt>
      <trkpt lat="50.0615" lon="7.13237">
        <ele>108.3</ele>
      </trkpt>
      <trkpt lat="50.06222" lon="7.13243">
        <ele>108.1</ele>
      </trkpt>
      <trkpt lat="50.06294" lon="7.13249">
        <ele>109.4</ele>
      </trkpt>
      <trkpt lat="50.0637" lon="7.13251">
        <ele>109.7</ele>
      </trkpt>
      <trkpt lat="50.06446" lon="7.13254">
        <ele>109.6</ele>
      </trkpt>
      <trkpt lat="50.06522" lon="7.13256">
        <ele>109.0</ele>
      </trkpt>
      <trkpt lat="50.06538" lon="7.13256">
        <ele>108.4</ele>
      </trkpt>
      <trkpt lat="50.06551" lon="7.13253">
        <ele>107.6</ele>
      </trkpt>
      <trkpt lat="50.06611" lon="7.13234">
        <ele>104.0</ele>
      </trkpt>
      <trkpt lat="50.06644" lon="7.13225">
        <ele>102.6</ele>
      </trkpt>
      <trkpt lat="50.06662" lon="7.13223">
        <ele>102.1</ele>
      </trkpt>
      <trkpt lat="50.06686" lon="7.13221">
        <ele>102.6</ele>
      </trkpt>
      <trkpt lat="50.06749" lon="7.13222">
        <ele>105.3</ele>
      </trkpt>
      <trkpt lat="50.06771" lon="7.13224">
        <ele>105.6</ele>
      </trkpt>
      <trkpt lat="50.06841" lon="7.13231">
        <ele>106.2</ele>
      </trkpt>
      <trkpt lat="50.0691" lon="7.13239">
        <ele>104.1</ele>
      </trkpt>
      <trkpt lat="50.0698" lon="7.13246">
        <ele>103.8</ele>
      </trkpt>
      <trkpt lat="50.07002" lon="7.13249">
        <ele>103.9</ele>
      </trkpt>
      <trkpt lat="50.07049" lon="7.13258">
        <ele>105.2</ele>
      </trkpt>
      <trkpt lat="50.07097" lon="7.13267">
        <ele>107.5</ele>
      </trkpt>
      <trkpt lat="50.07154" lon="7.1327">
        <ele>109.7</ele>
      </trkpt>
      <trkpt lat="50.07216" lon="7.1327">
        <ele>109.7</ele>
      </trkpt>
      <trkpt lat="50.07245" lon="7.13272">
        <ele>109.7</ele>
      </trkpt>
      <trkpt lat="50.07308" lon="7.13279">
        <ele>108.1</ele>
      </trkpt>
      <trkpt lat="50.07333" lon="7.13283">
        <ele>107.6</ele>
      </trkpt>
      <trkpt lat="50.07391" lon="7.13299">
        <ele>104.3</ele>
      </trkpt>
      <trkpt lat="50.07451" lon="7.13318">
        <ele>100.4</ele>
      </trkpt>
      <trkpt lat="50.07521" lon="7.13337">
        <ele>96.7</ele>
      </trkpt>
      <trkpt lat="50.07569" lon="7.13349">
        <ele>97.6</ele>
      </trkpt>
      <trkpt lat="50.07618" lon="7.1336">
        <ele>101.3</ele>
      </trkpt>
      <trkpt lat="50.0765" lon="7.13366">
        <ele>104.0</ele>
      </trkpt>
      <trkpt lat="50.07735" lon="7.13375">
        <ele>110.4</ele>
      </trkpt>
      <trkpt lat="50.07819" lon="7.13385">
        <ele>113.5</ele>
      </trkpt>
      <trkpt lat="50.07904" lon="7.13394">
        <ele>107.9</ele>
      </trkpt>
      <trkpt lat="50.07984" lon="7.13411">
        <ele>109.9</ele>
      </trkpt>
      <trkpt lat="50.08015" lon="7.13415">
        <ele>110.1</ele>
      </trkpt>
      <trkpt lat="50.08049" lon="7.13418">
        <ele>109.5</ele>
      </trkpt>
      <trkpt lat="50.08081" lon="7.13418">
        <ele>108.4</ele>
      </trkpt>
      <trkpt lat="50.08167" lon="7.13417">
        <ele>111.1</ele>
      </trkpt>
      <trkpt lat="50.08219" lon="7.13422">
        <ele>110.7</ele>
      </trkpt>
      <trkpt lat="50.0825" lon="7.13427">
        <ele>110.9</ele>
      </trkpt>
      <trkpt lat="50.0831" lon="7.13438">
        <ele>110.7</ele>
      </trkpt>
      <trkpt lat="50.08371" lon="7.13449">
        <ele>109.2</ele>
      </trkpt>
      <trkpt lat="50.08396" lon="7.13456">
        <ele>108.5</ele>
      </trkpt>
      <trkpt lat="50.08416" lon="7.13463">
        <ele>107.9</ele>
      </trkpt>
      <trkpt lat="50.08443" lon="7.13474">
        <ele>106.7</ele>
      </trkpt>
      <trkpt lat="50.08486" lon="7.13494">
        <ele>104.1</ele>
      </trkpt>
      <trkpt lat="50.0853" lon="7.13514">
        <ele>104.5</ele>
      </trkpt>
      <trkpt lat="50.08548" lon="7.13523">
        <ele>105.2</ele>
      </trkpt>
      <trkpt lat="50.0857" lon="7.13538">
        <ele>106.2</ele>
      </trkpt>
      <trkpt lat="50.08587" lon="7.13553">
        <ele>106.7</ele>
      </trkpt>
      <trkpt lat="50.08605" lon="7.1357">
        <ele>106.2</ele>
      </trkpt>
      <trkpt lat="50.08659" lon="7.13623">
        <ele>104.3</ele>
      </trkpt>
      <trkpt lat="50.08684" lon="7.13643">
        <ele>103.2</ele>
      </trkpt>
      <trkpt lat="50.08699" lon="7.13654">
        <ele>102.3</ele>
      </trkpt>
      <trkpt lat="50.08715" lon="7.13663">
        <ele>101.0</ele>
      </trkpt>
      <trkpt lat="50.08729" lon="7.13668">
        <ele>99.6</ele>
      </trkpt>
      <trkpt lat="50.08742" lon="7.13672">
        <ele>98.3</ele>
      </trkpt>
      <trkpt lat="50.08762" lon="7.13675">
        <ele>97.9</ele>
      </trkpt>
      <trkpt lat="50.08777" lon="7.13673">
        <ele>98.2</ele>
      </trkpt>
      <trkpt lat="50.08801" lon="7.13665">
        <ele>98.2</ele>
      </trkpt>
      <trkpt lat="50.08813" lon="7.13658">
        <ele>98.1</ele>
      </trkpt>
      <trkpt lat="50.08827" lon="7.13647">
        <ele>97.9</ele>
      </trkpt>
      <trkpt lat="50.08854" lon="7.13622">
        <ele>96.6</ele>
      </trkpt>
      <trkpt lat="50.08863" lon="7.13616">
        <ele>96.1</ele>
      </trkpt>
      <trkpt lat="50.08872" lon="7.13614">
        <ele>95.9</ele>
      </trkpt>
      <trkpt lat="50.08881" lon="7.13616">
        <ele>95.9</ele>
      </trkpt>
      <trkpt lat="50.08924" lon="7.13634">
        <ele>96.2</ele>
      </trkpt>
      <trkpt lat="50.0898" lon="7.1366">
        <ele>94.1</ele>
      </trkpt>
      <trkpt lat="50.09035" lon="7.13686">
        <ele>93.6</ele>
      </trkpt>
      <trkpt lat="50.0908" lon="7.13709">
        <ele>93.7</ele>
      </trkpt>
      <trkpt lat="50.09095" lon="7.13713">
        <ele>94.0</ele>
      </trkpt>
      <trkpt lat="50.09123" lon="7.13716">
        <ele>94.8</ele>
      </trkpt>
      <trkpt lat="50.09139" lon="7.1372">
        <ele>95.3</ele>
      </trkpt>
      <trkpt lat="50.09195" lon="7.13732">
        <ele>95.3</ele>
      </trkpt>
      <trkpt lat="50.09233" lon="7.13746">
        <ele>94.5</ele>
      </trkpt>
      <trkpt lat="50.09259" lon="7.1376">
        <ele>94.1</ele>
      </trkpt>
      <trkpt lat="50.09309" lon="7.13791">
        <ele>94.1</ele>
      </trkpt>
      <trkpt lat="50.09358" lon="7.13821">
        <ele>95.1</ele>
      </trkpt>
      <trkpt lat="50.09384" lon="7.13835">
        <ele>96.5</ele>
      </trkpt>
      <trkpt lat="50.09397" lon="7.13841">
        <ele>97.9</ele>
      </trkpt>
      <trkpt lat="50.09408" lon="7.13843">
        <ele>98.6</ele>
      </trkpt>
      <trkpt lat="50.09417" lon="7.13841">
        <ele>98.5</ele>
      </trkpt>
      <trkpt lat="50.09423" lon="7.13839">
        <ele>98.7</ele>
      </trkpt>
      <trkpt lat="50.09434" lon="7.1383">
        <ele>98.5</ele>
      </trkpt>
      <trkpt lat="50.0944" lon="7.13821">
        <ele>98.4</ele>
      </trkpt>
      <trkpt lat="50.09445" lon="7.13811">
        <ele>98.4</ele>
      </trkpt>
      <trkpt lat="50.09448" lon="7.13803">
        <ele>98.4</ele>
      </trkpt>
      <trkpt lat="50.09452" lon="7.13788">
        <ele>98.5</ele>
      </trkpt>
      <trkpt lat="50.09453" lon="7.13773">
        <ele>98.6</ele>
      </trkpt>
      <trkpt lat="50.09453" lon="7.13764">
        <ele>98.6</ele>
      </trkpt>
      <trkpt lat="50.09452" lon="7.13748">
        <ele>98.7</ele>
      </trkpt>
      <trkpt lat="50.09433" lon="7.13625">
        <ele>99.2</ele>
      </trkpt>
      <trkpt lat="50.09414" lon="7.13502">
        <ele>99.7</ele>
      </trkpt>
      <trkpt lat="50.09414" lon="7.13481">
        <ele>99.8</ele>
      </trkpt>
      <trkpt lat="50.09415" lon="7.13465">
        <ele>99.9</ele>
      </trkpt>
      <trkpt lat="50.09417" lon="7.13456">
        <ele>99.9</ele>
      </trkpt>
      <trkpt lat="50.09429" lon="7.13423">
        <ele>100.1</ele>
      </trkpt>
      <trkpt lat="50.0944" lon="7.13398">
        <ele>100.8</ele>
      </trkpt>
      <trkpt lat="50.09457" lon="7.13372">
        <ele>100.4</ele>
      </trkpt>
      <trkpt lat="50.09476" lon="7.13348">
        <ele>99.0</ele>
      </trkpt>
      <trkpt lat="50.09486" lon="7.13339">
        <ele>97.9</ele>
      </trkpt>
      <trkpt lat="50.09498" lon="7.13331">
        <ele>96.3</ele>
      </trkpt>
      <trkpt lat="50.09506" lon="7.13329">
        <ele>95.8</ele>
      </trkpt>
      <trkpt lat="50.09519" lon="7.13329">
        <ele>95.4</ele>
      </trkpt>
      <trkpt lat="50.09531" lon="7.13342">
        <ele>94.6</ele>
      </trkpt>
      <trkpt lat="50.0954" lon="7.13358">
        <ele>93.8</ele>
      </trkpt>
      <trkpt lat="50.09543" lon="7.13362">
        <ele>93.6</ele>
      </trkpt>
      <trkpt lat="50.0955" lon="7.13366">
        <ele>93.3</ele>
      </trkpt>
      <trkpt lat="50.09554" lon="7.13373">
        <ele>92.9</ele>
      </trkpt>
      <trkpt lat="50.09557" lon="7.13375">
        <ele>92.8</ele>
      </trkpt>
      <trkpt lat="50.09561" lon="7.13376">
        <ele>92.6</ele>
      </trkpt>
      <trkpt lat="50.09568" lon="7.13375">
        <ele>92.5</ele>
      </trkpt>
      <trkpt lat="50.09575" lon="7.13373">
        <ele>92.3</ele>
      </trkpt>
      <trkpt lat="50.09581" lon="7.13366">
        <ele>92.3</ele>
      </trkpt>
      <trkpt lat="50.09606" lon="7.13332">
        <ele>92.5</ele>
      </trkpt>
      <trkpt lat="50.0961" lon="7.13326">
        <ele>92.3</ele>
      </trkpt>
      <trkpt lat="50.09613" lon="7.13317">
        <ele>92.2</ele>
      </trkpt>
      <trkpt lat="50.09639" lon="7.13227">
        <ele>90.8</ele>
      </trkpt>
      <trkpt lat="50.09663" lon="7.1314">
        <ele>89.8</ele>
      </trkpt>
      <trkpt lat="50.09686" lon="7.13052">
        <ele>90.4</ele>
      </trkpt>
      <trkpt lat="50.09688" lon="7.13044">
        <ele>90.5</ele>
      </trkpt>
      <trkpt lat="50.09698" lon="7.13008">
        <ele>90.8</ele>
      </trkpt>
      <trkpt lat="50.09733" lon="7.12882">
        <ele>90.7</ele>
      </trkpt>
      <trkpt lat="50.09768" lon="7.12756">
        <ele>91.9</ele>
      </trkpt>
      <trkpt lat="50.09802" lon="7.1263">
        <ele>91.9</ele>
      </trkpt>
      <trkpt lat="50.09805" lon="7.12622">
        <ele>92.0</ele>
      </trkpt>
      <trkpt lat="50.09834" lon="7.12496">
        <ele>92.1</ele>
      </trkpt>
      <trkpt lat="50.09853" lon="7.12421">
        <ele>94.4</ele>
      </trkpt>
      <trkpt lat="50.09872" lon="7.12347">
        <ele>95.4</ele>
      </trkpt>
      <trkpt lat="50.09899" lon="7.12244">
        <ele>94.4</ele>
      </trkpt>
      <trkpt lat="50.09928" lon="7.12136">
        <ele>95.4</ele>
      </trkpt>
      <trkpt lat="50.09957" lon="7.12027">
        <ele>97.0</ele>
      </trkpt>
      <trkpt lat="50.09974" lon="7.11997">
        <ele>96.7</ele>
      </trkpt>
      <trkpt lat="50.09996" lon="7.1196">
        <ele>96.6</ele>
      </trkpt>
      <trkpt lat="50.10018" lon="7.11928">
        <ele>97.4</ele>
      </trkpt>
      <trkpt lat="50.100306" lon="7.119125">
        <ele>97.7</ele>
      </trkpt>
      <trkpt lat="50.10057" lon="7.11874">
        <ele>97.7</ele>
      </trkpt>
      <trkpt lat="50.10083" lon="7.11845">
        <ele>97.3</ele>
      </trkpt>
      <trkpt lat="50.10107" lon="7.11819">
        <ele>97.6</ele>
      </trkpt>
      <trkpt lat="50.10143" lon="7.11784">
        <ele>98.9</ele>
      </trkpt>
      <trkpt lat="50.10178" lon="7.11756">
        <ele>99.4</ele>
      </trkpt>
      <trkpt lat="50.10212" lon="7.11735">
        <ele>98.8</ele>
      </trkpt>
      <trkpt lat="50.10242" lon="7.11722">
        <ele>98.3</ele>
      </trkpt>
      <trkpt lat="50.10263" lon="7.11717">
        <ele>98.2</ele>
      </trkpt>
      <trkpt lat="50.10284" lon="7.11714">
        <ele>98.2</ele>
      </trkpt>
      <trkpt lat="50.10295" lon="7.11714">
        <ele>98.2</ele>
      </trkpt>
      <trkpt lat="50.10327" lon="7.11716">
        <ele>98.1</ele>
      </trkpt>
      <trkpt lat="50.10345" lon="7.11721">
        <ele>100.1</ele>
      </trkpt>
      <trkpt lat="50.10355" lon="7.11723">
        <ele>101.9</ele>
      </trkpt>
      <trkpt lat="50.10371" lon="7.1173">
        <ele>104.4</ele>
      </trkpt>
      <trkpt lat="50.10387" lon="7.11738">
        <ele>106.5</ele>
      </trkpt>
      <trkpt lat="50.10412" lon="7.11754">
        <ele>108.6</ele>
      </trkpt>
      <trkpt lat="50.10421" lon="7.11762">
        <ele>109.4</ele>
      </trkpt>
      <trkpt lat="50.10456" lon="7.11795">
        <ele>111.5</ele>
      </trkpt>
      <trkpt lat="50.10471" lon="7.11812">
        <ele>109.8</ele>
      </trkpt>
      <trkpt lat="50.1049" lon="7.11838">
        <ele>105.6</ele>
      </trkpt>
      <trkpt lat="50.104884" lon="7.118394">
        <ele>105.3</ele>
      </trkpt>
      <trkpt lat="50.10502" lon="7.11858">
        <ele>106.4</ele>
      </trkpt>
      <trkpt lat="50.10527" lon="7.11906">
        <ele>106.1</ele>
      </trkpt>
      <trkpt lat="50.10547" lon="7.11957">
        <ele>106.8</ele>
      </trkpt>
      <trkpt lat="50.10563" lon="7.12012">
        <ele>107.8</ele>
      </trkpt>
      <trkpt lat="50.10589" lon="7.1212">
        <ele>105.8</ele>
      </trkpt>
      <trkpt lat="50.10599" lon="7.12149">
        <ele>105.3</ele>
      </trkpt>
      <trkpt lat="50.10605" lon="7.12189">
        <ele>106.4</ele>
      </trkpt>
      <trkpt lat="50.1061" lon="7.12264">
        <ele>112.1</ele>
      </trkpt>
      <trkpt lat="50.10595" lon="7.12597">
        <ele>112.3</ele>
      </trkpt>
      <trkpt lat="50.1059" lon="7.12674">
        <ele>111.0</ele>
      </trkpt>
      <trkpt lat="50.10564" lon="7.12881">
        <ele>107.0</ele>
      </trkpt>
      <trkpt lat="50.10544" lon="7.12992">
        <ele>106.7</ele>
      </trkpt>
      <trkpt lat="50.10526" lon="7.13082">
        <ele>107.9</ele>
      </trkpt>
      <trkpt lat="50.10497" lon="7.13189">
        <ele>102.0</ele>
      </trkpt>
      <trkpt lat="50.10463" lon="7.1328">
        <ele>103.6</ele>
      </trkpt>
      <trkpt lat="50.10432" lon="7.13352">
        <ele>98.0</ele>
      </trkpt>
      <trkpt lat="50.10372" lon="7.13468">
        <ele>96.2</ele>
      </trkpt>
      <trkpt lat="50.10315" lon="7.13559">
        <ele>94.3</ele>
      </trkpt>
      <trkpt lat="50.1016" lon="7.13784">
        <ele>89.6</ele>
      </trkpt>
      <trkpt lat="50.10142" lon="7.13806">
        <ele>90.6</ele>
      </trkpt>
      <trkpt lat="50.10128" lon="7.13832">
        <ele>91.4</ele>
      </trkpt>
      <trkpt lat="50.10122" lon="7.1385">
        <ele>91.6</ele>
      </trkpt>
      <trkpt lat="50.101213" lon="7.138547">
        <ele>91.6</ele>
      </trkpt>
      <trkpt lat="50.101203" lon="7.138614">
        <ele>91.7</ele>
      </trkpt>
      <trkpt lat="50.10117" lon="7.13884">
        <ele>91.8</ele>
      </trkpt>
      <trkpt lat="50.101" lon="7.139">
        <ele>92.4</ele>
      </trkpt>
      <trkpt lat="50.10082" lon="7.13923">
        <ele>92.9</ele>
      </trkpt>
      <trkpt lat="50.10031" lon="7.14023">
        <ele>90.1</ele>
      </trkpt>
      <trkpt lat="50.10008" lon="7.14074">
        <ele>89.3</ele>
      </trkpt>
      <trkpt lat="50.09986" lon="7.14127">
        <ele>89.7</ele>
      </trkpt>
      <trkpt lat="50.09957" lon="7.14207">
        <ele>89.4</ele>
      </trkpt>
      <trkpt lat="50.09916" lon="7.14335">
        <ele>89.1</ele>
      </trkpt>
      <trkpt lat="50.09886" lon="7.14413">
        <ele>90.9</ele>
      </trkpt>
      <trkpt lat="50.09848" lon="7.14517">
        <ele>91.4</ele>
      </trkpt>
      <trkpt lat="50.09763" lon="7.14808">
        <ele>91.4</ele>
      </trkpt>
      <trkpt lat="50.09703" lon="7.15033">
        <ele>89.6</ele>
      </trkpt>
      <trkpt lat="50.09626" lon="7.15306">
        <ele>90.9</ele>
      </trkpt>
      <trkpt lat="50.09563" lon="7.15463">
        <ele>92.4</ele>
      </trkpt>
      <trkpt lat="50.09549" lon="7.15487">
        <ele>92.8</ele>
      </trkpt>
      <trkpt lat="50.09499" lon="7.15557">
        <ele>92.6</ele>
      </trkpt>
      <trkpt lat="50.09466" lon="7.15608">
        <ele>91.8</ele>
      </trkpt>
      <trkpt lat="50.09463" lon="7.15612">
        <ele>91.8</ele>
      </trkpt>
      <trkpt lat="50.09385" lon="7.15775">
        <ele>91.5</ele>
      </trkpt>
      <trkpt lat="50.09376" lon="7.1581">
        <ele>92.0</ele>
      </trkpt>
      <trkpt lat="50.09352" lon="7.15869">
        <ele>91.6</ele>
      </trkpt>
      <trkpt lat="50.09333" lon="7.15902">
        <ele>90.8</ele>
      </trkpt>
      <trkpt lat="50.09335" lon="7.15913">
        <ele>91.1</ele>
      </trkpt>
      <trkpt lat="50.09327" lon="7.15937">
        <ele>91.2</ele>
      </trkpt>
      <trkpt lat="50.0932" lon="7.15946">
        <ele>91.2</ele>
      </trkpt>
      <trkpt lat="50.09228" lon="7.16167">
        <ele>90.0</ele>
      </trkpt>
      <trkpt lat="50.09194" lon="7.16243">
        <ele>90.9</ele>
      </trkpt>
      <trkpt lat="50.09149" lon="7.1632">
        <ele>89.3</ele>
      </trkpt>
      <trkpt lat="50.09066" lon="7.16421">
        <ele>87.3</ele>
      </trkpt>
      <trkpt lat="50.0901" lon="7.16482">
        <ele>86.0</ele>
      </trkpt>
      <trkpt lat="50.08981" lon="7.16518">
        <ele>86.6</ele>
      </trkpt>
      <trkpt lat="50.08964" lon="7.16545">
        <ele>87.3</ele>
      </trkpt>
      <trkpt lat="50.0892" lon="7.16624">
        <ele>89.0</ele>
      </trkpt>
      <trkpt lat="50.089" lon="7.16666">
        <ele>89.6</ele>
      </trkpt>
      <trkpt lat="50.0881" lon="7.16894">
        <ele>90.9</ele>
      </trkpt>
      <trkpt lat="50.08775" lon="7.16991">
        <ele>90.5</ele>
      </trkpt>
      <trkpt lat="50.08729" lon="7.17129">
        <ele>90.1</ele>
      </trkpt>
      <trkpt lat="50.08684" lon="7.17278">
        <ele>89.8</ele>
      </trkpt>
      <trkpt lat="50.08617" lon="7.17523">
        <ele>92.3</ele>
      </trkpt>
      <trkpt lat="50.08619" lon="7.17554">
        <ele>91.8</ele>
      </trkpt>
      <trkpt lat="50.08616" lon="7.1757">
        <ele>91.6</ele>
      </trkpt>
      <trkpt lat="50.08574" lon="7.17714">
        <ele>88.8</ele>
      </trkpt>
      <trkpt lat="50.0857" lon="7.17721">
        <ele>89.0</ele>
      </trkpt>
      <trkpt lat="50.08555" lon="7.17736">
        <ele>89.5</ele>
      </trkpt>
      <trkpt lat="50.08551" lon="7.17744">
        <ele>89.7</ele>
      </trkpt>
      <trkpt lat="50.08419" lon="7.1822">
        <ele>88.2</ele>
      </trkpt>
      <trkpt lat="50.08381" lon="7.18344">
        <ele>88.4</ele>
      </trkpt>
      <trkpt lat="50.08253" lon="7.1872">
        <ele>87.9</ele>
      </trkpt>
      <trkpt lat="50.08173" lon="7.18949">
        <ele>89.6</ele>
      </trkpt>
      <trkpt lat="50.08165" lon="7.18972">
        <ele>89.6</ele>
      </trkpt>
      <trkpt lat="50.0814" lon="7.19022">
        <ele>89.4</ele>
      </trkpt>
      <trkpt lat="50.08133" lon="7.19037">
        <ele>89.4</ele>
      </trkpt>
      <trkpt lat="50.08152" lon="7.19053">
        <ele>90.2</ele>
      </trkpt>
      <trkpt lat="50.08159" lon="7.19075">
        <ele>90.7</ele>
      </trkpt>
      <trkpt lat="50.08166" lon="7.19085">
        <ele>91.0</ele>
      </trkpt>
      <trkpt lat="50.08169" lon="7.19098">
        <ele>91.3</ele>
      </trkpt>
      <trkpt lat="50.08144" lon="7.19209">
        <ele>91.7</ele>
      </trkpt>
      <trkpt lat="50.081438" lon="7.192104">
        <ele>91.7</ele>
      </trkpt>
      <trkpt lat="50.08143" lon="7.1921">
        <ele>91.7</ele>
      </trkpt>
      <trkpt lat="50.08133" lon="7.19277">
        <ele>91.7</ele>
      </trkpt>
      <trkpt lat="50.08133" lon="7.19313">
        <ele>91.7</ele>
      </trkpt>
      <trkpt lat="50.08137" lon="7.19339">
        <ele>92.0</ele>
      </trkpt>
      <trkpt lat="50.0813" lon="7.19491">
        <ele>93.0</ele>
      </trkpt>
      <trkpt lat="50.0813" lon="7.19542">
        <ele>92.9</ele>
      </trkpt>
      <trkpt lat="50.08132" lon="7.19604">
        <ele>92.6</ele>
      </trkpt>
      <trkpt lat="50.08134" lon="7.19624">
        <ele>92.6</ele>
      </trkpt>
      <trkpt lat="50.08134" lon="7.19624">
        <ele>92.6</ele>
      </trkpt>
      <trkpt lat="50.08145" lon="7.1973">
        <ele>92.4</ele>
      </trkpt>
      <trkpt lat="50.08153" lon="7.19772">
        <ele>92.2</ele>
      </trkpt>
      <trkpt lat="50.08171" lon="7.19842">
        <ele>92.3</ele>
      </trkpt>
      <trkpt lat="50.08193" lon="7.19907">
        <ele>93.0</ele>
      </trkpt>
      <trkpt lat="50.08204" lon="7.19934">
        <ele>93.3</ele>
      </trkpt>
      <trkpt lat="50.082291" lon="7.199843">
        <ele>93.9</ele>
      </trkpt>
      <trkpt lat="50.08238" lon="7.20002">
        <ele>94.1</ele>
      </trkpt>
      <trkpt lat="50.08239" lon="7.20001">
        <ele>94.2</ele>
      </trkpt>
      <trkpt lat="50.08266" lon="7.20043">
        <ele>95.3</ele>
      </trkpt>
      <trkpt lat="50.08288" lon="7.20073">
        <ele>96.1</ele>
      </trkpt>
      <trkpt lat="50.08312" lon="7.20114">
        <ele>95.8</ele>
      </trkpt>
      <trkpt lat="50.08327" lon="7.20151">
        <ele>94.6</ele>
      </trkpt>
      <trkpt lat="50.08328" lon="7.20171">
        <ele>93.6</ele>
      </trkpt>
      <trkpt lat="50.08317" lon="7.20215">
        <ele>92.3</ele>
      </trkpt>
      <trkpt lat="50.08321" lon="7.20219">
        <ele>92.3</ele>
      </trkpt>
      <trkpt lat="50.08342" lon="7.20236">
        <ele>92.8</ele>
      </trkpt>
      <trkpt lat="50.08355" lon="7.20243">
        <ele>93.3</ele>
      </trkpt>
      <trkpt lat="50.08387" lon="7.20248">
        <ele>94.7</ele>
      </trkpt>
      <trkpt lat="50.08414" lon="7.20248">
        <ele>96.0</ele>
      </trkpt>
      <trkpt lat="50.08428" lon="7.20253">
        <ele>96.5</ele>
      </trkpt>
      <trkpt lat="50.0844" lon="7.20262">
        <ele>96.6</ele>
      </trkpt>
      <trkpt lat="50.08513" lon="7.20329">
        <ele>94.7</ele>
      </trkpt>
      <trkpt lat="50.08543" lon="7.20348">
        <ele>94.6</ele>
      </trkpt>
      <trkpt lat="50.08558" lon="7.20354">
        <ele>94.7</ele>
      </trkpt>
      <trkpt lat="50.08573" lon="7.20356">
        <ele>95.0</ele>
      </trkpt>
      <trkpt lat="50.08583" lon="7.20355">
        <ele>95.2</ele>
      </trkpt>
      <trkpt lat="50.08605" lon="7.20349">
        <ele>95.3</ele>
      </trkpt>
      <trkpt lat="50.0863" lon="7.20333">
        <ele>95.5</ele>
      </trkpt>
      <trkpt lat="50.08668" lon="7.20291">
        <ele>97.5</ele>
      </trkpt>
      <trkpt lat="50.08718" lon="7.20232">
        <ele>97.3</ele>
      </trkpt>
      <trkpt lat="50.08747" lon="7.20204">
        <ele>95.3</ele>
      </trkpt>
      <trkpt lat="50.08772" lon="7.20186">
        <ele>93.7</ele>
      </trkpt>
      <trkpt lat="50.08772" lon="7.20186">
        <ele>93.7</ele>
      </trkpt>
      <trkpt lat="50.08852" lon="7.20129">
        <ele>91.3</ele>
      </trkpt>
      <trkpt lat="50.08865" lon="7.20115">
        <ele>91.3</ele>
      </trkpt>
      <trkpt lat="50.0891" lon="7.20046">
        <ele>90.5</ele>
      </trkpt>
      <trkpt lat="50.0891" lon="7.20046">
        <ele>90.5</ele>
      </trkpt>
      <trkpt lat="50.08919" lon="7.20029">
        <ele>90.3</ele>
      </trkpt>
      <trkpt lat="50.08926" lon="7.20003">
        <ele>90.8</ele>
      </trkpt>
      <trkpt lat="50.08928" lon="7.19988">
        <ele>92.2</ele>
      </trkpt>
      <trkpt lat="50.08926" lon="7.19955">
        <ele>96.0</ele>
      </trkpt>
      <trkpt lat="50.08921" lon="7.1994">
        <ele>98.0</ele>
      </trkpt>
      <trkpt lat="50.08926" lon="7.19936">
        <ele>98.1</ele>
      </trkpt>
      <trkpt lat="50.08927" lon="7.19907">
        <ele>101.3</ele>
      </trkpt>
      <trkpt lat="50.08931" lon="7.19894">
        <ele>102.4</ele>
      </trkpt>
      <trkpt lat="50.08957" lon="7.19858">
        <ele>103.1</ele>
      </trkpt>
      <trkpt lat="50.08998" lon="7.1981">
        <ele>104.6</ele>
      </trkpt>
      <trkpt lat="50.09019" lon="7.19789">
        <ele>106.9</ele>
      </trkpt>
      <trkpt lat="50.09054" lon="7.1976">
        <ele>108.8</ele>
      </trkpt>
      <trkpt lat="50.09092" lon="7.19734">
        <ele>109.1</ele>
      </trkpt>
      <trkpt lat="50.09152" lon="7.19698">
        <ele>106.8</ele>
      </trkpt>
      <trkpt lat="50.09211" lon="7.19662">
        <ele>101.3</ele>
      </trkpt>
      <trkpt lat="50.0925" lon="7.19633">
        <ele>102.7</ele>
      </trkpt>
      <trkpt lat="50.09279" lon="7.19608">
        <ele>105.7</ele>
      </trkpt>
      <trkpt lat="50.09315" lon="7.19572">
        <ele>107.5</ele>
      </trkpt>
      <trkpt lat="50.09341" lon="7.19542">
        <ele>107.4</ele>
      </trkpt>
      <trkpt lat="50.09383" lon="7.19488">
        <ele>106.1</ele>
      </trkpt>
      <trkpt lat="50.09425" lon="7.19435">
        <ele>107.1</ele>
      </trkpt>
      <trkpt lat="50.09467" lon="7.19386">
        <ele>105.9</ele>
      </trkpt>
      <trkpt lat="50.09503" lon="7.19348">
        <ele>100.1</ele>
      </trkpt>
      <trkpt lat="50.09578" lon="7.19283">
        <ele>100.7</ele>
      </trkpt>
      <trkpt lat="50.09617" lon="7.19256">
        <ele>103.7</ele>
      </trkpt>
      <trkpt lat="50.09646" lon="7.19238">
        <ele>105.6</ele>
      </trkpt>
      <trkpt lat="50.09707" lon="7.19206">
        <ele>107.3</ele>
      </trkpt>
      <trkpt lat="50.09748" lon="7.19189">
        <ele>106.7</ele>
      </trkpt>
      <trkpt lat="50.09832" lon="7.19161">
        <ele>105.1</ele>
      </trkpt>
      <trkpt lat="50.09916" lon="7.19133">
        <ele>108.8</ele>
      </trkpt>
      <trkpt lat="50.09963" lon="7.19114">
        <ele>109.1</ele>
      </trkpt>
      <trkpt lat="50.1001" lon="7.19096">
        <ele>107.3</ele>
      </trkpt>
      <trkpt lat="50.10082" lon="7.19062">
        <ele>105.8</ele>
      </trkpt>
      <trkpt lat="50.10154" lon="7.19028">
        <ele>103.7</ele>
      </trkpt>
      <trkpt lat="50.10227" lon="7.18995">
        <ele>98.9</ele>
      </trkpt>
      <trkpt lat="50.10289" lon="7.18973">
        <ele>99.1</ele>
      </trkpt>
      <trkpt lat="50.10331" lon="7.18961">
        <ele>99.5</ele>
      </trkpt>
      <trkpt lat="50.10379" lon="7.18953">
        <ele>104.4</ele>
      </trkpt>
      <trkpt lat="50.10427" lon="7.18945">
        <ele>109.6</ele>
      </trkpt>
      <trkpt lat="50.1047" lon="7.18943">
        <ele>109.7</ele>
      </trkpt>
      <trkpt lat="50.10491" lon="7.18944">
        <ele>109.0</ele>
      </trkpt>
      <trkpt lat="50.10523" lon="7.18949">
        <ele>108.4</ele>
      </trkpt>
      <trkpt lat="50.10565" lon="7.18963">
        <ele>105.6</ele>
      </trkpt>
      <trkpt lat="50.10565" lon="7.18963">
        <ele>105.6</ele>
      </trkpt>
      <trkpt lat="50.10565" lon="7.18963">
        <ele>105.6</ele>
      </trkpt>
      <trkpt lat="50.10615" lon="7.18986">
        <ele>102.3</ele>
      </trkpt>
      <trkpt lat="50.10644" lon="7.19005">
        <ele>99.7</ele>
      </trkpt>
      <trkpt lat="50.10711" lon="7.19058">
        <ele>109.9</ele>
      </trkpt>
      <trkpt lat="50.10766" lon="7.1911">
        <ele>109.8</ele>
      </trkpt>
      <trkpt lat="50.10815" lon="7.19161">
        <ele>100.4</ele>
      </trkpt>
      <trkpt lat="50.10864" lon="7.19213">
        <ele>102.2</ele>
      </trkpt>
      <trkpt lat="50.10936" lon="7.19294">
        <ele>99.0</ele>
      </trkpt>
      <trkpt lat="50.10976" lon="7.19343">
        <ele>95.1</ele>
      </trkpt>
      <trkpt lat="50.11017" lon="7.19391">
        <ele>99.4</ele>
      </trkpt>
      <trkpt lat="50.1106" lon="7.19448">
        <ele>100.2</ele>
      </trkpt>
      <trkpt lat="50.11104" lon="7.19504">
        <ele>96.4</ele>
      </trkpt>
      <trkpt lat="50.11154" lon="7.19575">
        <ele>100.4</ele>
      </trkpt>
      <trkpt lat="50.11186" lon="7.19625">
        <ele>102.9</ele>
      </trkpt>
      <trkpt lat="50.11216" lon="7.19678">
        <ele>102.9</ele>
      </trkpt>
      <trkpt lat="50.11243" lon="7.19733">
        <ele>106.4</ele>
      </trkpt>
      <trkpt lat="50.11275" lon="7.19806">
        <ele>111.0</ele>
      </trkpt>
      <trkpt lat="50.11302" lon="7.19883">
        <ele>108.3</ele>
      </trkpt>
      <trkpt lat="50.1133" lon="7.19979">
        <ele>102.2</ele>
      </trkpt>
      <trkpt lat="50.11345" lon="7.20044">
        <ele>103.2</ele>
      </trkpt>
      <trkpt lat="50.1137" lon="7.20178">
        <ele>127.3</ele>
      </trkpt>
      <trkpt lat="50.11385" lon="7.20281">
        <ele>99.8</ele>
      </trkpt>
      <trkpt lat="50.11395" lon="7.20368">
        <ele>100.4</ele>
      </trkpt>
      <trkpt lat="50.11399" lon="7.2042">
        <ele>101.3</ele>
      </trkpt>
      <trkpt lat="50.11404" lon="7.20525">
        <ele>102.1</ele>
      </trkpt>
      <trkpt lat="50.114044" lon="7.205485">
        <ele>102.2</ele>
      </trkpt>
      <trkpt lat="50.11405" lon="7.20578">
        <ele>102.4</ele>
      </trkpt>
      <trkpt lat="50.11404" lon="7.20632">
        <ele>102.2</ele>
      </trkpt>
      <trkpt lat="50.11396" lon="7.20716">
        <ele>105.0</ele>
      </trkpt>
      <trkpt lat="50.11388" lon="7.20765">
        <ele>106.7</ele>
      </trkpt>
      <trkpt lat="50.1138" lon="7.20798">
        <ele>106.6</ele>
      </trkpt>
      <trkpt lat="50.1137" lon="7.2083">
        <ele>104.9</ele>
      </trkpt>
      <trkpt lat="50.11354" lon="7.20875">
        <ele>105.9</ele>
      </trkpt>
      <trkpt lat="50.11334" lon="7.20917">
        <ele>102.3</ele>
      </trkpt>
      <trkpt lat="50.1132" lon="7.20944">
        <ele>102.7</ele>
      </trkpt>
      <trkpt lat="50.11296" lon="7.20979">
        <ele>101.0</ele>
      </trkpt>
      <trkpt lat="50.11282" lon="7.20996">
        <ele>99.1</ele>
      </trkpt>
      <trkpt lat="50.11282" lon="7.20996">
        <ele>99.1</ele>
      </trkpt>
      <trkpt lat="50.11269" lon="7.21012">
        <ele>99.9</ele>
      </trkpt>
      <trkpt lat="50.11217" lon="7.21066">
        <ele>104.3</ele>
      </trkpt>
      <trkpt lat="50.11165" lon="7.21119">
        <ele>104.3</ele>
      </trkpt>
      <trkpt lat="50.11128" lon="7.21163">
        <ele>103.7</ele>
      </trkpt>
      <trkpt lat="50.11068" lon="7.21244">
        <ele>104.6</ele>
      </trkpt>
      <trkpt lat="50.11008" lon="7.21324">
        <ele>100.0</ele>
      </trkpt>
      <trkpt lat="50.10977" lon="7.21375">
        <ele>100.9</ele>
      </trkpt>
      <trkpt lat="50.10956" lon="7.21416">
        <ele>100.9</ele>
      </trkpt>
      <trkpt lat="50.10914" lon="7.21511">
        <ele>93.2</ele>
      </trkpt>
      <trkpt lat="50.10869" lon="7.21626">
        <ele>92.8</ele>
      </trkpt>
      <trkpt lat="50.10829" lon="7.21746">
        <ele>90.0</ele>
      </trkpt>
      <trkpt lat="50.10793" lon="7.21861">
        <ele>86.6</ele>
      </trkpt>
      <trkpt lat="50.10756" lon="7.21977">
        <ele>85.1</ele>
      </trkpt>
      <trkpt lat="50.10732" lon="7.22069">
        <ele>84.8</ele>
      </trkpt>
      <trkpt lat="50.10714" lon="7.22146">
        <ele>86.3</ele>
      </trkpt>
      <trkpt lat="50.10701" lon="7.22216">
        <ele>88.2</ele>
      </trkpt>
      <trkpt lat="50.10693" lon="7.22292">
        <ele>90.0</ele>
      </trkpt>
      <trkpt lat="50.10691" lon="7.22347">
        <ele>90.9</ele>
      </trkpt>
      <trkpt lat="50.10688" lon="7.22439">
        <ele>89.8</ele>
      </trkpt>
      <trkpt lat="50.10689" lon="7.22516">
        <ele>88.5</ele>
      </trkpt>
      <trkpt lat="50.10691" lon="7.22567">
        <ele>88.6</ele>
      </trkpt>
      <trkpt lat="50.10699" lon="7.22669">
        <ele>88.5</ele>
      </trkpt>
      <trkpt lat="50.10707" lon="7.22735">
        <ele>88.5</ele>
      </trkpt>
      <trkpt lat="50.10718" lon="7.22801">
        <ele>88.5</ele>
      </trkpt>
      <trkpt lat="50.10728" lon="7.22852">
        <ele>88.2</ele>
      </trkpt>
      <trkpt lat="50.10744" lon="7.22917">
        <ele>87.9</ele>
      </trkpt>
      <trkpt lat="50.10771" lon="7.23012">
        <ele>87.6</ele>
      </trkpt>
      <trkpt lat="50.108" lon="7.23104">
        <ele>88.6</ele>
      </trkpt>
      <trkpt lat="50.1083" lon="7.23193">
        <ele>87.8</ele>
      </trkpt>
      <trkpt lat="50.10862" lon="7.2328">
        <ele>87.3</ele>
      </trkpt>
      <trkpt lat="50.10905" lon="7.23378">
        <ele>87.7</ele>
      </trkpt>
      <trkpt lat="50.10949" lon="7.23472">
        <ele>87.5</ele>
      </trkpt>
      <trkpt lat="50.10974" lon="7.23518">
        <ele>87.1</ele>
      </trkpt>
      <trkpt lat="50.10997" lon="7.23554">
        <ele>87.0</ele>
      </trkpt>
      <trkpt lat="50.11016" lon="7.23578">
        <ele>87.2</ele>
      </trkpt>
      <trkpt lat="50.11041" lon="7.23604">
        <ele>87.5</ele>
      </trkpt>
      <trkpt lat="50.11052" lon="7.23624">
        <ele>87.5</ele>
      </trkpt>
      <trkpt lat="50.11077" lon="7.23645">
        <ele>87.3</ele>
      </trkpt>
      <trkpt lat="50.11074" lon="7.23652">
        <ele>87.2</ele>
      </trkpt>
      <trkpt lat="50.11074" lon="7.23652">
        <ele>87.2</ele>
      </trkpt>
      <trkpt lat="50.11074" lon="7.23652">
        <ele>87.2</ele>
      </trkpt>
      <trkpt lat="50.11075" lon="7.2365">
        <ele>87.3</ele>
      </trkpt>
      <trkpt lat="50.11075" lon="7.2365">
        <ele>87.3</ele>
      </trkpt>
      <trkpt lat="50.110354" lon="7.238548">
        <ele>94.0</ele>
      </trkpt>
      <trkpt lat="50.11035" lon="7.23855">
        <ele>94.0</ele>
      </trkpt>
      <trkpt lat="50.11037" lon="7.23856">
        <ele>94.0</ele>
      </trkpt>
      <trkpt lat="50.1108" lon="7.23879">
        <ele>92.5</ele>
      </trkpt>
      <trkpt lat="50.110913" lon="7.238853">
        <ele>92.5</ele>
      </trkpt>
      <trkpt lat="50.11123" lon="7.23903">
        <ele>93.5</ele>
      </trkpt>
      <trkpt lat="50.11192" lon="7.23931">
        <ele>99.6</ele>
      </trkpt>
      <trkpt lat="50.11234" lon="7.23935">
        <ele>104.2</ele>
      </trkpt>
      <trkpt lat="50.11278" lon="7.23927">
        <ele>110.6</ele>
      </trkpt>
      <trkpt lat="50.11305" lon="7.23916">
        <ele>113.7</ele>
      </trkpt>
      <trkpt lat="50.11326" lon="7.23906">
        <ele>115.1</ele>
      </trkpt>
      <trkpt lat="50.11387" lon="7.23863">
        <ele>109.5</ele>
      </trkpt>
      <trkpt lat="50.11448" lon="7.23821">
        <ele>103.9</ele>
      </trkpt>
      <trkpt lat="50.11509" lon="7.23779">
        <ele>109.8</ele>
      </trkpt>
      <trkpt lat="50.1158" lon="7.23726">
        <ele>114.5</ele>
      </trkpt>
      <trkpt lat="50.1163" lon="7.23684">
        <ele>107.1</ele>
      </trkpt>
      <trkpt lat="50.1169" lon="7.23626">
        <ele>105.7</ele>
      </trkpt>
      <trkpt lat="50.11738" lon="7.23575">
        <ele>107.6</ele>
      </trkpt>
      <trkpt lat="50.11775" lon="7.23529">
        <ele>105.0</ele>
      </trkpt>
      <trkpt lat="50.11811" lon="7.23483">
        <ele>102.2</ele>
      </trkpt>
      <trkpt lat="50.11854" lon="7.23425">
        <ele>105.7</ele>
      </trkpt>
      <trkpt lat="50.11897" lon="7.23366">
        <ele>103.5</ele>
      </trkpt>
      <trkpt lat="50.11942" lon="7.2331">
        <ele>101.8</ele>
      </trkpt>
      <trkpt lat="50.12" lon="7.23251">
        <ele>104.2</ele>
      </trkpt>
      <trkpt lat="50.12047" lon="7.23209">
        <ele>100.7</ele>
      </trkpt>
      <trkpt lat="50.12094" lon="7.23167">
        <ele>93.8</ele>
      </trkpt>
      <trkpt lat="50.12147" lon="7.23125">
        <ele>94.4</ele>
      </trkpt>
      <trkpt lat="50.12201" lon="7.23082">
        <ele>92.7</ele>
      </trkpt>
      <trkpt lat="50.12254" lon="7.23042">
        <ele>90.3</ele>
      </trkpt>
      <trkpt lat="50.12306" lon="7.23003">
        <ele>89.7</ele>
      </trkpt>
      <trkpt lat="50.12352" lon="7.22975">
        <ele>90.7</ele>
      </trkpt>
      <trkpt lat="50.12409" lon="7.22945">
        <ele>91.1</ele>
      </trkpt>
      <trkpt lat="50.12472" lon="7.22914">
        <ele>92.5</ele>
      </trkpt>
      <trkpt lat="50.12535" lon="7.22883">
        <ele>92.0</ele>
      </trkpt>
      <trkpt lat="50.12599" lon="7.22852">
        <ele>90.4</ele>
      </trkpt>
      <trkpt lat="50.12651" lon="7.22833">
        <ele>89.8</ele>
      </trkpt>
      <trkpt lat="50.12703" lon="7.22814">
        <ele>88.4</ele>
      </trkpt>
      <trkpt lat="50.1277" lon="7.22803">
        <ele>87.9</ele>
      </trkpt>
      <trkpt lat="50.12803" lon="7.22802">
        <ele>88.4</ele>
      </trkpt>
      <trkpt lat="50.12857" lon="7.22803">
        <ele>89.0</ele>
      </trkpt>
      <trkpt lat="50.12897" lon="7.2281">
        <ele>89.4</ele>
      </trkpt>
      <trkpt lat="50.12932" lon="7.2282">
        <ele>89.5</ele>
      </trkpt>
      <trkpt lat="50.12935" lon="7.22811">
        <ele>89.2</ele>
      </trkpt>
      <trkpt lat="50.12988" lon="7.22826">
        <ele>89.0</ele>
      </trkpt>
      <trkpt lat="50.1304" lon="7.22851">
        <ele>89.0</ele>
      </trkpt>
      <trkpt lat="50.13097" lon="7.22884">
        <ele>88.4</ele>
      </trkpt>
      <trkpt lat="50.13174" lon="7.22945">
        <ele>88.1</ele>
      </trkpt>
      <trkpt lat="50.13215" lon="7.22982">
        <ele>88.0</ele>
      </trkpt>
      <trkpt lat="50.13256" lon="7.2302">
        <ele>88.4</ele>
      </trkpt>
      <trkpt lat="50.13285" lon="7.23055">
        <ele>88.9</ele>
      </trkpt>
      <trkpt lat="50.13337" lon="7.23142">
        <ele>90.3</ele>
      </trkpt>
      <trkpt lat="50.13356" lon="7.23155">
        <ele>89.9</ele>
      </trkpt>
      <trkpt lat="50.13377" lon="7.23157">
        <ele>89.2</ele>
      </trkpt>
      <trkpt lat="50.13382" lon="7.23159">
        <ele>89.1</ele>
      </trkpt>
      <trkpt lat="50.1339" lon="7.2317">
        <ele>89.0</ele>
      </trkpt>
      <trkpt lat="50.13432" lon="7.23242">
        <ele>88.9</ele>
      </trkpt>
      <trkpt lat="50.13475" lon="7.23313">
        <ele>88.9</ele>
      </trkpt>
      <trkpt lat="50.13495" lon="7.23358">
        <ele>88.8</ele>
      </trkpt>
      <trkpt lat="50.13531" lon="7.23415">
        <ele>88.9</ele>
      </trkpt>
      <trkpt lat="50.13591" lon="7.235">
        <ele>89.4</ele>
      </trkpt>
      <trkpt lat="50.13608" lon="7.23532">
        <ele>91.3</ele>
      </trkpt>
      <trkpt lat="50.13627" lon="7.23551">
        <ele>92.3</ele>
      </trkpt>
      <trkpt lat="50.13668" lon="7.23575">
        <ele>93.0</ele>
      </trkpt>
      <trkpt lat="50.13694" lon="7.23593">
        <ele>92.0</ele>
      </trkpt>
      <trkpt lat="50.13767" lon="7.23644">
        <ele>88.2</ele>
      </trkpt>
      <trkpt lat="50.13805" lon="7.23669">
        <ele>86.7</ele>
      </trkpt>
      <trkpt lat="50.13866" lon="7.23696">
        <ele>88.4</ele>
      </trkpt>
      <trkpt lat="50.13904" lon="7.23705">
        <ele>88.4</ele>
      </trkpt>
      <trkpt lat="50.13963" lon="7.23717">
        <ele>91.8</ele>
      </trkpt>
      <trkpt lat="50.14023" lon="7.23728">
        <ele>95.9</ele>
      </trkpt>
      <trkpt lat="50.1396" lon="7.23716">
        <ele>91.4</ele>
      </trkpt>
      <trkpt lat="50.13898" lon="7.23704">
        <ele>88.5</ele>
      </trkpt>
      <trkpt lat="50.13898" lon="7.23704">
        <ele>88.5</ele>
      </trkpt>
      <trkpt lat="50.13972" lon="7.23719">
        <ele>92.5</ele>
      </trkpt>
      <trkpt lat="50.14047" lon="7.23733">
        <ele>97.4</ele>
      </trkpt>
      <trkpt lat="50.14104" lon="7.23738">
        <ele>100.8</ele>
      </trkpt>
      <trkpt lat="50.14143" lon="7.23734">
        <ele>102.5</ele>
      </trkpt>
      <trkpt lat="50.14172" lon="7.23728">
        <ele>103.0</ele>
      </trkpt>
      <trkpt lat="50.14212" lon="7.23715">
        <ele>103.2</ele>
      </trkpt>
      <trkpt lat="50.14266" lon="7.23689">
        <ele>98.8</ele>
      </trkpt>
      <trkpt lat="50.14316" lon="7.23651">
        <ele>92.4</ele>
      </trkpt>
      <trkpt lat="50.14351" lon="7.23621">
        <ele>95.2</ele>
      </trkpt>
      <trkpt lat="50.14409" lon="7.23553">
        <ele>96.5</ele>
      </trkpt>
      <trkpt lat="50.14427" lon="7.23525">
        <ele>95.8</ele>
      </trkpt>
      <trkpt lat="50.14459" lon="7.23464">
        <ele>96.4</ele>
      </trkpt>
      <trkpt lat="50.14491" lon="7.23403">
        <ele>94.8</ele>
      </trkpt>
      <trkpt lat="50.14521" lon="7.2335">
        <ele>93.4</ele>
      </trkpt>
      <trkpt lat="50.14551" lon="7.23297">
        <ele>95.1</ele>
      </trkpt>
      <trkpt lat="50.14578" lon="7.23244">
        <ele>95.8</ele>
      </trkpt>
      <trkpt lat="50.14598" lon="7.232">
        <ele>98.3</ele>
      </trkpt>
      <trkpt lat="50.14637" lon="7.23082">
        <ele>99.9</ele>
      </trkpt>
      <trkpt lat="50.14662" lon="7.22995">
        <ele>96.5</ele>
      </trkpt>
      <trkpt lat="50.14673" lon="7.22931">
        <ele>99.2</ele>
      </trkpt>
      <trkpt lat="50.14682" lon="7.22859">
        <ele>101.8</ele>
      </trkpt>
      <trkpt lat="50.14689" lon="7.22759">
        <ele>100.2</ele>
      </trkpt>
      <trkpt lat="50.1469" lon="7.22705">
        <ele>97.9</ele>
      </trkpt>
      <trkpt lat="50.14687" lon="7.22642">
        <ele>95.3</ele>
      </trkpt>
      <trkpt lat="50.14682" lon="7.22584">
        <ele>94.2</ele>
      </trkpt>
      <trkpt lat="50.1467" lon="7.22482">
        <ele>93.4</ele>
      </trkpt>
      <trkpt lat="50.14653" lon="7.22381">
        <ele>98.0</ele>
      </trkpt>
      <trkpt lat="50.14634" lon="7.22283">
        <ele>99.7</ele>
      </trkpt>
      <trkpt lat="50.14621" lon="7.22233">
        <ele>98.5</ele>
      </trkpt>
      <trkpt lat="50.14609" lon="7.22192">
        <ele>96.4</ele>
      </trkpt>
      <trkpt lat="50.14566" lon="7.2207">
        <ele>95.8</ele>
      </trkpt>
      <trkpt lat="50.14558" lon="7.22042">
        <ele>96.9</ele>
      </trkpt>
      <trkpt lat="50.14536" lon="7.21986">
        <ele>99.2</ele>
      </trkpt>
      <trkpt lat="50.14522" lon="7.21968">
        <ele>99.6</ele>
      </trkpt>
      <trkpt lat="50.14497" lon="7.21916">
        <ele>100.5</ele>
      </trkpt>
      <trkpt lat="50.14496" lon="7.21906">
        <ele>101.6</ele>
      </trkpt>
      <trkpt lat="50.1446" lon="7.2183">
        <ele>99.9</ele>
      </trkpt>
      <trkpt lat="50.14425" lon="7.21754">
        <ele>96.7</ele>
      </trkpt>
      <trkpt lat="50.14404" lon="7.217">
        <ele>96.8</ele>
      </trkpt>
      <trkpt lat="50.14364" lon="7.21582">
        <ele>97.5</ele>
      </trkpt>
      <trkpt lat="50.14342" lon="7.21507">
        <ele>92.3</ele>
      </trkpt>
      <trkpt lat="50.1432" lon="7.21432">
        <ele>88.3</ele>
      </trkpt>
      <trkpt lat="50.14312" lon="7.21408">
        <ele>87.9</ele>
      </trkpt>
      <trkpt lat="50.14307" lon="7.21405">
        <ele>87.4</ele>
      </trkpt>
      <trkpt lat="50.14275" lon="7.2132">
        <ele>86.6</ele>
      </trkpt>
      <trkpt lat="50.14273" lon="7.21299">
        <ele>87.2</ele>
      </trkpt>
      <trkpt lat="50.14274" lon="7.21292">
        <ele>87.6</ele>
      </trkpt>
      <trkpt lat="50.14277" lon="7.21286">
        <ele>88.1</ele>
      </trkpt>
      <trkpt lat="50.14261" lon="7.21262">
        <ele>87.1</ele>
      </trkpt>
      <trkpt lat="50.14256" lon="7.21253">
        <ele>86.7</ele>
      </trkpt>
      <trkpt lat="50.14218" lon="7.21149">
        <ele>85.6</ele>
      </trkpt>
      <trkpt lat="50.142" lon="7.2108">
        <ele>84.2</ele>
      </trkpt>
      <trkpt lat="50.14187" lon="7.21018">
        <ele>82.6</ele>
      </trkpt>
      <trkpt lat="50.14175" lon="7.20937">
        <ele>83.1</ele>
      </trkpt>
      <trkpt lat="50.14177" lon="7.20928">
        <ele>83.6</ele>
      </trkpt>
      <trkpt lat="50.14181" lon="7.20921">
        <ele>84.2</ele>
      </trkpt>
      <trkpt lat="50.14178" lon="7.20896">
        <ele>84.5</ele>
      </trkpt>
      <trkpt lat="50.14172" lon="7.20832">
        <ele>85.4</ele>
      </trkpt>
      <trkpt lat="50.14172" lon="7.20832">
        <ele>85.4</ele>
      </trkpt>
      <trkpt lat="50.14167" lon="7.20745">
        <ele>86.1</ele>
      </trkpt>
      <trkpt lat="50.14169" lon="7.20738">
        <ele>86.3</ele>
      </trkpt>
      <trkpt lat="50.14172" lon="7.20732">
        <ele>86.5</ele>
      </trkpt>
      <trkpt lat="50.14179" lon="7.2073">
        <ele>86.8</ele>
      </trkpt>
      <trkpt lat="50.14175" lon="7.20647">
        <ele>86.9</ele>
      </trkpt>
      <trkpt lat="50.14175" lon="7.20557">
        <ele>85.1</ele>
      </trkpt>
      <trkpt lat="50.14183" lon="7.20465">
        <ele>84.6</ele>
      </trkpt>
      <trkpt lat="50.14178" lon="7.20419">
        <ele>83.7</ele>
      </trkpt>
      <trkpt lat="50.14179" lon="7.20395">
        <ele>83.5</ele>
      </trkpt>
      <trkpt lat="50.14191" lon="7.20264">
        <ele>83.4</ele>
      </trkpt>
      <trkpt lat="50.14197" lon="7.20155">
        <ele>84.1</ele>
      </trkpt>
      <trkpt lat="50.14196" lon="7.20081">
        <ele>84.8</ele>
      </trkpt>
      <trkpt lat="50.14199" lon="7.20024">
        <ele>85.1</ele>
      </trkpt>
      <trkpt lat="50.142" lon="7.19943">
        <ele>85.9</ele>
      </trkpt>
      <trkpt lat="50.14199" lon="7.19867">
        <ele>86.5</ele>
      </trkpt>
      <trkpt lat="50.14193" lon="7.19729">
        <ele>86.5</ele>
      </trkpt>
      <trkpt lat="50.14188" lon="7.1959">
        <ele>87.9</ele>
      </trkpt>
      <trkpt lat="50.14184" lon="7.19487">
        <ele>88.7</ele>
      </trkpt>
      <trkpt lat="50.14181" lon="7.19385">
        <ele>89.5</ele>
      </trkpt>
      <trkpt lat="50.14174" lon="7.19267">
        <ele>90.8</ele>
      </trkpt>
      <trkpt lat="50.14166" lon="7.19149">
        <ele>91.7</ele>
      </trkpt>
      <trkpt lat="50.14159" lon="7.1903">
        <ele>90.2</ele>
      </trkpt>
      <trkpt lat="50.14152" lon="7.18944">
        <ele>91.9</ele>
      </trkpt>
      <trkpt lat="50.14145" lon="7.18858">
        <ele>95.5</ele>
      </trkpt>
      <trkpt lat="50.14127" lon="7.18745">
        <ele>97.7</ele>
      </trkpt>
      <trkpt lat="50.14109" lon="7.18632">
        <ele>95.6</ele>
      </trkpt>
      <trkpt lat="50.14091" lon="7.18519">
        <ele>90.1</ele>
      </trkpt>
      <trkpt lat="50.14076" lon="7.18434">
        <ele>92.7</ele>
      </trkpt>
      <trkpt lat="50.1406" lon="7.18348">
        <ele>96.2</ele>
      </trkpt>
      <trkpt lat="50.14042" lon="7.18212">
        <ele>95.3</ele>
      </trkpt>
      <trkpt lat="50.14023" lon="7.18076">
        <ele>91.0</ele>
      </trkpt>
      <trkpt lat="50.14015" lon="7.17981">
        <ele>87.7</ele>
      </trkpt>
      <trkpt lat="50.14007" lon="7.17887">
        <ele>97.1</ele>
      </trkpt>
      <trkpt lat="50.13999" lon="7.17792">
        <ele>104.8</ele>
      </trkpt>
      <trkpt lat="50.13995" lon="7.17724">
        <ele>90.4</ele>
      </trkpt>
      <trkpt lat="50.13994" lon="7.17659">
        <ele>89.8</ele>
      </trkpt>
      <trkpt lat="50.14" lon="7.17553">
        <ele>85.9</ele>
      </trkpt>
      <trkpt lat="50.14012" lon="7.1746">
        <ele>85.9</ele>
      </trkpt>
      <trkpt lat="50.14016" lon="7.17437">
        <ele>86.3</ele>
      </trkpt>
      <trkpt lat="50.14042" lon="7.17342">
        <ele>85.3</ele>
      </trkpt>
      <trkpt lat="50.14064" lon="7.17275">
        <ele>85.0</ele>
      </trkpt>
      <trkpt lat="50.14102" lon="7.17181">
        <ele>84.9</ele>
      </trkpt>
      <trkpt lat="50.1411" lon="7.17167">
        <ele>84.7</ele>
      </trkpt>
      <trkpt lat="50.14131" lon="7.17136">
        <ele>85.8</ele>
      </trkpt>
      <trkpt lat="50.14157" lon="7.17109">
        <ele>86.4</ele>
      </trkpt>
      <trkpt lat="50.14176" lon="7.17091">
        <ele>87.2</ele>
      </trkpt>
      <trkpt lat="50.14253" lon="7.17037">
        <ele>92.0</ele>
      </trkpt>
      <trkpt lat="50.14299" lon="7.1701">
        <ele>90.7</ele>
      </trkpt>
      <trkpt lat="50.14344" lon="7.1699">
        <ele>89.3</ele>
      </trkpt>
      <trkpt lat="50.14372" lon="7.16978">
        <ele>89.5</ele>
      </trkpt>
      <trkpt lat="50.14396" lon="7.16973">
        <ele>89.5</ele>
      </trkpt>
    </trkseg>
  </trk>
</gpx>
