<?xml version="1.0" encoding="UTF-8"?>
<gpx xmlns:gpxdata="http://www.cluetrust.com/XML/GPXDATA/1/0" xmlns:xsi="http://www.w3.org/2001/XMLSchema-instance" xmlns="http://www.topografix.com/GPX/1/1" version="1.1" creator="http://ridewithgps.com/" xsi:schemaLocation="http://www.topografix.com/GPX/1/1 http://www.topografix.com/GPX/1/1/gpx.xsd http://www.cluetrust.com/XML/GPXDATA/1/0 http://www.cluetrust.com/Schemas/gpxdata10.xsd">
  <metadata>
    <name>Venlo - Wansum 40km ENG 2026</name>
    <link href="https://ridewithgps.com/routes/56419706">
      <text>Venlo - Wansum 40km ENG 2026</text>
    </link>
    <time>2026-07-31T11:42:36Z</time>
  </metadata>
  <trk>
    <name>Venlo - Wansum 40km ENG 2026</name>
    <trkseg>
      <trkpt lat="51.37204" lon="6.16788">
        <ele>18.2</ele>
      </trkpt>
      <trkpt lat="51.37204" lon="6.16788">
        <ele>18.2</ele>
      </trkpt>
      <trkpt lat="51.37255" lon="6.16818">
        <ele>18.7</ele>
      </trkpt>
      <trkpt lat="51.37271" lon="6.16829">
        <ele>18.7</ele>
      </trkpt>
      <trkpt lat="51.37291" lon="6.1684">
        <ele>18.2</ele>
      </trkpt>
      <trkpt lat="51.37338" lon="6.16863">
        <ele>16.6</ele>
      </trkpt>
      <trkpt lat="51.37359" lon="6.16879">
        <ele>16.8</ele>
      </trkpt>
      <trkpt lat="51.37358" lon="6.16887">
        <ele>17.1</ele>
      </trkpt>
      <trkpt lat="51.37359" lon="6.16894">
        <ele>17.3</ele>
      </trkpt>
      <trkpt lat="51.37361" lon="6.16899">
        <ele>17.4</ele>
      </trkpt>
      <trkpt lat="51.37365" lon="6.16902">
        <ele>17.5</ele>
      </trkpt>
      <trkpt lat="51.37368" lon="6.16904">
        <ele>17.6</ele>
      </trkpt>
      <trkpt lat="51.37372" lon="6.16903">
        <ele>17.5</ele>
      </trkpt>
      <trkpt lat="51.37376" lon="6.169">
        <ele>17.4</ele>
      </trkpt>
      <trkpt lat="51.37379" lon="6.16894">
        <ele>17.2</ele>
      </trkpt>
      <trkpt lat="51.3738" lon="6.16887">
        <ele>16.9</ele>
      </trkpt>
      <trkpt lat="51.37396" lon="6.16881">
        <ele>16.5</ele>
      </trkpt>
      <trkpt lat="51.37427" lon="6.16887">
        <ele>16.7</ele>
      </trkpt>
      <trkpt lat="51.3746" lon="6.1689">
        <ele>17.4</ele>
      </trkpt>
      <trkpt lat="51.37507" lon="6.16889">
        <ele>17.9</ele>
      </trkpt>
      <trkpt lat="51.37546" lon="6.16886">
        <ele>17.1</ele>
      </trkpt>
      <trkpt lat="51.37557" lon="6.16884">
        <ele>16.9</ele>
      </trkpt>
      <trkpt lat="51.37626" lon="6.16859">
        <ele>17.6</ele>
      </trkpt>
      <trkpt lat="51.37682" lon="6.16834">
        <ele>19.4</ele>
      </trkpt>
      <trkpt lat="51.37708" lon="6.16821">
        <ele>19.2</ele>
      </trkpt>
      <trkpt lat="51.37757" lon="6.16792">
        <ele>18.1</ele>
      </trkpt>
      <trkpt lat="51.37805" lon="6.16763">
        <ele>16.0</ele>
      </trkpt>
      <trkpt lat="51.37834" lon="6.16751">
        <ele>15.1</ele>
      </trkpt>
      <trkpt lat="51.37892" lon="6.16732">
        <ele>16.1</ele>
      </trkpt>
      <trkpt lat="51.3795" lon="6.16713">
        <ele>17.2</ele>
      </trkpt>
      <trkpt lat="51.37994" lon="6.16708">
        <ele>18.3</ele>
      </trkpt>
      <trkpt lat="51.3801" lon="6.16707">
        <ele>18.6</ele>
      </trkpt>
      <trkpt lat="51.38055" lon="6.16706">
        <ele>19.4</ele>
      </trkpt>
      <trkpt lat="51.38101" lon="6.16706">
        <ele>19.7</ele>
      </trkpt>
      <trkpt lat="51.3816" lon="6.16708">
        <ele>19.1</ele>
      </trkpt>
      <trkpt lat="51.38188" lon="6.1671">
        <ele>19.2</ele>
      </trkpt>
      <trkpt lat="51.38224" lon="6.16723">
        <ele>19.6</ele>
      </trkpt>
      <trkpt lat="51.38236" lon="6.16729">
        <ele>19.7</ele>
      </trkpt>
      <trkpt lat="51.38281" lon="6.16763">
        <ele>20.9</ele>
      </trkpt>
      <trkpt lat="51.38327" lon="6.16796">
        <ele>22.4</ele>
      </trkpt>
      <trkpt lat="51.3834" lon="6.16816">
        <ele>22.8</ele>
      </trkpt>
      <trkpt lat="51.38353" lon="6.16826">
        <ele>22.9</ele>
      </trkpt>
      <trkpt lat="51.38356" lon="6.16817">
        <ele>22.8</ele>
      </trkpt>
      <trkpt lat="51.38359" lon="6.16803">
        <ele>22.6</ele>
      </trkpt>
      <trkpt lat="51.3837" lon="6.16814">
        <ele>22.8</ele>
      </trkpt>
      <trkpt lat="51.38387" lon="6.16821">
        <ele>22.9</ele>
      </trkpt>
      <trkpt lat="51.38414" lon="6.16826">
        <ele>22.9</ele>
      </trkpt>
      <trkpt lat="51.38492" lon="6.16822">
        <ele>22.1</ele>
      </trkpt>
      <trkpt lat="51.38505" lon="6.16819">
        <ele>22.2</ele>
      </trkpt>
      <trkpt lat="51.38581" lon="6.16814">
        <ele>24.7</ele>
      </trkpt>
      <trkpt lat="51.38608" lon="6.16815">
        <ele>25.3</ele>
      </trkpt>
      <trkpt lat="51.38635" lon="6.16813">
        <ele>25.8</ele>
      </trkpt>
      <trkpt lat="51.38657" lon="6.16809">
        <ele>26.2</ele>
      </trkpt>
      <trkpt lat="51.38681" lon="6.16803">
        <ele>25.7</ele>
      </trkpt>
      <trkpt lat="51.38764" lon="6.16786">
        <ele>22.8</ele>
      </trkpt>
      <trkpt lat="51.38832" lon="6.16771">
        <ele>24.7</ele>
      </trkpt>
      <trkpt lat="51.38901" lon="6.16756">
        <ele>25.7</ele>
      </trkpt>
      <trkpt lat="51.3897" lon="6.16741">
        <ele>25.1</ele>
      </trkpt>
      <trkpt lat="51.39" lon="6.16738">
        <ele>24.4</ele>
      </trkpt>
      <trkpt lat="51.39013" lon="6.16735">
        <ele>23.7</ele>
      </trkpt>
      <trkpt lat="51.39016" lon="6.16737">
        <ele>23.6</ele>
      </trkpt>
      <trkpt lat="51.39025" lon="6.16755">
        <ele>24.1</ele>
      </trkpt>
      <trkpt lat="51.39073" lon="6.16728">
        <ele>20.7</ele>
      </trkpt>
      <trkpt lat="51.3912" lon="6.16701">
        <ele>20.9</ele>
      </trkpt>
      <trkpt lat="51.39185" lon="6.1666">
        <ele>22.9</ele>
      </trkpt>
      <trkpt lat="51.3925" lon="6.16619">
        <ele>23.6</ele>
      </trkpt>
      <trkpt lat="51.39266" lon="6.16605">
        <ele>23.6</ele>
      </trkpt>
      <trkpt lat="51.39285" lon="6.16594">
        <ele>23.6</ele>
      </trkpt>
      <trkpt lat="51.39362" lon="6.1656">
        <ele>23.2</ele>
      </trkpt>
      <trkpt lat="51.39385" lon="6.16557">
        <ele>23.4</ele>
      </trkpt>
      <trkpt lat="51.39403" lon="6.16542">
        <ele>23.4</ele>
      </trkpt>
      <trkpt lat="51.39454" lon="6.1652">
        <ele>24.5</ele>
      </trkpt>
      <trkpt lat="51.39504" lon="6.16498">
        <ele>25.8</ele>
      </trkpt>
      <trkpt lat="51.39562" lon="6.16484">
        <ele>23.4</ele>
      </trkpt>
      <trkpt lat="51.3962" lon="6.1647">
        <ele>22.3</ele>
      </trkpt>
      <trkpt lat="51.39633" lon="6.16464">
        <ele>22.1</ele>
      </trkpt>
      <trkpt lat="51.39646" lon="6.16455">
        <ele>21.9</ele>
      </trkpt>
      <trkpt lat="51.3969" lon="6.1642">
        <ele>21.4</ele>
      </trkpt>
      <trkpt lat="51.3971" lon="6.16409">
        <ele>21.4</ele>
      </trkpt>
      <trkpt lat="51.39757" lon="6.16387">
        <ele>21.9</ele>
      </trkpt>
      <trkpt lat="51.39764" lon="6.16384">
        <ele>22.1</ele>
      </trkpt>
      <trkpt lat="51.39763" lon="6.16376">
        <ele>22.0</ele>
      </trkpt>
      <trkpt lat="51.39761" lon="6.16328">
        <ele>21.3</ele>
      </trkpt>
      <trkpt lat="51.3976" lon="6.16271">
        <ele>19.8</ele>
      </trkpt>
      <trkpt lat="51.3976" lon="6.16215">
        <ele>18.8</ele>
      </trkpt>
      <trkpt lat="51.39765" lon="6.16072">
        <ele>17.2</ele>
      </trkpt>
      <trkpt lat="51.39771" lon="6.15929">
        <ele>16.2</ele>
      </trkpt>
      <trkpt lat="51.39784" lon="6.1592">
        <ele>16.1</ele>
      </trkpt>
      <trkpt lat="51.39859" lon="6.15899">
        <ele>15.8</ele>
      </trkpt>
      <trkpt lat="51.3987" lon="6.15897">
        <ele>15.8</ele>
      </trkpt>
      <trkpt lat="51.39883" lon="6.15897">
        <ele>15.8</ele>
      </trkpt>
      <trkpt lat="51.39929" lon="6.15905">
        <ele>16.3</ele>
      </trkpt>
      <trkpt lat="51.39948" lon="6.1591">
        <ele>17.1</ele>
      </trkpt>
      <trkpt lat="51.40027" lon="6.15954">
        <ele>18.9</ele>
      </trkpt>
      <trkpt lat="51.40106" lon="6.15998">
        <ele>18.8</ele>
      </trkpt>
      <trkpt lat="51.40185" lon="6.16043">
        <ele>18.5</ele>
      </trkpt>
      <trkpt lat="51.40203" lon="6.16047">
        <ele>18.6</ele>
      </trkpt>
      <trkpt lat="51.40218" lon="6.16046">
        <ele>18.6</ele>
      </trkpt>
      <trkpt lat="51.40251" lon="6.16036">
        <ele>18.4</ele>
      </trkpt>
      <trkpt lat="51.40267" lon="6.16036">
        <ele>18.3</ele>
      </trkpt>
      <trkpt lat="51.40288" lon="6.16044">
        <ele>18.3</ele>
      </trkpt>
      <trkpt lat="51.40317" lon="6.16049">
        <ele>18.1</ele>
      </trkpt>
      <trkpt lat="51.40402" lon="6.16056">
        <ele>17.2</ele>
      </trkpt>
      <trkpt lat="51.40451" lon="6.16056">
        <ele>17.0</ele>
      </trkpt>
      <trkpt lat="51.40485" lon="6.1606">
        <ele>17.0</ele>
      </trkpt>
      <trkpt lat="51.40541" lon="6.16071">
        <ele>17.6</ele>
      </trkpt>
      <trkpt lat="51.40596" lon="6.16081">
        <ele>17.9</ele>
      </trkpt>
      <trkpt lat="51.40605" lon="6.16005">
        <ele>18.4</ele>
      </trkpt>
      <trkpt lat="51.40614" lon="6.15928">
        <ele>18.0</ele>
      </trkpt>
      <trkpt lat="51.40631" lon="6.15798">
        <ele>17.6</ele>
      </trkpt>
      <trkpt lat="51.40647" lon="6.15667">
        <ele>17.0</ele>
      </trkpt>
      <trkpt lat="51.4065" lon="6.15655">
        <ele>17.1</ele>
      </trkpt>
      <trkpt lat="51.40655" lon="6.15647">
        <ele>17.2</ele>
      </trkpt>
      <trkpt lat="51.40663" lon="6.15643">
        <ele>17.3</ele>
      </trkpt>
      <trkpt lat="51.40716" lon="6.15645">
        <ele>17.7</ele>
      </trkpt>
      <trkpt lat="51.40784" lon="6.15668">
        <ele>17.6</ele>
      </trkpt>
      <trkpt lat="51.40853" lon="6.15691">
        <ele>17.2</ele>
      </trkpt>
      <trkpt lat="51.40876" lon="6.15691">
        <ele>17.4</ele>
      </trkpt>
      <trkpt lat="51.40925" lon="6.15678">
        <ele>17.9</ele>
      </trkpt>
      <trkpt lat="51.40953" lon="6.1567">
        <ele>18.0</ele>
      </trkpt>
      <trkpt lat="51.40964" lon="6.15669">
        <ele>18.0</ele>
      </trkpt>
      <trkpt lat="51.40974" lon="6.1567">
        <ele>18.0</ele>
      </trkpt>
      <trkpt lat="51.40984" lon="6.15674">
        <ele>17.9</ele>
      </trkpt>
      <trkpt lat="51.40994" lon="6.15682">
        <ele>17.8</ele>
      </trkpt>
      <trkpt lat="51.4102" lon="6.15711">
        <ele>17.6</ele>
      </trkpt>
      <trkpt lat="51.41029" lon="6.15719">
        <ele>17.5</ele>
      </trkpt>
      <trkpt lat="51.41037" lon="6.15725">
        <ele>17.4</ele>
      </trkpt>
      <trkpt lat="51.41047" lon="6.15729">
        <ele>17.4</ele>
      </trkpt>
      <trkpt lat="51.41101" lon="6.15732">
        <ele>17.6</ele>
      </trkpt>
      <trkpt lat="51.41113" lon="6.15733">
        <ele>17.7</ele>
      </trkpt>
      <trkpt lat="51.41137" lon="6.15741">
        <ele>17.8</ele>
      </trkpt>
      <trkpt lat="51.41198" lon="6.15777">
        <ele>17.5</ele>
      </trkpt>
      <trkpt lat="51.41219" lon="6.15787">
        <ele>17.4</ele>
      </trkpt>
      <trkpt lat="51.41273" lon="6.15804">
        <ele>17.3</ele>
      </trkpt>
      <trkpt lat="51.41296" lon="6.15816">
        <ele>17.1</ele>
      </trkpt>
      <trkpt lat="51.41315" lon="6.15827">
        <ele>17.0</ele>
      </trkpt>
      <trkpt lat="51.41331" lon="6.15841">
        <ele>17.0</ele>
      </trkpt>
      <trkpt lat="51.41369" lon="6.15877">
        <ele>16.6</ele>
      </trkpt>
      <trkpt lat="51.41396" lon="6.159">
        <ele>16.2</ele>
      </trkpt>
      <trkpt lat="51.41467" lon="6.15946">
        <ele>16.5</ele>
      </trkpt>
      <trkpt lat="51.41539" lon="6.15993">
        <ele>17.0</ele>
      </trkpt>
      <trkpt lat="51.41546" lon="6.15999">
        <ele>17.0</ele>
      </trkpt>
      <trkpt lat="51.41577" lon="6.16042">
        <ele>17.0</ele>
      </trkpt>
      <trkpt lat="51.41604" lon="6.16072">
        <ele>17.0</ele>
      </trkpt>
      <trkpt lat="51.41625" lon="6.16092">
        <ele>17.0</ele>
      </trkpt>
      <trkpt lat="51.41646" lon="6.16109">
        <ele>17.0</ele>
      </trkpt>
      <trkpt lat="51.41658" lon="6.16115">
        <ele>17.0</ele>
      </trkpt>
      <trkpt lat="51.41664" lon="6.16084">
        <ele>17.0</ele>
      </trkpt>
      <trkpt lat="51.41673" lon="6.16043">
        <ele>16.9</ele>
      </trkpt>
      <trkpt lat="51.41697" lon="6.15956">
        <ele>16.8</ele>
      </trkpt>
      <trkpt lat="51.41721" lon="6.15869">
        <ele>17.0</ele>
      </trkpt>
      <trkpt lat="51.4174" lon="6.15808">
        <ele>16.4</ele>
      </trkpt>
      <trkpt lat="51.41749" lon="6.15785">
        <ele>15.8</ele>
      </trkpt>
      <trkpt lat="51.41753" lon="6.15781">
        <ele>15.7</ele>
      </trkpt>
      <trkpt lat="51.41759" lon="6.15783">
        <ele>15.6</ele>
      </trkpt>
      <trkpt lat="51.41812" lon="6.15813">
        <ele>15.4</ele>
      </trkpt>
      <trkpt lat="51.41827" lon="6.15812">
        <ele>15.1</ele>
      </trkpt>
      <trkpt lat="51.41842" lon="6.15805">
        <ele>14.5</ele>
      </trkpt>
      <trkpt lat="51.41876" lon="6.15827">
        <ele>14.7</ele>
      </trkpt>
      <trkpt lat="51.41911" lon="6.15855">
        <ele>14.2</ele>
      </trkpt>
      <trkpt lat="51.41951" lon="6.15911">
        <ele>13.1</ele>
      </trkpt>
      <trkpt lat="51.42012" lon="6.15968">
        <ele>13.8</ele>
      </trkpt>
      <trkpt lat="51.42026" lon="6.15974">
        <ele>14.1</ele>
      </trkpt>
      <trkpt lat="51.42031" lon="6.15973">
        <ele>14.0</ele>
      </trkpt>
      <trkpt lat="51.42031" lon="6.15973">
        <ele>14.0</ele>
      </trkpt>
      <trkpt lat="51.42098" lon="6.15956">
        <ele>13.2</ele>
      </trkpt>
      <trkpt lat="51.42115" lon="6.15954">
        <ele>13.0</ele>
      </trkpt>
      <trkpt lat="51.4213" lon="6.15955">
        <ele>12.8</ele>
      </trkpt>
      <trkpt lat="51.42144" lon="6.15961">
        <ele>12.9</ele>
      </trkpt>
      <trkpt lat="51.42205" lon="6.15978">
        <ele>13.2</ele>
      </trkpt>
      <trkpt lat="51.42251" lon="6.15979">
        <ele>13.2</ele>
      </trkpt>
      <trkpt lat="51.42298" lon="6.15981">
        <ele>13.3</ele>
      </trkpt>
      <trkpt lat="51.42348" lon="6.15984">
        <ele>13.6</ele>
      </trkpt>
      <trkpt lat="51.42398" lon="6.15988">
        <ele>14.3</ele>
      </trkpt>
      <trkpt lat="51.4242" lon="6.15993">
        <ele>14.8</ele>
      </trkpt>
      <trkpt lat="51.42446" lon="6.16014">
        <ele>15.4</ele>
      </trkpt>
      <trkpt lat="51.42478" lon="6.16053">
        <ele>15.7</ele>
      </trkpt>
      <trkpt lat="51.42494" lon="6.1606">
        <ele>15.9</ele>
      </trkpt>
      <trkpt lat="51.42514" lon="6.16058">
        <ele>16.2</ele>
      </trkpt>
      <trkpt lat="51.42584" lon="6.16049">
        <ele>17.0</ele>
      </trkpt>
      <trkpt lat="51.42587" lon="6.16053">
        <ele>17.0</ele>
      </trkpt>
      <trkpt lat="51.42589" lon="6.16083">
        <ele>17.0</ele>
      </trkpt>
      <trkpt lat="51.42591" lon="6.16111">
        <ele>16.7</ele>
      </trkpt>
      <trkpt lat="51.42598" lon="6.16147">
        <ele>16.5</ele>
      </trkpt>
      <trkpt lat="51.42602" lon="6.16156">
        <ele>16.5</ele>
      </trkpt>
      <trkpt lat="51.42606" lon="6.1615">
        <ele>16.6</ele>
      </trkpt>
      <trkpt lat="51.42619" lon="6.1614">
        <ele>16.9</ele>
      </trkpt>
      <trkpt lat="51.42662" lon="6.16128">
        <ele>17.5</ele>
      </trkpt>
      <trkpt lat="51.42679" lon="6.16116">
        <ele>17.3</ele>
      </trkpt>
      <trkpt lat="51.42707" lon="6.16093">
        <ele>17.1</ele>
      </trkpt>
      <trkpt lat="51.42712" lon="6.16092">
        <ele>17.0</ele>
      </trkpt>
      <trkpt lat="51.42725" lon="6.16094">
        <ele>17.0</ele>
      </trkpt>
      <trkpt lat="51.42791" lon="6.16116">
        <ele>17.3</ele>
      </trkpt>
      <trkpt lat="51.42865" lon="6.16137">
        <ele>17.0</ele>
      </trkpt>
      <trkpt lat="51.42933" lon="6.16158">
        <ele>16.3</ele>
      </trkpt>
      <trkpt lat="51.43001" lon="6.1618">
        <ele>17.0</ele>
      </trkpt>
      <trkpt lat="51.43037" lon="6.16202">
        <ele>17.0</ele>
      </trkpt>
      <trkpt lat="51.43057" lon="6.16211">
        <ele>17.0</ele>
      </trkpt>
      <trkpt lat="51.43106" lon="6.16226">
        <ele>16.6</ele>
      </trkpt>
      <trkpt lat="51.43135" lon="6.1623">
        <ele>16.2</ele>
      </trkpt>
      <trkpt lat="51.43183" lon="6.16234">
        <ele>16.0</ele>
      </trkpt>
      <trkpt lat="51.43231" lon="6.16241">
        <ele>16.7</ele>
      </trkpt>
      <trkpt lat="51.43294" lon="6.1626">
        <ele>16.5</ele>
      </trkpt>
      <trkpt lat="51.43337" lon="6.16287">
        <ele>16.4</ele>
      </trkpt>
      <trkpt lat="51.43381" lon="6.16314">
        <ele>16.3</ele>
      </trkpt>
      <trkpt lat="51.43397" lon="6.16326">
        <ele>16.2</ele>
      </trkpt>
      <trkpt lat="51.43455" lon="6.16368">
        <ele>16.0</ele>
      </trkpt>
      <trkpt lat="51.43513" lon="6.16397">
        <ele>16.0</ele>
      </trkpt>
      <trkpt lat="51.43566" lon="6.1642">
        <ele>16.0</ele>
      </trkpt>
      <trkpt lat="51.4362" lon="6.16442">
        <ele>15.9</ele>
      </trkpt>
      <trkpt lat="51.43624" lon="6.16446">
        <ele>15.8</ele>
      </trkpt>
      <trkpt lat="51.43627" lon="6.16454">
        <ele>15.8</ele>
      </trkpt>
      <trkpt lat="51.43627" lon="6.16483">
        <ele>15.6</ele>
      </trkpt>
      <trkpt lat="51.43635" lon="6.16617">
        <ele>15.2</ele>
      </trkpt>
      <trkpt lat="51.43643" lon="6.16752">
        <ele>15.0</ele>
      </trkpt>
      <trkpt lat="51.43694" lon="6.16743">
        <ele>15.0</ele>
      </trkpt>
      <trkpt lat="51.43699" lon="6.16737">
        <ele>14.9</ele>
      </trkpt>
      <trkpt lat="51.437" lon="6.16727">
        <ele>14.9</ele>
      </trkpt>
      <trkpt lat="51.43704" lon="6.16722">
        <ele>14.8</ele>
      </trkpt>
      <trkpt lat="51.43733" lon="6.16709">
        <ele>14.6</ele>
      </trkpt>
      <trkpt lat="51.4374" lon="6.16711">
        <ele>14.6</ele>
      </trkpt>
      <trkpt lat="51.43755" lon="6.16726">
        <ele>14.7</ele>
      </trkpt>
      <trkpt lat="51.43763" lon="6.16729">
        <ele>14.6</ele>
      </trkpt>
      <trkpt lat="51.43837" lon="6.16715">
        <ele>14.0</ele>
      </trkpt>
      <trkpt lat="51.43911" lon="6.16701">
        <ele>14.9</ele>
      </trkpt>
      <trkpt lat="51.43984" lon="6.16687">
        <ele>13.6</ele>
      </trkpt>
      <trkpt lat="51.44058" lon="6.16673">
        <ele>13.8</ele>
      </trkpt>
      <trkpt lat="51.44132" lon="6.16659">
        <ele>16.9</ele>
      </trkpt>
      <trkpt lat="51.44127" lon="6.16537">
        <ele>16.1</ele>
      </trkpt>
      <trkpt lat="51.44129" lon="6.16533">
        <ele>16.2</ele>
      </trkpt>
      <trkpt lat="51.44204" lon="6.16521">
        <ele>17.7</ele>
      </trkpt>
      <trkpt lat="51.4428" lon="6.16509">
        <ele>16.0</ele>
      </trkpt>
      <trkpt lat="51.44356" lon="6.16487">
        <ele>14.1</ele>
      </trkpt>
      <trkpt lat="51.44432" lon="6.16465">
        <ele>14.2</ele>
      </trkpt>
      <trkpt lat="51.4442" lon="6.16393">
        <ele>12.8</ele>
      </trkpt>
      <trkpt lat="51.44408" lon="6.16321">
        <ele>12.3</ele>
      </trkpt>
      <trkpt lat="51.44408" lon="6.16312">
        <ele>12.4</ele>
      </trkpt>
      <trkpt lat="51.44421" lon="6.16307">
        <ele>12.4</ele>
      </trkpt>
      <trkpt lat="51.44435" lon="6.16307">
        <ele>12.5</ele>
      </trkpt>
      <trkpt lat="51.44493" lon="6.16323">
        <ele>13.0</ele>
      </trkpt>
      <trkpt lat="51.44551" lon="6.16339">
        <ele>13.6</ele>
      </trkpt>
      <trkpt lat="51.44633" lon="6.16361">
        <ele>14.0</ele>
      </trkpt>
      <trkpt lat="51.44622" lon="6.16444">
        <ele>14.0</ele>
      </trkpt>
      <trkpt lat="51.44622" lon="6.16463">
        <ele>14.0</ele>
      </trkpt>
      <trkpt lat="51.44635" lon="6.16534">
        <ele>14.6</ele>
      </trkpt>
      <trkpt lat="51.44647" lon="6.16606">
        <ele>15.8</ele>
      </trkpt>
      <trkpt lat="51.44648" lon="6.16623">
        <ele>16.2</ele>
      </trkpt>
      <trkpt lat="51.44645" lon="6.16679">
        <ele>17.3</ele>
      </trkpt>
      <trkpt lat="51.44652" lon="6.1673">
        <ele>17.2</ele>
      </trkpt>
      <trkpt lat="51.44652" lon="6.16746">
        <ele>17.2</ele>
      </trkpt>
      <trkpt lat="51.44636" lon="6.16853">
        <ele>18.0</ele>
      </trkpt>
      <trkpt lat="51.4462" lon="6.1696">
        <ele>17.7</ele>
      </trkpt>
      <trkpt lat="51.44678" lon="6.17009">
        <ele>18.1</ele>
      </trkpt>
      <trkpt lat="51.44736" lon="6.17057">
        <ele>18.8</ele>
      </trkpt>
      <trkpt lat="51.44759" lon="6.17075">
        <ele>19.0</ele>
      </trkpt>
      <trkpt lat="51.44813" lon="6.17118">
        <ele>19.3</ele>
      </trkpt>
      <trkpt lat="51.44866" lon="6.17161">
        <ele>19.9</ele>
      </trkpt>
      <trkpt lat="51.44906" lon="6.17192">
        <ele>19.7</ele>
      </trkpt>
      <trkpt lat="51.44917" lon="6.172">
        <ele>19.6</ele>
      </trkpt>
      <trkpt lat="51.44946" lon="6.17299">
        <ele>18.1</ele>
      </trkpt>
      <trkpt lat="51.44962" lon="6.17341">
        <ele>18.0</ele>
      </trkpt>
      <trkpt lat="51.45002" lon="6.17435">
        <ele>18.0</ele>
      </trkpt>
      <trkpt lat="51.45025" lon="6.17442">
        <ele>17.8</ele>
      </trkpt>
      <trkpt lat="51.45065" lon="6.17454">
        <ele>17.6</ele>
      </trkpt>
      <trkpt lat="51.45075" lon="6.17456">
        <ele>17.5</ele>
      </trkpt>
      <trkpt lat="51.45085" lon="6.1746">
        <ele>17.5</ele>
      </trkpt>
      <trkpt lat="51.45134" lon="6.17473">
        <ele>16.9</ele>
      </trkpt>
      <trkpt lat="51.45182" lon="6.17485">
        <ele>16.4</ele>
      </trkpt>
      <trkpt lat="51.45261" lon="6.17505">
        <ele>17.3</ele>
      </trkpt>
      <trkpt lat="51.45339" lon="6.17524">
        <ele>19.1</ele>
      </trkpt>
      <trkpt lat="51.45418" lon="6.17543">
        <ele>20.0</ele>
      </trkpt>
      <trkpt lat="51.45496" lon="6.17562">
        <ele>18.1</ele>
      </trkpt>
      <trkpt lat="51.45575" lon="6.17581">
        <ele>18.0</ele>
      </trkpt>
      <trkpt lat="51.45654" lon="6.176">
        <ele>19.3</ele>
      </trkpt>
      <trkpt lat="51.45732" lon="6.17619">
        <ele>20.2</ele>
      </trkpt>
      <trkpt lat="51.45769" lon="6.17637">
        <ele>21.0</ele>
      </trkpt>
      <trkpt lat="51.45775" lon="6.17637">
        <ele>21.1</ele>
      </trkpt>
      <trkpt lat="51.45781" lon="6.17638">
        <ele>21.3</ele>
      </trkpt>
      <trkpt lat="51.45786" lon="6.17641">
        <ele>21.5</ele>
      </trkpt>
      <trkpt lat="51.45795" lon="6.17649">
        <ele>22.0</ele>
      </trkpt>
      <trkpt lat="51.45814" lon="6.17659">
        <ele>22.9</ele>
      </trkpt>
      <trkpt lat="51.45861" lon="6.17686">
        <ele>22.8</ele>
      </trkpt>
      <trkpt lat="51.45918" lon="6.17724">
        <ele>21.3</ele>
      </trkpt>
      <trkpt lat="51.45968" lon="6.17763">
        <ele>21.7</ele>
      </trkpt>
      <trkpt lat="51.45991" lon="6.17784">
        <ele>22.5</ele>
      </trkpt>
      <trkpt lat="51.46016" lon="6.1781">
        <ele>23.5</ele>
      </trkpt>
      <trkpt lat="51.4606" lon="6.17861">
        <ele>25.1</ele>
      </trkpt>
      <trkpt lat="51.46104" lon="6.17912">
        <ele>25.4</ele>
      </trkpt>
      <trkpt lat="51.46168" lon="6.17983">
        <ele>25.6</ele>
      </trkpt>
      <trkpt lat="51.46229" lon="6.18041">
        <ele>27.0</ele>
      </trkpt>
      <trkpt lat="51.46286" lon="6.18096">
        <ele>26.4</ele>
      </trkpt>
      <trkpt lat="51.4632" lon="6.18133">
        <ele>24.8</ele>
      </trkpt>
      <trkpt lat="51.4635" lon="6.18169">
        <ele>23.2</ele>
      </trkpt>
      <trkpt lat="51.46357" lon="6.1818">
        <ele>23.0</ele>
      </trkpt>
      <trkpt lat="51.46365" lon="6.18184">
        <ele>22.7</ele>
      </trkpt>
      <trkpt lat="51.46378" lon="6.18187">
        <ele>22.1</ele>
      </trkpt>
      <trkpt lat="51.4639" lon="6.18188">
        <ele>21.5</ele>
      </trkpt>
      <trkpt lat="51.46399" lon="6.18191">
        <ele>21.1</ele>
      </trkpt>
      <trkpt lat="51.46408" lon="6.18196">
        <ele>20.8</ele>
      </trkpt>
      <trkpt lat="51.46414" lon="6.18205">
        <ele>20.6</ele>
      </trkpt>
      <trkpt lat="51.46421" lon="6.1822">
        <ele>20.5</ele>
      </trkpt>
      <trkpt lat="51.46427" lon="6.18237">
        <ele>20.4</ele>
      </trkpt>
      <trkpt lat="51.46437" lon="6.18228">
        <ele>19.8</ele>
      </trkpt>
      <trkpt lat="51.46438" lon="6.18226">
        <ele>19.8</ele>
      </trkpt>
      <trkpt lat="51.46454" lon="6.1822">
        <ele>19.0</ele>
      </trkpt>
      <trkpt lat="51.4646" lon="6.18212">
        <ele>18.7</ele>
      </trkpt>
      <trkpt lat="51.46536" lon="6.18222">
        <ele>17.3</ele>
      </trkpt>
      <trkpt lat="51.46611" lon="6.18232">
        <ele>18.1</ele>
      </trkpt>
      <trkpt lat="51.46653" lon="6.18233">
        <ele>18.6</ele>
      </trkpt>
      <trkpt lat="51.46741" lon="6.18225">
        <ele>18.7</ele>
      </trkpt>
      <trkpt lat="51.4683" lon="6.18218">
        <ele>21.1</ele>
      </trkpt>
      <trkpt lat="51.46837" lon="6.18219">
        <ele>21.2</ele>
      </trkpt>
      <trkpt lat="51.46845" lon="6.18221">
        <ele>21.3</ele>
      </trkpt>
      <trkpt lat="51.46911" lon="6.18246">
        <ele>21.9</ele>
      </trkpt>
      <trkpt lat="51.46977" lon="6.18271">
        <ele>19.0</ele>
      </trkpt>
      <trkpt lat="51.47043" lon="6.18297">
        <ele>18.1</ele>
      </trkpt>
      <trkpt lat="51.47043" lon="6.18297">
        <ele>18.1</ele>
      </trkpt>
      <trkpt lat="51.47066" lon="6.18305">
        <ele>18.3</ele>
      </trkpt>
      <trkpt lat="51.47093" lon="6.18311">
        <ele>18.7</ele>
      </trkpt>
      <trkpt lat="51.47117" lon="6.18308">
        <ele>19.0</ele>
      </trkpt>
      <trkpt lat="51.47124" lon="6.18306">
        <ele>19.1</ele>
      </trkpt>
      <trkpt lat="51.47137" lon="6.18302">
        <ele>19.3</ele>
      </trkpt>
      <trkpt lat="51.47152" lon="6.18294">
        <ele>19.6</ele>
      </trkpt>
      <trkpt lat="51.47162" lon="6.18287">
        <ele>19.8</ele>
      </trkpt>
      <trkpt lat="51.47174" lon="6.18274">
        <ele>19.6</ele>
      </trkpt>
      <trkpt lat="51.47186" lon="6.18254">
        <ele>19.1</ele>
      </trkpt>
      <trkpt lat="51.47197" lon="6.1823">
        <ele>18.5</ele>
      </trkpt>
      <trkpt lat="51.47207" lon="6.18204">
        <ele>17.9</ele>
      </trkpt>
      <trkpt lat="51.47217" lon="6.18175">
        <ele>17.2</ele>
      </trkpt>
      <trkpt lat="51.47225" lon="6.18147">
        <ele>17.1</ele>
      </trkpt>
      <trkpt lat="51.47237" lon="6.18093">
        <ele>17.6</ele>
      </trkpt>
      <trkpt lat="51.47247" lon="6.18041">
        <ele>17.9</ele>
      </trkpt>
      <trkpt lat="51.47259" lon="6.1801">
        <ele>18.1</ele>
      </trkpt>
      <trkpt lat="51.47269" lon="6.1799">
        <ele>17.6</ele>
      </trkpt>
      <trkpt lat="51.47286" lon="6.17971">
        <ele>16.7</ele>
      </trkpt>
      <trkpt lat="51.47296" lon="6.17963">
        <ele>16.3</ele>
      </trkpt>
      <trkpt lat="51.47307" lon="6.17956">
        <ele>16.0</ele>
      </trkpt>
      <trkpt lat="51.47332" lon="6.17952">
        <ele>16.1</ele>
      </trkpt>
      <trkpt lat="51.47345" lon="6.17953">
        <ele>16.2</ele>
      </trkpt>
      <trkpt lat="51.4737" lon="6.17959">
        <ele>16.5</ele>
      </trkpt>
      <trkpt lat="51.4738" lon="6.17958">
        <ele>16.5</ele>
      </trkpt>
      <trkpt lat="51.47417" lon="6.17945">
        <ele>15.7</ele>
      </trkpt>
      <trkpt lat="51.4747" lon="6.17936">
        <ele>15.2</ele>
      </trkpt>
      <trkpt lat="51.47514" lon="6.17918">
        <ele>14.9</ele>
      </trkpt>
      <trkpt lat="51.47566" lon="6.1789">
        <ele>17.6</ele>
      </trkpt>
      <trkpt lat="51.47647" lon="6.17859">
        <ele>19.0</ele>
      </trkpt>
      <trkpt lat="51.47712" lon="6.1783">
        <ele>18.3</ele>
      </trkpt>
      <trkpt lat="51.47777" lon="6.17802">
        <ele>17.4</ele>
      </trkpt>
      <trkpt lat="51.47862" lon="6.17767">
        <ele>16.9</ele>
      </trkpt>
      <trkpt lat="51.47896" lon="6.17755">
        <ele>16.3</ele>
      </trkpt>
      <trkpt lat="51.47948" lon="6.17743">
        <ele>16.4</ele>
      </trkpt>
      <trkpt lat="51.48002" lon="6.17738">
        <ele>17.0</ele>
      </trkpt>
      <trkpt lat="51.48082" lon="6.17736">
        <ele>18.0</ele>
      </trkpt>
      <trkpt lat="51.48162" lon="6.17734">
        <ele>16.1</ele>
      </trkpt>
      <trkpt lat="51.48242" lon="6.17732">
        <ele>16.0</ele>
      </trkpt>
      <trkpt lat="51.48321" lon="6.1773">
        <ele>16.0</ele>
      </trkpt>
      <trkpt lat="51.48401" lon="6.17729">
        <ele>15.2</ele>
      </trkpt>
      <trkpt lat="51.48489" lon="6.17726">
        <ele>15.6</ele>
      </trkpt>
      <trkpt lat="51.48578" lon="6.17723">
        <ele>16.0</ele>
      </trkpt>
      <trkpt lat="51.48588" lon="6.17665">
        <ele>16.0</ele>
      </trkpt>
      <trkpt lat="51.48591" lon="6.1763">
        <ele>15.6</ele>
      </trkpt>
      <trkpt lat="51.48594" lon="6.17502">
        <ele>14.9</ele>
      </trkpt>
      <trkpt lat="51.48597" lon="6.17373">
        <ele>16.4</ele>
      </trkpt>
      <trkpt lat="51.48601" lon="6.17245">
        <ele>16.0</ele>
      </trkpt>
      <trkpt lat="51.48604" lon="6.17116">
        <ele>15.4</ele>
      </trkpt>
      <trkpt lat="51.48605" lon="6.16972">
        <ele>13.4</ele>
      </trkpt>
      <trkpt lat="51.48606" lon="6.16965">
        <ele>13.2</ele>
      </trkpt>
      <trkpt lat="51.48608" lon="6.16959">
        <ele>13.1</ele>
      </trkpt>
      <trkpt lat="51.48612" lon="6.1695">
        <ele>13.0</ele>
      </trkpt>
      <trkpt lat="51.48621" lon="6.16942">
        <ele>13.0</ele>
      </trkpt>
      <trkpt lat="51.48656" lon="6.16924">
        <ele>13.7</ele>
      </trkpt>
      <trkpt lat="51.48664" lon="6.1692">
        <ele>13.9</ele>
      </trkpt>
      <trkpt lat="51.48668" lon="6.16913">
        <ele>14.0</ele>
      </trkpt>
      <trkpt lat="51.48672" lon="6.169">
        <ele>13.8</ele>
      </trkpt>
      <trkpt lat="51.48673" lon="6.16862">
        <ele>13.3</ele>
      </trkpt>
      <trkpt lat="51.48673" lon="6.16797">
        <ele>12.1</ele>
      </trkpt>
      <trkpt lat="51.4867" lon="6.16687">
        <ele>9.5</ele>
      </trkpt>
      <trkpt lat="51.48653" lon="6.16582">
        <ele>14.4</ele>
      </trkpt>
      <trkpt lat="51.48647" lon="6.16542">
        <ele>16.7</ele>
      </trkpt>
      <trkpt lat="51.48646" lon="6.16518">
        <ele>18.0</ele>
      </trkpt>
      <trkpt lat="51.48648" lon="6.16505">
        <ele>18.7</ele>
      </trkpt>
      <trkpt lat="51.48653" lon="6.165">
        <ele>19.0</ele>
      </trkpt>
      <trkpt lat="51.48682" lon="6.16492">
        <ele>18.9</ele>
      </trkpt>
      <trkpt lat="51.48705" lon="6.16483">
        <ele>18.7</ele>
      </trkpt>
      <trkpt lat="51.4872" lon="6.16472">
        <ele>18.5</ele>
      </trkpt>
      <trkpt lat="51.48734" lon="6.16456">
        <ele>18.3</ele>
      </trkpt>
      <trkpt lat="51.48746" lon="6.16435">
        <ele>18.1</ele>
      </trkpt>
      <trkpt lat="51.48774" lon="6.16361">
        <ele>17.8</ele>
      </trkpt>
      <trkpt lat="51.48775" lon="6.16352">
        <ele>17.9</ele>
      </trkpt>
      <trkpt lat="51.48775" lon="6.16347">
        <ele>17.9</ele>
      </trkpt>
      <trkpt lat="51.4877" lon="6.16325">
        <ele>18.1</ele>
      </trkpt>
      <trkpt lat="51.48787" lon="6.16307">
        <ele>18.2</ele>
      </trkpt>
      <trkpt lat="51.4882" lon="6.1628">
        <ele>17.9</ele>
      </trkpt>
      <trkpt lat="51.48835" lon="6.16267">
        <ele>17.8</ele>
      </trkpt>
      <trkpt lat="51.48848" lon="6.16257">
        <ele>17.6</ele>
      </trkpt>
      <trkpt lat="51.48873" lon="6.1624">
        <ele>17.5</ele>
      </trkpt>
      <trkpt lat="51.48897" lon="6.16226">
        <ele>17.2</ele>
      </trkpt>
      <trkpt lat="51.4896" lon="6.16197">
        <ele>16.5</ele>
      </trkpt>
      <trkpt lat="51.48978" lon="6.16187">
        <ele>16.3</ele>
      </trkpt>
      <trkpt lat="51.4899" lon="6.1618">
        <ele>16.1</ele>
      </trkpt>
      <trkpt lat="51.49007" lon="6.16172">
        <ele>16.1</ele>
      </trkpt>
      <trkpt lat="51.49034" lon="6.16162">
        <ele>16.4</ele>
      </trkpt>
      <trkpt lat="51.49043" lon="6.16164">
        <ele>16.5</ele>
      </trkpt>
      <trkpt lat="51.49054" lon="6.16166">
        <ele>16.7</ele>
      </trkpt>
      <trkpt lat="51.49055" lon="6.16165">
        <ele>16.7</ele>
      </trkpt>
      <trkpt lat="51.49057" lon="6.16152">
        <ele>16.7</ele>
      </trkpt>
      <trkpt lat="51.49059" lon="6.16146">
        <ele>16.8</ele>
      </trkpt>
      <trkpt lat="51.49059" lon="6.16139">
        <ele>16.8</ele>
      </trkpt>
      <trkpt lat="51.49101" lon="6.16107">
        <ele>17.2</ele>
      </trkpt>
      <trkpt lat="51.49108" lon="6.16105">
        <ele>17.2</ele>
      </trkpt>
      <trkpt lat="51.49153" lon="6.16072">
        <ele>17.8</ele>
      </trkpt>
      <trkpt lat="51.49182" lon="6.16051">
        <ele>18.0</ele>
      </trkpt>
      <trkpt lat="51.49168" lon="6.15981">
        <ele>17.8</ele>
      </trkpt>
      <trkpt lat="51.49154" lon="6.15911">
        <ele>17.0</ele>
      </trkpt>
      <trkpt lat="51.49144" lon="6.15862">
        <ele>17.0</ele>
      </trkpt>
      <trkpt lat="51.49135" lon="6.15834">
        <ele>17.0</ele>
      </trkpt>
      <trkpt lat="51.49123" lon="6.15807">
        <ele>17.0</ele>
      </trkpt>
      <trkpt lat="51.49104" lon="6.15776">
        <ele>17.3</ele>
      </trkpt>
      <trkpt lat="51.49062" lon="6.15724">
        <ele>17.7</ele>
      </trkpt>
      <trkpt lat="51.49044" lon="6.15706">
        <ele>17.5</ele>
      </trkpt>
      <trkpt lat="51.49031" lon="6.157">
        <ele>17.4</ele>
      </trkpt>
      <trkpt lat="51.49017" lon="6.15697">
        <ele>17.2</ele>
      </trkpt>
      <trkpt lat="51.49004" lon="6.15698">
        <ele>17.0</ele>
      </trkpt>
      <trkpt lat="51.48978" lon="6.15699">
        <ele>16.7</ele>
      </trkpt>
      <trkpt lat="51.48904" lon="6.15709">
        <ele>16.0</ele>
      </trkpt>
      <trkpt lat="51.48831" lon="6.15718">
        <ele>16.0</ele>
      </trkpt>
      <trkpt lat="51.48757" lon="6.15728">
        <ele>16.9</ele>
      </trkpt>
      <trkpt lat="51.48683" lon="6.15738">
        <ele>15.4</ele>
      </trkpt>
      <trkpt lat="51.4861" lon="6.15748">
        <ele>15.7</ele>
      </trkpt>
      <trkpt lat="51.48588" lon="6.1565">
        <ele>16.3</ele>
      </trkpt>
      <trkpt lat="51.48585" lon="6.15628">
        <ele>16.9</ele>
      </trkpt>
      <trkpt lat="51.48586" lon="6.15563">
        <ele>18.2</ele>
      </trkpt>
      <trkpt lat="51.48583" lon="6.15498">
        <ele>19.0</ele>
      </trkpt>
      <trkpt lat="51.48572" lon="6.15428">
        <ele>18.0</ele>
      </trkpt>
      <trkpt lat="51.48565" lon="6.15362">
        <ele>17.8</ele>
      </trkpt>
      <trkpt lat="51.48565" lon="6.15339">
        <ele>17.8</ele>
      </trkpt>
      <trkpt lat="51.48569" lon="6.15318">
        <ele>17.6</ele>
      </trkpt>
      <trkpt lat="51.48584" lon="6.15275">
        <ele>17.3</ele>
      </trkpt>
      <trkpt lat="51.48628" lon="6.15202">
        <ele>16.7</ele>
      </trkpt>
      <trkpt lat="51.48643" lon="6.15181">
        <ele>16.4</ele>
      </trkpt>
      <trkpt lat="51.48593" lon="6.15092">
        <ele>17.9</ele>
      </trkpt>
      <trkpt lat="51.48543" lon="6.15002">
        <ele>17.5</ele>
      </trkpt>
      <trkpt lat="51.48495" lon="6.14896">
        <ele>16.1</ele>
      </trkpt>
      <trkpt lat="51.48467" lon="6.14829">
        <ele>16.9</ele>
      </trkpt>
      <trkpt lat="51.48443" lon="6.14761">
        <ele>17.6</ele>
      </trkpt>
      <trkpt lat="51.4842" lon="6.14669">
        <ele>17.2</ele>
      </trkpt>
      <trkpt lat="51.48397" lon="6.14577">
        <ele>20.3</ele>
      </trkpt>
      <trkpt lat="51.48391" lon="6.14563">
        <ele>20.4</ele>
      </trkpt>
      <trkpt lat="51.48383" lon="6.14553">
        <ele>20.3</ele>
      </trkpt>
      <trkpt lat="51.4837" lon="6.14547">
        <ele>19.5</ele>
      </trkpt>
      <trkpt lat="51.48362" lon="6.14546">
        <ele>19.0</ele>
      </trkpt>
      <trkpt lat="51.48354" lon="6.14549">
        <ele>18.4</ele>
      </trkpt>
      <trkpt lat="51.48342" lon="6.14556">
        <ele>17.6</ele>
      </trkpt>
      <trkpt lat="51.48261" lon="6.14618">
        <ele>15.6</ele>
      </trkpt>
      <trkpt lat="51.48241" lon="6.14634">
        <ele>15.7</ele>
      </trkpt>
      <trkpt lat="51.48224" lon="6.1465">
        <ele>15.9</ele>
      </trkpt>
      <trkpt lat="51.48188" lon="6.1457">
        <ele>16.5</ele>
      </trkpt>
      <trkpt lat="51.48152" lon="6.14489">
        <ele>16.7</ele>
      </trkpt>
      <trkpt lat="51.48134" lon="6.14456">
        <ele>16.3</ele>
      </trkpt>
      <trkpt lat="51.481" lon="6.14399">
        <ele>16.0</ele>
      </trkpt>
      <trkpt lat="51.48085" lon="6.14371">
        <ele>16.0</ele>
      </trkpt>
      <trkpt lat="51.48072" lon="6.14336">
        <ele>16.1</ele>
      </trkpt>
      <trkpt lat="51.48037" lon="6.14228">
        <ele>16.0</ele>
      </trkpt>
      <trkpt lat="51.48003" lon="6.1412">
        <ele>17.1</ele>
      </trkpt>
      <trkpt lat="51.48009" lon="6.14104">
        <ele>17.4</ele>
      </trkpt>
      <trkpt lat="51.48014" lon="6.14086">
        <ele>17.8</ele>
      </trkpt>
      <trkpt lat="51.48022" lon="6.14042">
        <ele>18.5</ele>
      </trkpt>
      <trkpt lat="51.48021" lon="6.14027">
        <ele>18.8</ele>
      </trkpt>
      <trkpt lat="51.48018" lon="6.14015">
        <ele>19.1</ele>
      </trkpt>
      <trkpt lat="51.47993" lon="6.13933">
        <ele>18.6</ele>
      </trkpt>
      <trkpt lat="51.47968" lon="6.13851">
        <ele>17.7</ele>
      </trkpt>
      <trkpt lat="51.47942" lon="6.13768">
        <ele>19.0</ele>
      </trkpt>
      <trkpt lat="51.47916" lon="6.13685">
        <ele>20.7</ele>
      </trkpt>
      <trkpt lat="51.47912" lon="6.13674">
        <ele>20.7</ele>
      </trkpt>
      <trkpt lat="51.47906" lon="6.13649">
        <ele>21.4</ele>
      </trkpt>
      <trkpt lat="51.47842" lon="6.13588">
        <ele>22.9</ele>
      </trkpt>
      <trkpt lat="51.47778" lon="6.13528">
        <ele>25.7</ele>
      </trkpt>
      <trkpt lat="51.47742" lon="6.13497">
        <ele>26.9</ele>
      </trkpt>
      <trkpt lat="51.47668" lon="6.13436">
        <ele>26.8</ele>
      </trkpt>
      <trkpt lat="51.47594" lon="6.13375">
        <ele>25.7</ele>
      </trkpt>
      <trkpt lat="51.47525" lon="6.13317">
        <ele>25.2</ele>
      </trkpt>
      <trkpt lat="51.47456" lon="6.13259">
        <ele>27.0</ele>
      </trkpt>
      <trkpt lat="51.47387" lon="6.132">
        <ele>28.7</ele>
      </trkpt>
      <trkpt lat="51.47318" lon="6.13142">
        <ele>28.8</ele>
      </trkpt>
      <trkpt lat="51.4725" lon="6.13084">
        <ele>26.0</ele>
      </trkpt>
      <trkpt lat="51.47183" lon="6.13032">
        <ele>24.5</ele>
      </trkpt>
      <trkpt lat="51.4717" lon="6.1304">
        <ele>24.5</ele>
      </trkpt>
      <trkpt lat="51.47164" lon="6.13006">
        <ele>24.0</ele>
      </trkpt>
      <trkpt lat="51.4715" lon="6.12959">
        <ele>22.7</ele>
      </trkpt>
      <trkpt lat="51.47113" lon="6.12849">
        <ele>22.9</ele>
      </trkpt>
      <trkpt lat="51.47076" lon="6.12738">
        <ele>25.1</ele>
      </trkpt>
      <trkpt lat="51.47036" lon="6.1261">
        <ele>24.6</ele>
      </trkpt>
      <trkpt lat="51.4701" lon="6.12535">
        <ele>24.7</ele>
      </trkpt>
      <trkpt lat="51.46985" lon="6.12459">
        <ele>25.1</ele>
      </trkpt>
      <trkpt lat="51.46957" lon="6.12371">
        <ele>24.5</ele>
      </trkpt>
      <trkpt lat="51.46928" lon="6.12283">
        <ele>25.1</ele>
      </trkpt>
      <trkpt lat="51.46908" lon="6.12204">
        <ele>27.0</ele>
      </trkpt>
      <trkpt lat="51.46893" lon="6.12134">
        <ele>26.9</ele>
      </trkpt>
      <trkpt lat="51.4687" lon="6.1203">
        <ele>24.8</ele>
      </trkpt>
      <trkpt lat="51.46847" lon="6.11926">
        <ele>23.1</ele>
      </trkpt>
      <trkpt lat="51.46828" lon="6.11835">
        <ele>23.1</ele>
      </trkpt>
      <trkpt lat="51.46809" lon="6.11743">
        <ele>23.3</ele>
      </trkpt>
      <trkpt lat="51.4679" lon="6.11652">
        <ele>23.4</ele>
      </trkpt>
      <trkpt lat="51.46805" lon="6.11643">
        <ele>23.2</ele>
      </trkpt>
      <trkpt lat="51.46806" lon="6.11638">
        <ele>23.2</ele>
      </trkpt>
      <trkpt lat="51.46801" lon="6.11617">
        <ele>23.2</ele>
      </trkpt>
      <trkpt lat="51.46846" lon="6.11587">
        <ele>22.8</ele>
      </trkpt>
      <trkpt lat="51.4689" lon="6.11556">
        <ele>22.3</ele>
      </trkpt>
      <trkpt lat="51.46933" lon="6.11526">
        <ele>22.0</ele>
      </trkpt>
      <trkpt lat="51.46976" lon="6.11497">
        <ele>22.0</ele>
      </trkpt>
      <trkpt lat="51.47043" lon="6.11453">
        <ele>22.0</ele>
      </trkpt>
      <trkpt lat="51.4711" lon="6.11409">
        <ele>22.0</ele>
      </trkpt>
      <trkpt lat="51.47157" lon="6.11378">
        <ele>22.0</ele>
      </trkpt>
      <trkpt lat="51.47156" lon="6.11369">
        <ele>22.0</ele>
      </trkpt>
      <trkpt lat="51.47167" lon="6.1136">
        <ele>22.0</ele>
      </trkpt>
      <trkpt lat="51.47233" lon="6.11307">
        <ele>20.9</ele>
      </trkpt>
      <trkpt lat="51.473" lon="6.11253">
        <ele>20.6</ele>
      </trkpt>
      <trkpt lat="51.47367" lon="6.112">
        <ele>20.6</ele>
      </trkpt>
      <trkpt lat="51.47434" lon="6.11147">
        <ele>20.7</ele>
      </trkpt>
      <trkpt lat="51.47501" lon="6.11093">
        <ele>20.9</ele>
      </trkpt>
      <trkpt lat="51.47522" lon="6.11079">
        <ele>21.3</ele>
      </trkpt>
      <trkpt lat="51.47572" lon="6.11009">
        <ele>22.0</ele>
      </trkpt>
      <trkpt lat="51.47622" lon="6.10939">
        <ele>21.1</ele>
      </trkpt>
      <trkpt lat="51.47629" lon="6.10927">
        <ele>21.1</ele>
      </trkpt>
      <trkpt lat="51.47695" lon="6.1084">
        <ele>21.0</ele>
      </trkpt>
      <trkpt lat="51.4776" lon="6.10752">
        <ele>21.9</ele>
      </trkpt>
      <trkpt lat="51.47817" lon="6.10673">
        <ele>21.2</ele>
      </trkpt>
      <trkpt lat="51.47873" lon="6.10594">
        <ele>20.9</ele>
      </trkpt>
      <trkpt lat="51.4793" lon="6.10514">
        <ele>22.8</ele>
      </trkpt>
      <trkpt lat="51.47986" lon="6.10435">
        <ele>26.2</ele>
      </trkpt>
      <trkpt lat="51.48043" lon="6.10356">
        <ele>28.2</ele>
      </trkpt>
      <trkpt lat="51.48107" lon="6.10267">
        <ele>28.5</ele>
      </trkpt>
      <trkpt lat="51.48172" lon="6.10179">
        <ele>24.7</ele>
      </trkpt>
      <trkpt lat="51.48237" lon="6.1009">
        <ele>22.1</ele>
      </trkpt>
      <trkpt lat="51.4828" lon="6.10035">
        <ele>22.4</ele>
      </trkpt>
      <trkpt lat="51.4829" lon="6.10029">
        <ele>22.5</ele>
      </trkpt>
      <trkpt lat="51.48358" lon="6.1">
        <ele>24.2</ele>
      </trkpt>
      <trkpt lat="51.48426" lon="6.09971">
        <ele>27.0</ele>
      </trkpt>
      <trkpt lat="51.4843" lon="6.09982">
        <ele>27.2</ele>
      </trkpt>
      <trkpt lat="51.48431" lon="6.09981">
        <ele>27.2</ele>
      </trkpt>
      <trkpt lat="51.48512" lon="6.09945">
        <ele>29.5</ele>
      </trkpt>
      <trkpt lat="51.48593" lon="6.09909">
        <ele>28.5</ele>
      </trkpt>
      <trkpt lat="51.48674" lon="6.09873">
        <ele>25.0</ele>
      </trkpt>
      <trkpt lat="51.48724" lon="6.09853">
        <ele>25.0</ele>
      </trkpt>
      <trkpt lat="51.48774" lon="6.09834">
        <ele>25.3</ele>
      </trkpt>
      <trkpt lat="51.48838" lon="6.09805">
        <ele>25.0</ele>
      </trkpt>
      <trkpt lat="51.48902" lon="6.09776">
        <ele>23.9</ele>
      </trkpt>
      <trkpt lat="51.48959" lon="6.09753">
        <ele>23.6</ele>
      </trkpt>
      <trkpt lat="51.49017" lon="6.09729">
        <ele>24.1</ele>
      </trkpt>
      <trkpt lat="51.49077" lon="6.09704">
        <ele>25.2</ele>
      </trkpt>
      <trkpt lat="51.49136" lon="6.09679">
        <ele>25.6</ele>
      </trkpt>
      <trkpt lat="51.49166" lon="6.0967">
        <ele>26.1</ele>
      </trkpt>
      <trkpt lat="51.49173" lon="6.09663">
        <ele>25.7</ele>
      </trkpt>
      <trkpt lat="51.49209" lon="6.0963">
        <ele>23.8</ele>
      </trkpt>
      <trkpt lat="51.49266" lon="6.09577">
        <ele>21.8</ele>
      </trkpt>
      <trkpt lat="51.49329" lon="6.09513">
        <ele>21.1</ele>
      </trkpt>
      <trkpt lat="51.49392" lon="6.09448">
        <ele>21.0</ele>
      </trkpt>
      <trkpt lat="51.49455" lon="6.09383">
        <ele>21.0</ele>
      </trkpt>
      <trkpt lat="51.49518" lon="6.09318">
        <ele>20.8</ele>
      </trkpt>
      <trkpt lat="51.49523" lon="6.09316">
        <ele>20.8</ele>
      </trkpt>
      <trkpt lat="51.49529" lon="6.09316">
        <ele>20.7</ele>
      </trkpt>
      <trkpt lat="51.49534" lon="6.09318">
        <ele>20.7</ele>
      </trkpt>
      <trkpt lat="51.49541" lon="6.0927">
        <ele>20.9</ele>
      </trkpt>
      <trkpt lat="51.49526" lon="6.09263">
        <ele>21.0</ele>
      </trkpt>
      <trkpt lat="51.49514" lon="6.09251">
        <ele>21.0</ele>
      </trkpt>
      <trkpt lat="51.49471" lon="6.09201">
        <ele>20.7</ele>
      </trkpt>
      <trkpt lat="51.49429" lon="6.09152">
        <ele>20.1</ele>
      </trkpt>
      <trkpt lat="51.49382" lon="6.091">
        <ele>20.4</ele>
      </trkpt>
      <trkpt lat="51.49366" lon="6.09079">
        <ele>20.6</ele>
      </trkpt>
      <trkpt lat="51.49348" lon="6.09047">
        <ele>20.8</ele>
      </trkpt>
      <trkpt lat="51.49336" lon="6.09021">
        <ele>21.0</ele>
      </trkpt>
      <trkpt lat="51.493" lon="6.08929">
        <ele>20.4</ele>
      </trkpt>
      <trkpt lat="51.49276" lon="6.0888">
        <ele>20.9</ele>
      </trkpt>
      <trkpt lat="51.49248" lon="6.08834">
        <ele>22.0</ele>
      </trkpt>
      <trkpt lat="51.49195" lon="6.08761">
        <ele>20.2</ele>
      </trkpt>
      <trkpt lat="51.49138" lon="6.08686">
        <ele>21.6</ele>
      </trkpt>
      <trkpt lat="51.49081" lon="6.08611">
        <ele>23.7</ele>
      </trkpt>
      <trkpt lat="51.4908" lon="6.08599">
        <ele>23.4</ele>
      </trkpt>
      <trkpt lat="51.49078" lon="6.08593">
        <ele>23.2</ele>
      </trkpt>
      <trkpt lat="51.49015" lon="6.08505">
        <ele>21.3</ele>
      </trkpt>
      <trkpt lat="51.48952" lon="6.08416">
        <ele>20.0</ele>
      </trkpt>
      <trkpt lat="51.48916" lon="6.08366">
        <ele>20.0</ele>
      </trkpt>
      <trkpt lat="51.4888" lon="6.08316">
        <ele>20.0</ele>
      </trkpt>
      <trkpt lat="51.48923" lon="6.08237">
        <ele>20.0</ele>
      </trkpt>
      <trkpt lat="51.48966" lon="6.08158">
        <ele>19.9</ele>
      </trkpt>
      <trkpt lat="51.4901" lon="6.08079">
        <ele>19.0</ele>
      </trkpt>
      <trkpt lat="51.48997" lon="6.0806">
        <ele>19.0</ele>
      </trkpt>
      <trkpt lat="51.48992" lon="6.0805">
        <ele>19.0</ele>
      </trkpt>
      <trkpt lat="51.4899" lon="6.08042">
        <ele>19.0</ele>
      </trkpt>
      <trkpt lat="51.48987" lon="6.08027">
        <ele>19.0</ele>
      </trkpt>
      <trkpt lat="51.48984" lon="6.07959">
        <ele>19.5</ele>
      </trkpt>
      <trkpt lat="51.48982" lon="6.07935">
        <ele>19.8</ele>
      </trkpt>
      <trkpt lat="51.48978" lon="6.07901">
        <ele>20.1</ele>
      </trkpt>
      <trkpt lat="51.48975" lon="6.07891">
        <ele>20.2</ele>
      </trkpt>
      <trkpt lat="51.48972" lon="6.07881">
        <ele>20.3</ele>
      </trkpt>
      <trkpt lat="51.48956" lon="6.07844">
        <ele>20.4</ele>
      </trkpt>
      <trkpt lat="51.48953" lon="6.07834">
        <ele>20.4</ele>
      </trkpt>
      <trkpt lat="51.48948" lon="6.0781">
        <ele>20.7</ele>
      </trkpt>
      <trkpt lat="51.48928" lon="6.07695">
        <ele>22.4</ele>
      </trkpt>
      <trkpt lat="51.48906" lon="6.07604">
        <ele>21.5</ele>
      </trkpt>
      <trkpt lat="51.48892" lon="6.07564">
        <ele>20.6</ele>
      </trkpt>
      <trkpt lat="51.48867" lon="6.07497">
        <ele>19.6</ele>
      </trkpt>
      <trkpt lat="51.48858" lon="6.07486">
        <ele>19.8</ele>
      </trkpt>
      <trkpt lat="51.48827" lon="6.07478">
        <ele>20.0</ele>
      </trkpt>
      <trkpt lat="51.4882" lon="6.07474">
        <ele>20.0</ele>
      </trkpt>
      <trkpt lat="51.48814" lon="6.07467">
        <ele>19.9</ele>
      </trkpt>
      <trkpt lat="51.4881" lon="6.07459">
        <ele>19.9</ele>
      </trkpt>
      <trkpt lat="51.48806" lon="6.07446">
        <ele>19.8</ele>
      </trkpt>
      <trkpt lat="51.48796" lon="6.07429">
        <ele>19.6</ele>
      </trkpt>
      <trkpt lat="51.4878" lon="6.07396">
        <ele>19.4</ele>
      </trkpt>
      <trkpt lat="51.48753" lon="6.07332">
        <ele>19.0</ele>
      </trkpt>
      <trkpt lat="51.48716" lon="6.0723">
        <ele>19.4</ele>
      </trkpt>
      <trkpt lat="51.48679" lon="6.07128">
        <ele>20.0</ele>
      </trkpt>
      <trkpt lat="51.48672" lon="6.07114">
        <ele>20.0</ele>
      </trkpt>
      <trkpt lat="51.4866" lon="6.0708">
        <ele>20.1</ele>
      </trkpt>
      <trkpt lat="51.48646" lon="6.07037">
        <ele>20.2</ele>
      </trkpt>
      <trkpt lat="51.48641" lon="6.07025">
        <ele>20.3</ele>
      </trkpt>
      <trkpt lat="51.48633" lon="6.07016">
        <ele>20.4</ele>
      </trkpt>
      <trkpt lat="51.48623" lon="6.07011">
        <ele>20.5</ele>
      </trkpt>
      <trkpt lat="51.48615" lon="6.07006">
        <ele>20.6</ele>
      </trkpt>
      <trkpt lat="51.48611" lon="6.06998">
        <ele>20.7</ele>
      </trkpt>
      <trkpt lat="51.48604" lon="6.06983">
        <ele>20.6</ele>
      </trkpt>
      <trkpt lat="51.48575" lon="6.06905">
        <ele>20.0</ele>
      </trkpt>
      <trkpt lat="51.48534" lon="6.06831">
        <ele>20.0</ele>
      </trkpt>
      <trkpt lat="51.48493" lon="6.06757">
        <ele>19.2</ele>
      </trkpt>
      <trkpt lat="51.48488" lon="6.06745">
        <ele>19.1</ele>
      </trkpt>
      <trkpt lat="51.48483" lon="6.06722">
        <ele>19.1</ele>
      </trkpt>
      <trkpt lat="51.48481" lon="6.06667">
        <ele>19.0</ele>
      </trkpt>
      <trkpt lat="51.48478" lon="6.06641">
        <ele>19.0</ele>
      </trkpt>
      <trkpt lat="51.48475" lon="6.0663">
        <ele>19.0</ele>
      </trkpt>
      <trkpt lat="51.48443" lon="6.06555">
        <ele>19.0</ele>
      </trkpt>
      <trkpt lat="51.48397" lon="6.06455">
        <ele>19.2</ele>
      </trkpt>
      <trkpt lat="51.48386" lon="6.06439">
        <ele>19.4</ele>
      </trkpt>
      <trkpt lat="51.48373" lon="6.06406">
        <ele>19.5</ele>
      </trkpt>
      <trkpt lat="51.48361" lon="6.0638">
        <ele>19.7</ele>
      </trkpt>
      <trkpt lat="51.48354" lon="6.06358">
        <ele>19.8</ele>
      </trkpt>
      <trkpt lat="51.4834" lon="6.06329">
        <ele>19.9</ele>
      </trkpt>
      <trkpt lat="51.4832" lon="6.06282">
        <ele>20.1</ele>
      </trkpt>
      <trkpt lat="51.48314" lon="6.06264">
        <ele>20.0</ele>
      </trkpt>
      <trkpt lat="51.48278" lon="6.06191">
        <ele>20.0</ele>
      </trkpt>
      <trkpt lat="51.4826" lon="6.06143">
        <ele>19.8</ele>
      </trkpt>
      <trkpt lat="51.4824" lon="6.06105">
        <ele>19.4</ele>
      </trkpt>
      <trkpt lat="51.48207" lon="6.06049">
        <ele>19.5</ele>
      </trkpt>
      <trkpt lat="51.48174" lon="6.05992">
        <ele>19.9</ele>
      </trkpt>
      <trkpt lat="51.48151" lon="6.05931">
        <ele>20.3</ele>
      </trkpt>
      <trkpt lat="51.48127" lon="6.05869">
        <ele>21.0</ele>
      </trkpt>
      <trkpt lat="51.48116" lon="6.05841">
        <ele>21.2</ele>
      </trkpt>
      <trkpt lat="51.4808" lon="6.05743">
        <ele>21.2</ele>
      </trkpt>
      <trkpt lat="51.48083" lon="6.05741">
        <ele>21.2</ele>
      </trkpt>
      <trkpt lat="51.48092" lon="6.05734">
        <ele>21.2</ele>
      </trkpt>
      <trkpt lat="51.48142" lon="6.05697">
        <ele>21.3</ele>
      </trkpt>
      <trkpt lat="51.48191" lon="6.0566">
        <ele>22.3</ele>
      </trkpt>
      <trkpt lat="51.48267" lon="6.05606">
        <ele>22.9</ele>
      </trkpt>
      <trkpt lat="51.48277" lon="6.05625">
        <ele>22.8</ele>
      </trkpt>
      <trkpt lat="51.48287" lon="6.05641">
        <ele>22.7</ele>
      </trkpt>
      <trkpt lat="51.48353" lon="6.05729">
        <ele>22.0</ele>
      </trkpt>
      <trkpt lat="51.4842" lon="6.05818">
        <ele>21.2</ele>
      </trkpt>
      <trkpt lat="51.48446" lon="6.05865">
        <ele>21.0</ele>
      </trkpt>
      <trkpt lat="51.48468" lon="6.05911">
        <ele>21.0</ele>
      </trkpt>
      <trkpt lat="51.48497" lon="6.05985">
        <ele>21.8</ele>
      </trkpt>
      <trkpt lat="51.48525" lon="6.06077">
        <ele>21.4</ele>
      </trkpt>
      <trkpt lat="51.48553" lon="6.06169">
        <ele>20.6</ele>
      </trkpt>
      <trkpt lat="51.48563" lon="6.06194">
        <ele>20.8</ele>
      </trkpt>
      <trkpt lat="51.48574" lon="6.06212">
        <ele>20.9</ele>
      </trkpt>
      <trkpt lat="51.48584" lon="6.06218">
        <ele>21.0</ele>
      </trkpt>
      <trkpt lat="51.48596" lon="6.06222">
        <ele>20.9</ele>
      </trkpt>
      <trkpt lat="51.48612" lon="6.06218">
        <ele>20.9</ele>
      </trkpt>
      <trkpt lat="51.48695" lon="6.06172">
        <ele>20.4</ele>
      </trkpt>
      <trkpt lat="51.48778" lon="6.06127">
        <ele>21.0</ele>
      </trkpt>
      <trkpt lat="51.48823" lon="6.06105">
        <ele>21.4</ele>
      </trkpt>
      <trkpt lat="51.48869" lon="6.06084">
        <ele>21.0</ele>
      </trkpt>
      <trkpt lat="51.48936" lon="6.06077">
        <ele>21.2</ele>
      </trkpt>
      <trkpt lat="51.49004" lon="6.0607">
        <ele>22.0</ele>
      </trkpt>
      <trkpt lat="51.49086" lon="6.06044">
        <ele>22.1</ele>
      </trkpt>
      <trkpt lat="51.49167" lon="6.06018">
        <ele>24.0</ele>
      </trkpt>
      <trkpt lat="51.49167" lon="6.05931">
        <ele>23.2</ele>
      </trkpt>
      <trkpt lat="51.49167" lon="6.05844">
        <ele>22.1</ele>
      </trkpt>
      <trkpt lat="51.49174" lon="6.05845">
        <ele>22.4</ele>
      </trkpt>
      <trkpt lat="51.49197" lon="6.05843">
        <ele>23.2</ele>
      </trkpt>
      <trkpt lat="51.49268" lon="6.0581">
        <ele>24.3</ele>
      </trkpt>
      <trkpt lat="51.4934" lon="6.05777">
        <ele>23.3</ele>
      </trkpt>
      <trkpt lat="51.49354" lon="6.05768">
        <ele>23.1</ele>
      </trkpt>
      <trkpt lat="51.49373" lon="6.05751">
        <ele>23.0</ele>
      </trkpt>
      <trkpt lat="51.49423" lon="6.05695">
        <ele>22.9</ele>
      </trkpt>
      <trkpt lat="51.49423" lon="6.05695">
        <ele>22.9</ele>
      </trkpt>
      <trkpt lat="51.49485" lon="6.05626">
        <ele>22.6</ele>
      </trkpt>
      <trkpt lat="51.49494" lon="6.05619">
        <ele>22.6</ele>
      </trkpt>
      <trkpt lat="51.49502" lon="6.05617">
        <ele>22.6</ele>
      </trkpt>
      <trkpt lat="51.49514" lon="6.05618">
        <ele>22.6</ele>
      </trkpt>
      <trkpt lat="51.49526" lon="6.05623">
        <ele>22.5</ele>
      </trkpt>
      <trkpt lat="51.4953" lon="6.05549">
        <ele>22.6</ele>
      </trkpt>
      <trkpt lat="51.4953" lon="6.05471">
        <ele>22.5</ele>
      </trkpt>
      <trkpt lat="51.49523" lon="6.05391">
        <ele>22.4</ele>
      </trkpt>
      <trkpt lat="51.49516" lon="6.05311">
        <ele>22.7</ele>
      </trkpt>
      <trkpt lat="51.49513" lon="6.0526">
        <ele>22.8</ele>
      </trkpt>
      <trkpt lat="51.49519" lon="6.05208">
        <ele>22.9</ele>
      </trkpt>
      <trkpt lat="51.49534" lon="6.05119">
        <ele>23.2</ele>
      </trkpt>
      <trkpt lat="51.49558" lon="6.04986">
        <ele>23.7</ele>
      </trkpt>
      <trkpt lat="51.49582" lon="6.04854">
        <ele>24.0</ele>
      </trkpt>
      <trkpt lat="51.49583" lon="6.04831">
        <ele>24.0</ele>
      </trkpt>
      <trkpt lat="51.4958" lon="6.048">
        <ele>24.0</ele>
      </trkpt>
      <trkpt lat="51.49555" lon="6.04705">
        <ele>24.0</ele>
      </trkpt>
      <trkpt lat="51.49531" lon="6.0461">
        <ele>23.8</ele>
      </trkpt>
      <trkpt lat="51.49599" lon="6.04558">
        <ele>24.8</ele>
      </trkpt>
      <trkpt lat="51.49668" lon="6.04506">
        <ele>24.0</ele>
      </trkpt>
      <trkpt lat="51.49736" lon="6.04454">
        <ele>23.1</ele>
      </trkpt>
      <trkpt lat="51.49805" lon="6.04402">
        <ele>24.3</ele>
      </trkpt>
      <trkpt lat="51.49873" lon="6.0435">
        <ele>25.0</ele>
      </trkpt>
      <trkpt lat="51.49942" lon="6.04298">
        <ele>24.9</ele>
      </trkpt>
      <trkpt lat="51.4996" lon="6.04288">
        <ele>25.0</ele>
      </trkpt>
      <trkpt lat="51.49981" lon="6.04286">
        <ele>25.2</ele>
      </trkpt>
      <trkpt lat="51.50038" lon="6.04287">
        <ele>25.0</ele>
      </trkpt>
      <trkpt lat="51.50096" lon="6.04289">
        <ele>24.6</ele>
      </trkpt>
      <trkpt lat="51.50142" lon="6.04287">
        <ele>24.9</ele>
      </trkpt>
      <trkpt lat="51.50175" lon="6.04274">
        <ele>25.1</ele>
      </trkpt>
      <trkpt lat="51.50188" lon="6.04267">
        <ele>25.2</ele>
      </trkpt>
      <trkpt lat="51.5026" lon="6.04203">
        <ele>25.6</ele>
      </trkpt>
      <trkpt lat="51.50323" lon="6.04145">
        <ele>23.3</ele>
      </trkpt>
      <trkpt lat="51.50387" lon="6.04086">
        <ele>23.6</ele>
      </trkpt>
      <trkpt lat="51.5045" lon="6.04028">
        <ele>24.4</ele>
      </trkpt>
      <trkpt lat="51.50514" lon="6.0397">
        <ele>23.9</ele>
      </trkpt>
      <trkpt lat="51.50578" lon="6.03911">
        <ele>24.0</ele>
      </trkpt>
      <trkpt lat="51.5061" lon="6.03886">
        <ele>24.0</ele>
      </trkpt>
      <trkpt lat="51.50637" lon="6.03873">
        <ele>24.0</ele>
      </trkpt>
      <trkpt lat="51.50667" lon="6.03868">
        <ele>24.0</ele>
      </trkpt>
      <trkpt lat="51.50699" lon="6.03871">
        <ele>24.0</ele>
      </trkpt>
      <trkpt lat="51.50736" lon="6.0388">
        <ele>24.0</ele>
      </trkpt>
      <trkpt lat="51.50761" lon="6.03885">
        <ele>24.1</ele>
      </trkpt>
      <trkpt lat="51.5078" lon="6.03883">
        <ele>24.4</ele>
      </trkpt>
      <trkpt lat="51.50798" lon="6.03878">
        <ele>24.6</ele>
      </trkpt>
      <trkpt lat="51.50864" lon="6.03845">
        <ele>25.3</ele>
      </trkpt>
      <trkpt lat="51.5089" lon="6.03827">
        <ele>25.7</ele>
      </trkpt>
      <trkpt lat="51.50942" lon="6.03781">
        <ele>25.6</ele>
      </trkpt>
      <trkpt lat="51.50997" lon="6.0373">
        <ele>25.0</ele>
      </trkpt>
      <trkpt lat="51.51023" lon="6.03701">
        <ele>25.3</ele>
      </trkpt>
      <trkpt lat="51.51068" lon="6.03658">
        <ele>25.7</ele>
      </trkpt>
      <trkpt lat="51.51083" lon="6.03649">
        <ele>25.8</ele>
      </trkpt>
      <trkpt lat="51.511" lon="6.03644">
        <ele>25.6</ele>
      </trkpt>
      <trkpt lat="51.5111" lon="6.03782">
        <ele>25.5</ele>
      </trkpt>
      <trkpt lat="51.51116" lon="6.03854">
        <ele>25.4</ele>
      </trkpt>
      <trkpt lat="51.51121" lon="6.03891">
        <ele>25.5</ele>
      </trkpt>
      <trkpt lat="51.51131" lon="6.03931">
        <ele>25.4</ele>
      </trkpt>
      <trkpt lat="51.51153" lon="6.04008">
        <ele>24.8</ele>
      </trkpt>
      <trkpt lat="51.51175" lon="6.04084">
        <ele>24.8</ele>
      </trkpt>
      <trkpt lat="51.51213" lon="6.04205">
        <ele>23.3</ele>
      </trkpt>
      <trkpt lat="51.51221" lon="6.04237">
        <ele>23.0</ele>
      </trkpt>
      <trkpt lat="51.51235" lon="6.04275">
        <ele>22.5</ele>
      </trkpt>
      <trkpt lat="51.51279" lon="6.04383">
        <ele>21.7</ele>
      </trkpt>
      <trkpt lat="51.51323" lon="6.0449">
        <ele>21.9</ele>
      </trkpt>
      <trkpt lat="51.51367" lon="6.04597">
        <ele>21.8</ele>
      </trkpt>
      <trkpt lat="51.51411" lon="6.04704">
        <ele>21.0</ele>
      </trkpt>
      <trkpt lat="51.51455" lon="6.04812">
        <ele>21.7</ele>
      </trkpt>
      <trkpt lat="51.51499" lon="6.04919">
        <ele>22.0</ele>
      </trkpt>
      <trkpt lat="51.51543" lon="6.05026">
        <ele>22.8</ele>
      </trkpt>
      <trkpt lat="51.51587" lon="6.05133">
        <ele>22.3</ele>
      </trkpt>
      <trkpt lat="51.51631" lon="6.05241">
        <ele>21.0</ele>
      </trkpt>
      <trkpt lat="51.51674" lon="6.0534">
        <ele>20.9</ele>
      </trkpt>
      <trkpt lat="51.51695" lon="6.05372">
        <ele>20.8</ele>
      </trkpt>
      <trkpt lat="51.51711" lon="6.05392">
        <ele>20.8</ele>
      </trkpt>
      <trkpt lat="51.51728" lon="6.0541">
        <ele>20.9</ele>
      </trkpt>
      <trkpt lat="51.51752" lon="6.0543">
        <ele>21.1</ele>
      </trkpt>
      <trkpt lat="51.51821" lon="6.05474">
        <ele>20.8</ele>
      </trkpt>
      <trkpt lat="51.51891" lon="6.05518">
        <ele>21.7</ele>
      </trkpt>
      <trkpt lat="51.5196" lon="6.05562">
        <ele>22.0</ele>
      </trkpt>
      <trkpt lat="51.52026" lon="6.05602">
        <ele>21.4</ele>
      </trkpt>
      <trkpt lat="51.52093" lon="6.05643">
        <ele>20.8</ele>
      </trkpt>
      <trkpt lat="51.52112" lon="6.0565">
        <ele>21.1</ele>
      </trkpt>
      <trkpt lat="51.52108" lon="6.05677">
        <ele>21.3</ele>
      </trkpt>
      <trkpt lat="51.52097" lon="6.0574">
        <ele>21.0</ele>
      </trkpt>
      <trkpt lat="51.52078" lon="6.05852">
        <ele>20.9</ele>
      </trkpt>
      <trkpt lat="51.5206" lon="6.05964">
        <ele>20.7</ele>
      </trkpt>
      <trkpt lat="51.52041" lon="6.06076">
        <ele>20.5</ele>
      </trkpt>
      <trkpt lat="51.52023" lon="6.06188">
        <ele>19.9</ele>
      </trkpt>
      <trkpt lat="51.52004" lon="6.06308">
        <ele>19.9</ele>
      </trkpt>
      <trkpt lat="51.51984" lon="6.06427">
        <ele>20.1</ele>
      </trkpt>
      <trkpt lat="51.51965" lon="6.06547">
        <ele>21.2</ele>
      </trkpt>
      <trkpt lat="51.51946" lon="6.0666">
        <ele>23.2</ele>
      </trkpt>
      <trkpt lat="51.51927" lon="6.06773">
        <ele>24.9</ele>
      </trkpt>
      <trkpt lat="51.51922" lon="6.0678">
        <ele>25.2</ele>
      </trkpt>
      <trkpt lat="51.51921" lon="6.06801">
        <ele>25.5</ele>
      </trkpt>
      <trkpt lat="51.51915" lon="6.06836">
        <ele>26.0</ele>
      </trkpt>
      <trkpt lat="51.51899" lon="6.06937">
        <ele>26.1</ele>
      </trkpt>
      <trkpt lat="51.51884" lon="6.07037">
        <ele>25.8</ele>
      </trkpt>
      <trkpt lat="51.51868" lon="6.07133">
        <ele>24.0</ele>
      </trkpt>
      <trkpt lat="51.51855" lon="6.07202">
        <ele>22.9</ele>
      </trkpt>
      <trkpt lat="51.51829" lon="6.07335">
        <ele>20.9</ele>
      </trkpt>
      <trkpt lat="51.51803" lon="6.07469">
        <ele>19.0</ele>
      </trkpt>
      <trkpt lat="51.51797" lon="6.075">
        <ele>18.4</ele>
      </trkpt>
      <trkpt lat="51.5186" lon="6.07519">
        <ele>18.0</ele>
      </trkpt>
      <trkpt lat="51.51922" lon="6.07538">
        <ele>18.0</ele>
      </trkpt>
      <trkpt lat="51.51985" lon="6.07557">
        <ele>18.0</ele>
      </trkpt>
      <trkpt lat="51.5202" lon="6.07565">
        <ele>18.0</ele>
      </trkpt>
      <trkpt lat="51.52047" lon="6.07566">
        <ele>18.0</ele>
      </trkpt>
      <trkpt lat="51.5213" lon="6.07565">
        <ele>18.0</ele>
      </trkpt>
      <trkpt lat="51.52212" lon="6.07564">
        <ele>18.0</ele>
      </trkpt>
      <trkpt lat="51.52294" lon="6.07562">
        <ele>18.0</ele>
      </trkpt>
      <trkpt lat="51.52377" lon="6.07561">
        <ele>18.8</ele>
      </trkpt>
      <trkpt lat="51.52441" lon="6.07557">
        <ele>19.9</ele>
      </trkpt>
      <trkpt lat="51.52466" lon="6.07549">
        <ele>20.1</ele>
      </trkpt>
      <trkpt lat="51.5255" lon="6.07515">
        <ele>19.5</ele>
      </trkpt>
      <trkpt lat="51.52631" lon="6.07483">
        <ele>17.2</ele>
      </trkpt>
      <trkpt lat="51.52711" lon="6.07452">
        <ele>16.5</ele>
      </trkpt>
      <trkpt lat="51.52792" lon="6.0742">
        <ele>17.5</ele>
      </trkpt>
      <trkpt lat="51.52873" lon="6.07388">
        <ele>17.7</ele>
      </trkpt>
      <trkpt lat="51.5293" lon="6.07366">
        <ele>17.5</ele>
      </trkpt>
      <trkpt lat="51.52988" lon="6.07343">
        <ele>17.9</ele>
      </trkpt>
      <trkpt lat="51.52994" lon="6.07339">
        <ele>17.9</ele>
      </trkpt>
      <trkpt lat="51.53001" lon="6.07332">
        <ele>18.0</ele>
      </trkpt>
      <trkpt lat="51.53005" lon="6.07339">
        <ele>17.9</ele>
      </trkpt>
      <trkpt lat="51.53032" lon="6.07408">
        <ele>18.0</ele>
      </trkpt>
      <trkpt lat="51.5306" lon="6.07477">
        <ele>18.7</ele>
      </trkpt>
      <trkpt lat="51.5308" lon="6.07529">
        <ele>19.4</ele>
      </trkpt>
      <trkpt lat="51.53086" lon="6.07553">
        <ele>19.6</ele>
      </trkpt>
      <trkpt lat="51.53089" lon="6.07573">
        <ele>19.8</ele>
      </trkpt>
      <trkpt lat="51.53087" lon="6.07634">
        <ele>20.4</ele>
      </trkpt>
      <trkpt lat="51.53081" lon="6.07705">
        <ele>19.2</ele>
      </trkpt>
      <trkpt lat="51.53059" lon="6.07705">
        <ele>19.9</ele>
      </trkpt>
      <trkpt lat="51.5298" lon="6.07711">
        <ele>21.5</ele>
      </trkpt>
      <trkpt lat="51.5299" lon="6.0773">
        <ele>20.3</ele>
      </trkpt>
      <trkpt lat="51.52998" lon="6.07737">
        <ele>19.8</ele>
      </trkpt>
      <trkpt lat="51.53007" lon="6.0774">
        <ele>19.4</ele>
      </trkpt>
      <trkpt lat="51.5307" lon="6.0774">
        <ele>17.8</ele>
      </trkpt>
      <trkpt lat="51.53133" lon="6.07739">
        <ele>15.6</ele>
      </trkpt>
      <trkpt lat="51.53201" lon="6.07739">
        <ele>14.3</ele>
      </trkpt>
      <trkpt lat="51.53268" lon="6.07739">
        <ele>14.0</ele>
      </trkpt>
      <trkpt lat="51.53318" lon="6.0774">
        <ele>13.4</ele>
      </trkpt>
      <trkpt lat="51.53377" lon="6.07739">
        <ele>13.8</ele>
      </trkpt>
      <trkpt lat="51.53437" lon="6.07738">
        <ele>14.0</ele>
      </trkpt>
      <trkpt lat="51.53488" lon="6.07715">
        <ele>14.0</ele>
      </trkpt>
      <trkpt lat="51.53505" lon="6.07703">
        <ele>14.2</ele>
      </trkpt>
      <trkpt lat="51.53518" lon="6.07702">
        <ele>14.5</ele>
      </trkpt>
      <trkpt lat="51.53525" lon="6.077">
        <ele>14.6</ele>
      </trkpt>
      <trkpt lat="51.53533" lon="6.07735">
        <ele>14.1</ele>
      </trkpt>
      <trkpt lat="51.53543" lon="6.0776">
        <ele>13.9</ele>
      </trkpt>
      <trkpt lat="51.53591" lon="6.07743">
        <ele>15.1</ele>
      </trkpt>
      <trkpt lat="51.53611" lon="6.07734">
        <ele>15.2</ele>
      </trkpt>
      <trkpt lat="51.53647" lon="6.07713">
        <ele>15.4</ele>
      </trkpt>
      <trkpt lat="51.53664" lon="6.07706">
        <ele>15.5</ele>
      </trkpt>
      <trkpt lat="51.53714" lon="6.07692">
        <ele>15.0</ele>
      </trkpt>
      <trkpt lat="51.53735" lon="6.07688">
        <ele>14.7</ele>
      </trkpt>
      <trkpt lat="51.53758" lon="6.07696">
        <ele>14.3</ele>
      </trkpt>
      <trkpt lat="51.53789" lon="6.07716">
        <ele>13.9</ele>
      </trkpt>
      <trkpt lat="51.53821" lon="6.07734">
        <ele>13.9</ele>
      </trkpt>
      <trkpt lat="51.53859" lon="6.07748">
        <ele>13.7</ele>
      </trkpt>
      <trkpt lat="51.53889" lon="6.07748">
        <ele>13.3</ele>
      </trkpt>
      <trkpt lat="51.53917" lon="6.0774">
        <ele>12.9</ele>
      </trkpt>
      <trkpt lat="51.5395" lon="6.07721">
        <ele>13.2</ele>
      </trkpt>
      <trkpt lat="51.53974" lon="6.077">
        <ele>13.5</ele>
      </trkpt>
      <trkpt lat="51.54" lon="6.07674">
        <ele>14.0</ele>
      </trkpt>
      <trkpt lat="51.54043" lon="6.07625">
        <ele>13.7</ele>
      </trkpt>
      <trkpt lat="51.54051" lon="6.07613">
        <ele>13.5</ele>
      </trkpt>
      <trkpt lat="51.54056" lon="6.07601">
        <ele>13.2</ele>
      </trkpt>
      <trkpt lat="51.54061" lon="6.07589">
        <ele>12.9</ele>
      </trkpt>
      <trkpt lat="51.54066" lon="6.07565">
        <ele>12.4</ele>
      </trkpt>
      <trkpt lat="51.54068" lon="6.07553">
        <ele>12.3</ele>
      </trkpt>
      <trkpt lat="51.54068" lon="6.0754">
        <ele>12.1</ele>
      </trkpt>
      <trkpt lat="51.54068" lon="6.07525">
        <ele>12.0</ele>
      </trkpt>
      <trkpt lat="51.54061" lon="6.07418">
        <ele>12.3</ele>
      </trkpt>
      <trkpt lat="51.54055" lon="6.07311">
        <ele>12.1</ele>
      </trkpt>
      <trkpt lat="51.54059" lon="6.07292">
        <ele>12.2</ele>
      </trkpt>
      <trkpt lat="51.54059" lon="6.07266">
        <ele>12.3</ele>
      </trkpt>
      <trkpt lat="51.54061" lon="6.07253">
        <ele>12.4</ele>
      </trkpt>
      <trkpt lat="51.54069" lon="6.07217">
        <ele>12.6</ele>
      </trkpt>
      <trkpt lat="51.54071" lon="6.07205">
        <ele>12.6</ele>
      </trkpt>
      <trkpt lat="51.54072" lon="6.07175">
        <ele>12.6</ele>
      </trkpt>
      <trkpt lat="51.54071" lon="6.07151">
        <ele>12.6</ele>
      </trkpt>
      <trkpt lat="51.54063" lon="6.07096">
        <ele>12.7</ele>
      </trkpt>
      <trkpt lat="51.54059" lon="6.07088">
        <ele>12.7</ele>
      </trkpt>
      <trkpt lat="51.54041" lon="6.07073">
        <ele>12.6</ele>
      </trkpt>
      <trkpt lat="51.5405" lon="6.07036">
        <ele>12.8</ele>
      </trkpt>
      <trkpt lat="51.54054" lon="6.07025">
        <ele>12.9</ele>
      </trkpt>
      <trkpt lat="51.54064" lon="6.07009">
        <ele>13.0</ele>
      </trkpt>
      <trkpt lat="51.5407" lon="6.07003">
        <ele>13.0</ele>
      </trkpt>
      <trkpt lat="51.54095" lon="6.06988">
        <ele>13.1</ele>
      </trkpt>
      <trkpt lat="51.54128" lon="6.0697">
        <ele>13.2</ele>
      </trkpt>
      <trkpt lat="51.54138" lon="6.06963">
        <ele>13.2</ele>
      </trkpt>
      <trkpt lat="51.54147" lon="6.06952">
        <ele>13.1</ele>
      </trkpt>
      <trkpt lat="51.54165" lon="6.06922">
        <ele>13.0</ele>
      </trkpt>
      <trkpt lat="51.54177" lon="6.06939">
        <ele>12.8</ele>
      </trkpt>
      <trkpt lat="51.54183" lon="6.06935">
        <ele>12.7</ele>
      </trkpt>
      <trkpt lat="51.54188" lon="6.06936">
        <ele>12.5</ele>
      </trkpt>
      <trkpt lat="51.54192" lon="6.0694">
        <ele>12.5</ele>
      </trkpt>
      <trkpt lat="51.54199" lon="6.06938">
        <ele>12.3</ele>
      </trkpt>
      <trkpt lat="51.54201" lon="6.06953">
        <ele>12.4</ele>
      </trkpt>
      <trkpt lat="51.54208" lon="6.07062">
        <ele>12.5</ele>
      </trkpt>
      <trkpt lat="51.54214" lon="6.07171">
        <ele>12.0</ele>
      </trkpt>
      <trkpt lat="51.54221" lon="6.0728">
        <ele>12.1</ele>
      </trkpt>
      <trkpt lat="51.54227" lon="6.0739">
        <ele>12.4</ele>
      </trkpt>
      <trkpt lat="51.54231" lon="6.0746">
        <ele>12.9</ele>
      </trkpt>
    </trkseg>
  </trk>
</gpx>
